<?xml version="1.0" encoding="UTF-8"?>
<kml xmlns="http://www.opengis.net/kml/2.2" xmlns:gx="http://www.google.com/kml/ext/2.2">
    <Document id="14669">
        <Style id="14672">
            <LineStyle id="14673">
                <color>ff000000</color>
                <colorMode>normal</colorMode>
                <width>2</width>
            </LineStyle>
        </Style>
        <Placemark id="14671">
            <styleUrl>#14672</styleUrl>
            <LineString id="14670">
                <altitudeMode>clampToGround</altitudeMode>
                <coordinates>80.10356406053302,12.927243897611762,0.0 80.12199447641714,12.927243247133992,0.0 80.12362350006099,12.925645330859608,0.0 80.12199450957513,12.927695204611112,0.0 80.10356406053302,12.92769585511238,0.0 80.10193503395456,12.926097938893104,0.0 80.10356406053302,12.92814781259738,0.0 80.12199454273438,12.928147162072607,0.0 80.12362357223911,12.926549245908282,0.0 80.12199457589489,12.928599119518486,0.0 80.10356406053302,12.928599770066763,0.0 80.10193502809345,12.927001853957547,0.0 80.10356406053302,12.929051727520525,0.0 80.12199460905666,12.929051076948744,0.0 80.12362364442272,12.92745316089448,0.0 80.12199464221969,12.92950303436339,0.0 80.10356406053302,12.929503684958672,0.0 80.1019350222319,12.927905768959521,0.0 80.10356406053302,12.9299556423812,0.0 80.12199467538397,12.929954991762413,0.0 80.12362371661182,12.928357075818226,0.0 80.12199470854951,12.930406949145818,0.0 80.10356406053302,12.930407599788106,0.0 80.10193501636991,12.928809683899035,0.0</coordinates>
            </LineString>
        </Placemark>
        <Placemark id="14675">
            <name>1</name>
            <Point id="14674">
                <coordinates>80.10356406053302,12.927243897611762,0.0</coordinates>
            </Point>
        </Placemark>
        <Placemark id="14677">
            <name>2</name>
            <Point id="14676">
                <coordinates>80.12199447641714,12.927243247133992,0.0</coordinates>
            </Point>
        </Placemark>
        <Placemark id="14679">
            <name>3</name>
            <Point id="14678">
                <coordinates>80.12362350006099,12.925645330859608,0.0</coordinates>
            </Point>
        </Placemark>
        <Placemark id="14681">
            <name>4</name>
            <Point id="14680">
                <coordinates>80.12199450957513,12.927695204611112,0.0</coordinates>
            </Point>
        </Placemark>
        <Placemark id="14683">
            <name>5</name>
            <Point id="14682">
                <coordinates>80.10356406053302,12.92769585511238,0.0</coordinates>
            </Point>
        </Placemark>
        <Placemark id="14685">
            <name>6</name>
            <Point id="14684">
                <coordinates>80.10193503395456,12.926097938893104,0.0</coordinates>
            </Point>
        </Placemark>
        <Placemark id="14687">
            <name>7</name>
            <Point id="14686">
                <coordinates>80.10356406053302,12.92814781259738,0.0</coordinates>
            </Point>
        </Placemark>
        <Placemark id="14689">
            <name>8</name>
            <Point id="14688">
                <coordinates>80.12199454273438,12.928147162072607,0.0</coordinates>
            </Point>
        </Placemark>
        <Placemark id="14691">
            <name>9</name>
            <Point id="14690">
                <coordinates>80.12362357223911,12.926549245908282,0.0</coordinates>
            </Point>
        </Placemark>
        <Placemark id="14693">
            <name>10</name>
            <Point id="14692">
                <coordinates>80.12199457589489,12.928599119518486,0.0</coordinates>
            </Point>
        </Placemark>
        <Placemark id="14695">
            <name>11</name>
            <Point id="14694">
                <coordinates>80.10356406053302,12.928599770066763,0.0</coordinates>
            </Point>
        </Placemark>
        <Placemark id="14697">
            <name>12</name>
            <Point id="14696">
                <coordinates>80.10193502809345,12.927001853957547,0.0</coordinates>
            </Point>
        </Placemark>
        <Placemark id="14699">
            <name>13</name>
            <Point id="14698">
                <coordinates>80.10356406053302,12.929051727520525,0.0</coordinates>
            </Point>
        </Placemark>
        <Placemark id="14701">
            <name>14</name>
            <Point id="14700">
                <coordinates>80.12199460905666,12.929051076948744,0.0</coordinates>
            </Point>
        </Placemark>
        <Placemark id="14703">
            <name>15</name>
            <Point id="14702">
                <coordinates>80.12362364442272,12.92745316089448,0.0</coordinates>
            </Point>
        </Placemark>
        <Placemark id="14705">
            <name>16</name>
            <Point id="14704">
                <coordinates>80.12199464221969,12.92950303436339,0.0</coordinates>
            </Point>
        </Placemark>
        <Placemark id="14707">
            <name>17</name>
            <Point id="14706">
                <coordinates>80.10356406053302,12.929503684958672,0.0</coordinates>
            </Point>
        </Placemark>
        <Placemark id="14709">
            <name>18</name>
            <Point id="14708">
                <coordinates>80.1019350222319,12.927905768959521,0.0</coordinates>
            </Point>
        </Placemark>
        <Placemark id="14711">
            <name>19</name>
            <Point id="14710">
                <coordinates>80.10356406053302,12.9299556423812,0.0</coordinates>
            </Point>
        </Placemark>
        <Placemark id="14713">
            <name>20</name>
            <Point id="14712">
                <coordinates>80.12199467538397,12.929954991762413,0.0</coordinates>
            </Point>
        </Placemark>
        <Placemark id="14715">
            <name>21</name>
            <Point id="14714">
                <coordinates>80.12362371661182,12.928357075818226,0.0</coordinates>
            </Point>
        </Placemark>
        <Placemark id="14717">
            <name>22</name>
            <Point id="14716">
                <coordinates>80.12199470854951,12.930406949145818,0.0</coordinates>
            </Point>
        </Placemark>
        <Placemark id="14719">
            <name>23</name>
            <Point id="14718">
                <coordinates>80.10356406053302,12.930407599788106,0.0</coordinates>
            </Point>
        </Placemark>
        <Placemark id="14721">
            <name>24</name>
            <Point id="14720">
                <coordinates>80.10193501636991,12.928809683899035,0.0</coordinates>
            </Point>
        </Placemark>
    </Document>
</kml>
