<?xml version="1.0" encoding="UTF-8"?>
<kml xmlns="http://www.opengis.net/kml/2.2" xmlns:gx="http://www.google.com/kml/ext/2.2">
    <Document id="13931">
        <Style id="13934">
            <LineStyle id="13935">
                <color>ff000000</color>
                <colorMode>normal</colorMode>
                <width>2</width>
            </LineStyle>
        </Style>
        <Placemark id="13933">
            <styleUrl>#13934</styleUrl>
            <LineString id="13932">
                <altitudeMode>clampToGround</altitudeMode>
                <coordinates>80.10356406053302,12.916396912913044,0.0 80.12199368100295,12.916396262999308,0.0 80.1236226343509,12.914798345404796,0.0 80.12199371413074,12.916848220851088,0.0 80.10356406053302,12.916848870788327,0.0 80.10193510425314,12.915250953248874,0.0 80.10356406053302,12.917300828648004,0.0 80.12199374725978,12.917300178687263,0.0 80.12362270646327,12.915702261202718,0.0 80.12199378039007,12.917752136507834,0.0 80.10356406053302,12.917752786492075,0.0 80.10193509839738,12.916154869062598,0.0 80.10356406053302,12.91820474432054,0.0 80.12199381352164,12.9182040943128,0.0 80.12362277858112,12.916606176938231,0.0 80.12199384665445,12.918656052102156,0.0 80.10356406053302,12.918656702133397,0.0 80.10193509254117,12.917058784813902,0.0 80.10356406053302,12.919108659930647,0.0 80.12199387978853,12.919108009875906,0.0 80.12362285070445,12.917510092611327,0.0 80.12199391292387,12.919559967634047,0.0 80.10356406053302,12.919560617712289,0.0 80.1019350866845,12.917962700502786,0.0 80.10356406053302,12.920012575478323,0.0 80.12199394606046,12.920011925376578,0.0 80.12362292283325,12.918414008221989,0.0</coordinates>
            </LineString>
        </Placemark>
        <Placemark id="13937">
            <name>1</name>
            <Point id="13936">
                <coordinates>80.10356406053302,12.916396912913044,0.0</coordinates>
            </Point>
        </Placemark>
        <Placemark id="13939">
            <name>2</name>
            <Point id="13938">
                <coordinates>80.12199368100295,12.916396262999308,0.0</coordinates>
            </Point>
        </Placemark>
        <Placemark id="13941">
            <name>3</name>
            <Point id="13940">
                <coordinates>80.1236226343509,12.914798345404796,0.0</coordinates>
            </Point>
        </Placemark>
        <Placemark id="13943">
            <name>4</name>
            <Point id="13942">
                <coordinates>80.12199371413074,12.916848220851088,0.0</coordinates>
            </Point>
        </Placemark>
        <Placemark id="13945">
            <name>5</name>
            <Point id="13944">
                <coordinates>80.10356406053302,12.916848870788327,0.0</coordinates>
            </Point>
        </Placemark>
        <Placemark id="13947">
            <name>6</name>
            <Point id="13946">
                <coordinates>80.10193510425314,12.915250953248874,0.0</coordinates>
            </Point>
        </Placemark>
        <Placemark id="13949">
            <name>7</name>
            <Point id="13948">
                <coordinates>80.10356406053302,12.917300828648004,0.0</coordinates>
            </Point>
        </Placemark>
        <Placemark id="13951">
            <name>8</name>
            <Point id="13950">
                <coordinates>80.12199374725978,12.917300178687263,0.0</coordinates>
            </Point>
        </Placemark>
        <Placemark id="13953">
            <name>9</name>
            <Point id="13952">
                <coordinates>80.12362270646327,12.915702261202718,0.0</coordinates>
            </Point>
        </Placemark>
        <Placemark id="13955">
            <name>10</name>
            <Point id="13954">
                <coordinates>80.12199378039007,12.917752136507834,0.0</coordinates>
            </Point>
        </Placemark>
        <Placemark id="13957">
            <name>11</name>
            <Point id="13956">
                <coordinates>80.10356406053302,12.917752786492075,0.0</coordinates>
            </Point>
        </Placemark>
        <Placemark id="13959">
            <name>12</name>
            <Point id="13958">
                <coordinates>80.10193509839738,12.916154869062598,0.0</coordinates>
            </Point>
        </Placemark>
        <Placemark id="13961">
            <name>13</name>
            <Point id="13960">
                <coordinates>80.10356406053302,12.91820474432054,0.0</coordinates>
            </Point>
        </Placemark>
        <Placemark id="13963">
            <name>14</name>
            <Point id="13962">
                <coordinates>80.12199381352164,12.9182040943128,0.0</coordinates>
            </Point>
        </Placemark>
        <Placemark id="13965">
            <name>15</name>
            <Point id="13964">
                <coordinates>80.12362277858112,12.916606176938231,0.0</coordinates>
            </Point>
        </Placemark>
        <Placemark id="13967">
            <name>16</name>
            <Point id="13966">
                <coordinates>80.12199384665445,12.918656052102156,0.0</coordinates>
            </Point>
        </Placemark>
        <Placemark id="13969">
            <name>17</name>
            <Point id="13968">
                <coordinates>80.10356406053302,12.918656702133397,0.0</coordinates>
            </Point>
        </Placemark>
        <Placemark id="13971">
            <name>18</name>
            <Point id="13970">
                <coordinates>80.10193509254117,12.917058784813902,0.0</coordinates>
            </Point>
        </Placemark>
        <Placemark id="13973">
            <name>19</name>
            <Point id="13972">
                <coordinates>80.10356406053302,12.919108659930647,0.0</coordinates>
            </Point>
        </Placemark>
        <Placemark id="13975">
            <name>20</name>
            <Point id="13974">
                <coordinates>80.12199387978853,12.919108009875906,0.0</coordinates>
            </Point>
        </Placemark>
        <Placemark id="13977">
            <name>21</name>
            <Point id="13976">
                <coordinates>80.12362285070445,12.917510092611327,0.0</coordinates>
            </Point>
        </Placemark>
        <Placemark id="13979">
            <name>22</name>
            <Point id="13978">
                <coordinates>80.12199391292387,12.919559967634047,0.0</coordinates>
            </Point>
        </Placemark>
        <Placemark id="13981">
            <name>23</name>
            <Point id="13980">
                <coordinates>80.10356406053302,12.919560617712289,0.0</coordinates>
            </Point>
        </Placemark>
        <Placemark id="13983">
            <name>24</name>
            <Point id="13982">
                <coordinates>80.1019350866845,12.917962700502786,0.0</coordinates>
            </Point>
        </Placemark>
        <Placemark id="13985">
            <name>25</name>
            <Point id="13984">
                <coordinates>80.10356406053302,12.920012575478323,0.0</coordinates>
            </Point>
        </Placemark>
        <Placemark id="13987">
            <name>26</name>
            <Point id="13986">
                <coordinates>80.12199394606046,12.920011925376578,0.0</coordinates>
            </Point>
        </Placemark>
        <Placemark id="13989">
            <name>27</name>
            <Point id="13988">
                <coordinates>80.12362292283325,12.918414008221989,0.0</coordinates>
            </Point>
        </Placemark>
    </Document>
</kml>
