<?xml version="1.0" encoding="UTF-8"?>
<kml xmlns="http://www.opengis.net/kml/2.2" xmlns:gx="http://www.google.com/kml/ext/2.2">
    <Document id="665">
        <Style id="668">
            <LineStyle id="669">
                <color>ff000000</color>
                <colorMode>normal</colorMode>
                <width>2</width>
            </LineStyle>
        </Style>
        <Placemark id="667">
            <styleUrl>#668</styleUrl>
            <LineString id="666">
                <altitudeMode>clampToGround</altitudeMode>
                <coordinates>80.10404697542093,13.014881992264351,0.0 80.1178746272239,13.01488162380626,0.0 80.1195042211785,13.013283718235838,0.0 80.11787472743644,13.016689441510218,0.0 80.10404697542093,13.016689810021225,0.0 80.10241736965533,13.01509190467236,0.0 80.10404697542093,13.018497627526623,0.0 80.11787482766412,13.018497258962702,0.0 80.11950444523768,13.016899353835333,0.0 80.11787492790693,13.020305076163677,0.0 80.10404697542093,13.020305444780513,0.0 80.10241734603281,13.018707539874763,0.0</coordinates>
            </LineString>
        </Placemark>
        <Placemark id="671">
            <name>1</name>
            <Point id="670">
                <coordinates>80.10404697542093,13.014881992264351,0.0</coordinates>
            </Point>
        </Placemark>
        <Placemark id="673">
            <name>2</name>
            <Point id="672">
                <coordinates>80.1178746272239,13.01488162380626,0.0</coordinates>
            </Point>
        </Placemark>
        <Placemark id="675">
            <name>3</name>
            <Point id="674">
                <coordinates>80.1195042211785,13.013283718235838,0.0</coordinates>
            </Point>
        </Placemark>
        <Placemark id="677">
            <name>4</name>
            <Point id="676">
                <coordinates>80.11787472743644,13.016689441510218,0.0</coordinates>
            </Point>
        </Placemark>
        <Placemark id="679">
            <name>5</name>
            <Point id="678">
                <coordinates>80.10404697542093,13.016689810021225,0.0</coordinates>
            </Point>
        </Placemark>
        <Placemark id="681">
            <name>6</name>
            <Point id="680">
                <coordinates>80.10241736965533,13.01509190467236,0.0</coordinates>
            </Point>
        </Placemark>
        <Placemark id="683">
            <name>7</name>
            <Point id="682">
                <coordinates>80.10404697542093,13.018497627526623,0.0</coordinates>
            </Point>
        </Placemark>
        <Placemark id="685">
            <name>8</name>
            <Point id="684">
                <coordinates>80.11787482766412,13.018497258962702,0.0</coordinates>
            </Point>
        </Placemark>
        <Placemark id="687">
            <name>9</name>
            <Point id="686">
                <coordinates>80.11950444523768,13.016899353835333,0.0</coordinates>
            </Point>
        </Placemark>
        <Placemark id="689">
            <name>10</name>
            <Point id="688">
                <coordinates>80.11787492790693,13.020305076163677,0.0</coordinates>
            </Point>
        </Placemark>
        <Placemark id="691">
            <name>11</name>
            <Point id="690">
                <coordinates>80.10404697542093,13.020305444780513,0.0</coordinates>
            </Point>
        </Placemark>
        <Placemark id="693">
            <name>12</name>
            <Point id="692">
                <coordinates>80.10241734603281,13.018707539874763,0.0</coordinates>
            </Point>
        </Placemark>
    </Document>
</kml>
