<?xml version="1.0" encoding="UTF-8"?>
<kml xmlns="http://www.opengis.net/kml/2.2" xmlns:gx="http://www.google.com/kml/ext/2.2">
    <Document id="14423">
        <Style id="14426">
            <LineStyle id="14427">
                <color>ff000000</color>
                <colorMode>normal</colorMode>
                <width>2</width>
            </LineStyle>
        </Style>
        <Placemark id="14425">
            <styleUrl>#14426</styleUrl>
            <LineString id="14424">
                <altitudeMode>clampToGround</altitudeMode>
                <coordinates>80.10356406053302,12.923628237044651,0.0 80.12199421119851,12.923627586754895,0.0 80.12362321140327,12.922029670040352,0.0 80.12199424434644,12.924079544356932,0.0 80.10356406053302,12.924080194670188,0.0 80.10193505739454,12.922482278010738,0.0 80.10356406053302,12.924532152280113,0.0 80.12199427749562,12.924531501943356,0.0 80.12362328355948,12.922933585338841,0.0 80.12199431064606,12.924983459514165,0.0 80.10356406053302,12.924984109874424,0.0 80.10193505153521,12.923386193325003,0.0 80.10356406053302,12.925436067453122,0.0 80.12199434379775,12.925435417069359,0.0 80.12362335572116,12.923837500574878,0.0 80.12199437695071,12.925887374608942,0.0 80.10356406053302,12.925888025016205,0.0 80.10193504567545,12.924290108576828,0.0 80.10356406053302,12.926339982563672,0.0 80.12199441010493,12.926339332132905,0.0 80.12362342788835,12.92474141574847,0.0 80.1219944432604,12.926791289641253,0.0 80.10356406053302,12.926791940095521,0.0 80.10193503981523,12.925194023766188,0.0 80.10356406053302,12.927243897611755,0.0 80.12199447641714,12.927243247133985,0.0 80.12362350006099,12.9256453308596,0.0</coordinates>
            </LineString>
        </Placemark>
        <Placemark id="14429">
            <name>1</name>
            <Point id="14428">
                <coordinates>80.10356406053302,12.923628237044651,0.0</coordinates>
            </Point>
        </Placemark>
        <Placemark id="14431">
            <name>2</name>
            <Point id="14430">
                <coordinates>80.12199421119851,12.923627586754895,0.0</coordinates>
            </Point>
        </Placemark>
        <Placemark id="14433">
            <name>3</name>
            <Point id="14432">
                <coordinates>80.12362321140327,12.922029670040352,0.0</coordinates>
            </Point>
        </Placemark>
        <Placemark id="14435">
            <name>4</name>
            <Point id="14434">
                <coordinates>80.12199424434644,12.924079544356932,0.0</coordinates>
            </Point>
        </Placemark>
        <Placemark id="14437">
            <name>5</name>
            <Point id="14436">
                <coordinates>80.10356406053302,12.924080194670188,0.0</coordinates>
            </Point>
        </Placemark>
        <Placemark id="14439">
            <name>6</name>
            <Point id="14438">
                <coordinates>80.10193505739454,12.922482278010738,0.0</coordinates>
            </Point>
        </Placemark>
        <Placemark id="14441">
            <name>7</name>
            <Point id="14440">
                <coordinates>80.10356406053302,12.924532152280113,0.0</coordinates>
            </Point>
        </Placemark>
        <Placemark id="14443">
            <name>8</name>
            <Point id="14442">
                <coordinates>80.12199427749562,12.924531501943356,0.0</coordinates>
            </Point>
        </Placemark>
        <Placemark id="14445">
            <name>9</name>
            <Point id="14444">
                <coordinates>80.12362328355948,12.922933585338841,0.0</coordinates>
            </Point>
        </Placemark>
        <Placemark id="14447">
            <name>10</name>
            <Point id="14446">
                <coordinates>80.12199431064606,12.924983459514165,0.0</coordinates>
            </Point>
        </Placemark>
        <Placemark id="14449">
            <name>11</name>
            <Point id="14448">
                <coordinates>80.10356406053302,12.924984109874424,0.0</coordinates>
            </Point>
        </Placemark>
        <Placemark id="14451">
            <name>12</name>
            <Point id="14450">
                <coordinates>80.10193505153521,12.923386193325003,0.0</coordinates>
            </Point>
        </Placemark>
        <Placemark id="14453">
            <name>13</name>
            <Point id="14452">
                <coordinates>80.10356406053302,12.925436067453122,0.0</coordinates>
            </Point>
        </Placemark>
        <Placemark id="14455">
            <name>14</name>
            <Point id="14454">
                <coordinates>80.12199434379775,12.925435417069359,0.0</coordinates>
            </Point>
        </Placemark>
        <Placemark id="14457">
            <name>15</name>
            <Point id="14456">
                <coordinates>80.12362335572116,12.923837500574878,0.0</coordinates>
            </Point>
        </Placemark>
        <Placemark id="14459">
            <name>16</name>
            <Point id="14458">
                <coordinates>80.12199437695071,12.925887374608942,0.0</coordinates>
            </Point>
        </Placemark>
        <Placemark id="14461">
            <name>17</name>
            <Point id="14460">
                <coordinates>80.10356406053302,12.925888025016205,0.0</coordinates>
            </Point>
        </Placemark>
        <Placemark id="14463">
            <name>18</name>
            <Point id="14462">
                <coordinates>80.10193504567545,12.924290108576828,0.0</coordinates>
            </Point>
        </Placemark>
        <Placemark id="14465">
            <name>19</name>
            <Point id="14464">
                <coordinates>80.10356406053302,12.926339982563672,0.0</coordinates>
            </Point>
        </Placemark>
        <Placemark id="14467">
            <name>20</name>
            <Point id="14466">
                <coordinates>80.12199441010493,12.926339332132905,0.0</coordinates>
            </Point>
        </Placemark>
        <Placemark id="14469">
            <name>21</name>
            <Point id="14468">
                <coordinates>80.12362342788835,12.92474141574847,0.0</coordinates>
            </Point>
        </Placemark>
        <Placemark id="14471">
            <name>22</name>
            <Point id="14470">
                <coordinates>80.1219944432604,12.926791289641253,0.0</coordinates>
            </Point>
        </Placemark>
        <Placemark id="14473">
            <name>23</name>
            <Point id="14472">
                <coordinates>80.10356406053302,12.926791940095521,0.0</coordinates>
            </Point>
        </Placemark>
        <Placemark id="14475">
            <name>24</name>
            <Point id="14474">
                <coordinates>80.10193503981523,12.925194023766188,0.0</coordinates>
            </Point>
        </Placemark>
        <Placemark id="14477">
            <name>25</name>
            <Point id="14476">
                <coordinates>80.10356406053302,12.927243897611755,0.0</coordinates>
            </Point>
        </Placemark>
        <Placemark id="14479">
            <name>26</name>
            <Point id="14478">
                <coordinates>80.12199447641714,12.927243247133985,0.0</coordinates>
            </Point>
        </Placemark>
        <Placemark id="14481">
            <name>27</name>
            <Point id="14480">
                <coordinates>80.12362350006099,12.9256453308596,0.0</coordinates>
            </Point>
        </Placemark>
    </Document>
</kml>
