<?xml version="1.0" encoding="UTF-8"?>
<kml xmlns="http://www.opengis.net/kml/2.2" xmlns:gx="http://www.google.com/kml/ext/2.2">
    <Document id="669">
        <Style id="672">
            <LineStyle id="673">
                <color>ffff0000</color>
                <colorMode>normal</colorMode>
                <width>2</width>
            </LineStyle>
        </Style>
        <Placemark id="671">
            <styleUrl>#672</styleUrl>
            <LineString id="670">
                <altitudeMode>clampToGround</altitudeMode>
                <coordinates>80.0288090497133,12.920949622946996,0.0 80.04723900394711,12.920948972796529,0.0 80.04723900394711,12.920948972796529,0.0 80.04759732230414,12.92086109230462,0.0 80.04759732230414,12.92086109230462,0.0 80.04794333288497,12.920729884698323,0.0 80.04794333288497,12.920729884698323,0.0 80.04832079897314,12.92058674912782,0.0 80.04832079897314,12.92058674912782,0.0 80.04866680955395,12.920455541521525,0.0 80.04866680955395,12.920455541521525,0.0 80.04901282013478,12.92032433391523,0.0 80.04901282013478,12.92032433391523,0.0 80.04939028622294,12.920181198344727,0.0 80.04939028622294,12.920181198344727,0.0 80.04975708920479,12.920143937163939,0.0 80.04975708920479,12.920143937163939,0.0 80.05009745132672,12.920278490362007,0.0 80.05009745132672,12.920278490362007,0.0 80.05034016029575,12.920581069105326,0.0 80.05034016029575,12.920581069105326,0.0 80.05038541179277,12.920927250033797,0.0 80.05038541179277,12.920927250033797,0.0 80.0502279201119,12.921276596682597,0.0 80.0502279201119,12.921276596682597,0.0 80.04993244738384,12.921485454268161,0.0 80.04993244738384,12.921485454268161,0.0 80.04956826259674,12.921554958469175,0.0 80.04956826259674,12.921554958469175,0.0 80.04916524281809,12.921606509197133,0.0 80.04916524281809,12.921606509197133,0.0 80.048795808021,12.921653764031095,0.0 80.048795808021,12.921653764031095,0.0 80.0484263732239,12.921701018865056,0.0 80.0484263732239,12.921701018865056,0.0 80.04802335344526,12.921752569593014,0.0 80.04802335344526,12.921752569593014,0.0 80.04765391864817,12.921799824426976,0.0 80.04765391864817,12.921799824426976,0.0 80.04725089886952,12.921851375154935,0.0 80.04725089886952,12.921851375154935,0.0 80.0472390702293,12.921852888170044,0.0 80.0472390702293,12.921852888170044,0.0 80.0288090497133,12.921853538367513,0.0 80.0288090497133,12.921853538367513,0.0 80.02852825077065,12.921638274556255,0.0 80.02852825077065,12.921638274556255,0.0 80.02818367907057,12.92145443372272,0.0 80.02818367907057,12.92145443372272,0.0 80.0278391073705,12.921270592889186,0.0 80.0278391073705,12.921270592889186,0.0 80.02752324997876,12.921102072125114,0.0 80.02752324997876,12.921102072125114,0.0 80.02717867827867,12.92091823129158,0.0 80.02717867827867,12.92091823129158,0.0 80.0268341065786,12.920734390458046,0.0 80.0268341065786,12.920734390458046,0.0 80.02648713467586,12.920656876957178,0.0 80.02648713467586,12.920656876957178,0.0 80.026117206857,12.920769762140624,0.0 80.026117206857,12.920769762140624,0.0 80.02586167326147,12.921055215351943,0.0 80.02586167326147,12.921055215351943,0.0 80.02579296056459,12.921397466424688,0.0 80.02579296056459,12.921397466424688,0.0 80.02591909491196,12.921756537929932,0.0 80.02591909491196,12.921756537929932,0.0 80.0262178025509,12.921998393341507,0.0 80.0262178025509,12.921998393341507,0.0 80.02656070487869,12.922103982478257,0.0 80.02656070487869,12.922103982478257,0.0 80.02693682876975,12.922213301184382,0.0 80.02693682876975,12.922213301184382,0.0 80.02731295266082,12.922322619890506,0.0 80.02731295266082,12.922322619890506,0.0 80.02765773289428,12.922422828704454,0.0 80.02765773289428,12.922422828704454,0.0 80.02803385678534,12.922532147410578,0.0 80.02803385678534,12.922532147410578,0.0 80.0284099806764,12.922641466116703,0.0 80.0284099806764,12.922641466116703,0.0 80.02878610456746,12.922750784822828,0.0 80.02878610456746,12.922750784822828,0.0 80.0288090497133,12.922757453725588,0.0 80.0288090497133,12.922757453725588,0.0 80.04723913651651,12.922756803481112,0.0 80.04723913651651,12.922756803481112,0.0 80.04759745498255,12.92266892324622,0.0 80.04759745498255,12.92266892324622,0.0 80.0479434659631,12.922537716582326,0.0 80.0479434659631,12.922537716582326,0.0 80.04832093248734,12.922394582039896,0.0 80.04832093248734,12.922394582039896,0.0 80.0486669434679,12.922263375376003,0.0 80.0486669434679,12.922263375376003,0.0 80.04901295444844,12.922132168712109,0.0 80.04901295444844,12.922132168712109,0.0 80.04939042097267,12.921989034169679,0.0 80.04939042097267,12.921989034169679,0.0 80.04975722406803,12.92195177398792,0.0 80.04975722406803,12.92195177398792,0.0 80.05009758578005,12.922086328113005,0.0 80.05009758578005,12.922086328113005,0.0 80.05034029382726,12.92238890751737,0.0 80.05034029382726,12.92238890751737,0.0 80.05038554426962,12.922735088569086,0.0 80.05038554426962,12.922735088569086,0.0 80.05022805152446,12.923084434788938,0.0 80.05022805152446,12.923084434788938,0.0 80.04993257816011,12.923293291569747,0.0 80.04993257816011,12.923293291569747,0.0 80.04956839317039,12.923362794842765,0.0 80.04956839317039,12.923362794842765,0.0 80.04916537325664,12.923414344626417,0.0 80.04916537325664,12.923414344626417,0.0 80.0487959383357,12.923461598594768,0.0 80.0487959383357,12.923461598594768,0.0 80.04842650341476,12.923508852563117,0.0 80.04842650341476,12.923508852563117,0.0 80.04802348350101,12.923560402346771,0.0 80.04802348350101,12.923560402346771,0.0 80.04765404858007,12.92360765631512,0.0 80.04765404858007,12.92360765631512,0.0 80.04725102866632,12.923659206098774,0.0 80.04725102866632,12.923659206098774,0.0 80.04723920280875,12.923660718729735,0.0 80.04723920280875,12.923660718729735,0.0 80.0288090497133,12.923661369021213,0.0 80.0288090497133,12.923661369021213,0.0 80.02852825066218,12.923446105405285,0.0 80.02852825066218,12.923446105405285,0.0 80.02818367831125,12.92326226574373,0.0 80.02818367831125,12.92326226574373,0.0 80.02783910596034,12.923078426082176,0.0 80.02783910596034,12.923078426082176,0.0 80.027523247972,12.922909906392418,0.0 80.027523247972,12.922909906392418,0.0 80.02717867562109,12.922726066730863,0.0 80.02717867562109,12.922726066730863,0.0 80.02683410327018,12.922542227069309,0.0 80.02683410327018,12.922542227069309,0.0 80.02648713109302,12.922464714748584,0.0 80.02648713109302,12.922464714748584,0.0 80.02611720367379,12.922577601190252,0.0 80.02611720367379,12.922577601190252,0.0 80.02586167108885,12.922863055270705,0.0 80.02586167108885,12.922863055270705,0.0 80.0257929596036,12.923205306577158,0.0 80.0257929596036,12.923205306577158,0.0 80.02591909522218,12.923564377653385,0.0 80.02591909522218,12.923564377653385,0.0 80.02621780371736,12.923806232048975,0.0 80.02621780371736,12.923806232048975,0.0 80.02656070636999,12.92391182018127,0.0 80.02656070636999,12.92391182018127,0.0 80.02693683057461,12.924021137850872,0.0 80.02693683057461,12.924021137850872,0.0 80.02731295477925,12.924130455520473,0.0 80.02731295477925,12.924130455520473,0.0 80.02765773530015,12.924230663384273,0.0 80.02765773530015,12.924230663384273,0.0 80.02803385950479,12.924339981053874,0.0 80.02803385950479,12.924339981053874,0.0 80.02840998370941,12.924449298723475,0.0 80.02840998370941,12.924449298723475,0.0 80.02878610791404,12.924558616393076,0.0 80.02878610791404,12.924558616393076,0.0 80.0288090497133,12.924565284254387,0.0 80.0288090497133,12.924565284254387,0.0 80.04723926910604,12.924564633915907,0.0 80.04723926910604,12.924564633915907,0.0 80.04759758768112,12.92447675393807,0.0 80.04759758768112,12.92447675393807,0.0 80.04794359906145,12.924345548216706,0.0 80.04794359906145,12.924345548216706,0.0 80.0483210660218,12.924202414702494,0.0 80.0483210660218,12.924202414702494,0.0 80.04866707740213,12.92407120898113,0.0 80.04866707740213,12.92407120898113,0.0 80.04901308878246,12.92394000325977,0.0 80.04901308878246,12.92394000325977,0.0 80.04939055574282,12.923796869745555,0.0 80.04939055574282,12.923796869745555,0.0 80.04975735895171,12.923759610562968,0.0 80.04975735895171,12.923759610562968,0.0 80.05009772025373,12.923894165615193,0.0 80.05009772025373,12.923894165615193,0.0 80.050340427379,12.924196745680693,0.0 80.050340427379,12.924196745680693,0.0 80.05038567676657,12.924542926855668,0.0 80.05038567676657,12.924542926855668,0.0 80.05022818295696,12.924892272646511,0.0 80.05022818295696,12.924892272646511,0.0 80.04993270895623,12.925101128622451,0.0 80.04993270895623,12.925101128622451,0.0 80.0495685237639,12.925170630967344,0.0 80.0495685237639,12.925170630967344,0.0 80.04916550371503,12.925222179806562,0.0 80.04916550371503,12.925222179806562,0.0 80.04879606867023,12.92526943290918,0.0 80.04879606867023,12.92526943290918,0.0 80.04842663362543,12.925316686011799,0.0 80.04842663362543,12.925316686011799,0.0 80.04802361357655,12.925368234851017,0.0 80.04802361357655,12.925368234851017,0.0 80.04765417853174,12.925415487953636,0.0 80.04765417853174,12.925415487953636,0.0 80.04725115848288,12.925467036792854,0.0 80.04725115848288,12.925467036792854,0.0 80.04723933540836,12.925468549039625,0.0 80.04723933540836,12.925468549039625,0.0 80.0288090497133,12.925469199425107,0.0 80.0288090497133,12.925469199425107,0.0 80.02852825055368,12.925253936004536,0.0 80.02852825055368,12.925253936004536,0.0 80.02818367755185,12.925070097515128,0.0 80.02818367755185,12.925070097515128,0.0 80.02783910455001,12.92488625902572,0.0 80.02783910455001,12.92488625902572,0.0 80.02752324596499,12.924717740410431,0.0 80.02752324596499,12.924717740410431,0.0 80.02717867296315,12.924533901921022,0.0 80.02717867296315,12.924533901921022,0.0 80.0268340999613,12.924350063431614,0.0 80.0268340999613,12.924350063431614,0.0 80.02648712750971,12.9242725522912,0.0 80.02648712750971,12.9242725522912,0.0 80.02611720049018,12.924385439991262,0.0 80.02611720049018,12.924385439991262,0.0 80.02586166891595,12.92467089494097,0.0 80.02586166891595,12.92467089494097,0.0 80.02579295864254,12.92501314648116,0.0 80.02579295864254,12.92501314648116,0.0 80.02591909553249,12.925372217128304,0.0 80.02591909553249,12.925372217128304,0.0 80.026217804884,12.925614070507763,0.0 80.026217804884,12.925614070507763,0.0 80.02656070786152,12.925719657635465,0.0 80.02656070786152,12.925719657635465,0.0 80.02693683237976,12.925828974268395,0.0 80.02693683237976,12.925828974268395,0.0 80.02731295689799,12.925938290901325,0.0 80.02731295689799,12.925938290901325,0.0 80.02765773770638,12.926038497814844,0.0 80.02765773770638,12.926038497814844,0.0 80.02803386222462,12.926147814447775,0.0 80.02803386222462,12.926147814447775,0.0 80.02840998674286,12.926257131080705,0.0 80.02840998674286,12.926257131080705,0.0 80.0287861112611,12.926366447713635,0.0 80.0287861112611,12.926366447713635,0.0 80.0288090497133,12.926373114533368,0.0 80.0288090497133,12.926373114533368,0.0 80.04723940171573,12.92637246410088,0.0 80.04723940171573,12.92637246410088,0.0 80.04940425327598,12.925599562193549,0.0</coordinates>
            </LineString>
        </Placemark>
        <Placemark id="675">
            <name>0</name>
            <Point id="674">
                <coordinates>80.0288090497133,12.920949622946996,0.0</coordinates>
            </Point>
        </Placemark>
        <Placemark id="677">
            <name>1</name>
            <Point id="676">
                <coordinates>80.04723900394711,12.920948972796529,0.0</coordinates>
            </Point>
        </Placemark>
        <Placemark id="679">
            <name>2</name>
            <Point id="678">
                <coordinates>80.04759732230414,12.92086109230462,0.0</coordinates>
            </Point>
        </Placemark>
        <Placemark id="681">
            <name>3</name>
            <Point id="680">
                <coordinates>80.04794333288497,12.920729884698323,0.0</coordinates>
            </Point>
        </Placemark>
        <Placemark id="683">
            <name>4</name>
            <Point id="682">
                <coordinates>80.04832079897314,12.92058674912782,0.0</coordinates>
            </Point>
        </Placemark>
        <Placemark id="685">
            <name>5</name>
            <Point id="684">
                <coordinates>80.04866680955395,12.920455541521525,0.0</coordinates>
            </Point>
        </Placemark>
        <Placemark id="687">
            <name>6</name>
            <Point id="686">
                <coordinates>80.04901282013478,12.92032433391523,0.0</coordinates>
            </Point>
        </Placemark>
        <Placemark id="689">
            <name>7</name>
            <Point id="688">
                <coordinates>80.04939028622294,12.920181198344727,0.0</coordinates>
            </Point>
        </Placemark>
        <Placemark id="691">
            <name>8</name>
            <Point id="690">
                <coordinates>80.04975708920479,12.920143937163939,0.0</coordinates>
            </Point>
        </Placemark>
        <Placemark id="693">
            <name>9</name>
            <Point id="692">
                <coordinates>80.05009745132672,12.920278490362007,0.0</coordinates>
            </Point>
        </Placemark>
        <Placemark id="695">
            <name>10</name>
            <Point id="694">
                <coordinates>80.05034016029575,12.920581069105326,0.0</coordinates>
            </Point>
        </Placemark>
        <Placemark id="697">
            <name>11</name>
            <Point id="696">
                <coordinates>80.05038541179277,12.920927250033797,0.0</coordinates>
            </Point>
        </Placemark>
        <Placemark id="699">
            <name>12</name>
            <Point id="698">
                <coordinates>80.0502279201119,12.921276596682597,0.0</coordinates>
            </Point>
        </Placemark>
        <Placemark id="701">
            <name>13</name>
            <Point id="700">
                <coordinates>80.04993244738384,12.921485454268161,0.0</coordinates>
            </Point>
        </Placemark>
        <Placemark id="703">
            <name>14</name>
            <Point id="702">
                <coordinates>80.04956826259674,12.921554958469175,0.0</coordinates>
            </Point>
        </Placemark>
        <Placemark id="705">
            <name>15</name>
            <Point id="704">
                <coordinates>80.04916524281809,12.921606509197133,0.0</coordinates>
            </Point>
        </Placemark>
        <Placemark id="707">
            <name>16</name>
            <Point id="706">
                <coordinates>80.048795808021,12.921653764031095,0.0</coordinates>
            </Point>
        </Placemark>
        <Placemark id="709">
            <name>17</name>
            <Point id="708">
                <coordinates>80.0484263732239,12.921701018865056,0.0</coordinates>
            </Point>
        </Placemark>
        <Placemark id="711">
            <name>18</name>
            <Point id="710">
                <coordinates>80.04802335344526,12.921752569593014,0.0</coordinates>
            </Point>
        </Placemark>
        <Placemark id="713">
            <name>19</name>
            <Point id="712">
                <coordinates>80.04765391864817,12.921799824426976,0.0</coordinates>
            </Point>
        </Placemark>
        <Placemark id="715">
            <name>20</name>
            <Point id="714">
                <coordinates>80.04725089886952,12.921851375154935,0.0</coordinates>
            </Point>
        </Placemark>
        <Placemark id="717">
            <name>21</name>
            <Point id="716">
                <coordinates>80.0472390702293,12.921852888170044,0.0</coordinates>
            </Point>
        </Placemark>
        <Placemark id="719">
            <name>22</name>
            <Point id="718">
                <coordinates>80.0288090497133,12.921853538367513,0.0</coordinates>
            </Point>
        </Placemark>
        <Placemark id="721">
            <name>23</name>
            <Point id="720">
                <coordinates>80.02852825077065,12.921638274556255,0.0</coordinates>
            </Point>
        </Placemark>
        <Placemark id="723">
            <name>24</name>
            <Point id="722">
                <coordinates>80.02818367907057,12.92145443372272,0.0</coordinates>
            </Point>
        </Placemark>
        <Placemark id="725">
            <name>25</name>
            <Point id="724">
                <coordinates>80.0278391073705,12.921270592889186,0.0</coordinates>
            </Point>
        </Placemark>
        <Placemark id="727">
            <name>26</name>
            <Point id="726">
                <coordinates>80.02752324997876,12.921102072125114,0.0</coordinates>
            </Point>
        </Placemark>
        <Placemark id="729">
            <name>27</name>
            <Point id="728">
                <coordinates>80.02717867827867,12.92091823129158,0.0</coordinates>
            </Point>
        </Placemark>
        <Placemark id="731">
            <name>28</name>
            <Point id="730">
                <coordinates>80.0268341065786,12.920734390458046,0.0</coordinates>
            </Point>
        </Placemark>
        <Placemark id="733">
            <name>29</name>
            <Point id="732">
                <coordinates>80.02648713467586,12.920656876957178,0.0</coordinates>
            </Point>
        </Placemark>
        <Placemark id="735">
            <name>30</name>
            <Point id="734">
                <coordinates>80.026117206857,12.920769762140624,0.0</coordinates>
            </Point>
        </Placemark>
        <Placemark id="737">
            <name>31</name>
            <Point id="736">
                <coordinates>80.02586167326147,12.921055215351943,0.0</coordinates>
            </Point>
        </Placemark>
        <Placemark id="739">
            <name>32</name>
            <Point id="738">
                <coordinates>80.02579296056459,12.921397466424688,0.0</coordinates>
            </Point>
        </Placemark>
        <Placemark id="741">
            <name>33</name>
            <Point id="740">
                <coordinates>80.02591909491196,12.921756537929932,0.0</coordinates>
            </Point>
        </Placemark>
        <Placemark id="743">
            <name>34</name>
            <Point id="742">
                <coordinates>80.0262178025509,12.921998393341507,0.0</coordinates>
            </Point>
        </Placemark>
        <Placemark id="745">
            <name>35</name>
            <Point id="744">
                <coordinates>80.02656070487869,12.922103982478257,0.0</coordinates>
            </Point>
        </Placemark>
        <Placemark id="747">
            <name>36</name>
            <Point id="746">
                <coordinates>80.02693682876975,12.922213301184382,0.0</coordinates>
            </Point>
        </Placemark>
        <Placemark id="749">
            <name>37</name>
            <Point id="748">
                <coordinates>80.02731295266082,12.922322619890506,0.0</coordinates>
            </Point>
        </Placemark>
        <Placemark id="751">
            <name>38</name>
            <Point id="750">
                <coordinates>80.02765773289428,12.922422828704454,0.0</coordinates>
            </Point>
        </Placemark>
        <Placemark id="753">
            <name>39</name>
            <Point id="752">
                <coordinates>80.02803385678534,12.922532147410578,0.0</coordinates>
            </Point>
        </Placemark>
        <Placemark id="755">
            <name>40</name>
            <Point id="754">
                <coordinates>80.0284099806764,12.922641466116703,0.0</coordinates>
            </Point>
        </Placemark>
        <Placemark id="757">
            <name>41</name>
            <Point id="756">
                <coordinates>80.02878610456746,12.922750784822828,0.0</coordinates>
            </Point>
        </Placemark>
        <Placemark id="759">
            <name>42</name>
            <Point id="758">
                <coordinates>80.0288090497133,12.922757453725588,0.0</coordinates>
            </Point>
        </Placemark>
        <Placemark id="761">
            <name>43</name>
            <Point id="760">
                <coordinates>80.04723913651651,12.922756803481112,0.0</coordinates>
            </Point>
        </Placemark>
        <Placemark id="763">
            <name>44</name>
            <Point id="762">
                <coordinates>80.04759745498255,12.92266892324622,0.0</coordinates>
            </Point>
        </Placemark>
        <Placemark id="765">
            <name>45</name>
            <Point id="764">
                <coordinates>80.0479434659631,12.922537716582326,0.0</coordinates>
            </Point>
        </Placemark>
        <Placemark id="767">
            <name>46</name>
            <Point id="766">
                <coordinates>80.04832093248734,12.922394582039896,0.0</coordinates>
            </Point>
        </Placemark>
        <Placemark id="769">
            <name>47</name>
            <Point id="768">
                <coordinates>80.0486669434679,12.922263375376003,0.0</coordinates>
            </Point>
        </Placemark>
        <Placemark id="771">
            <name>48</name>
            <Point id="770">
                <coordinates>80.04901295444844,12.922132168712109,0.0</coordinates>
            </Point>
        </Placemark>
        <Placemark id="773">
            <name>49</name>
            <Point id="772">
                <coordinates>80.04939042097267,12.921989034169679,0.0</coordinates>
            </Point>
        </Placemark>
        <Placemark id="775">
            <name>50</name>
            <Point id="774">
                <coordinates>80.04975722406803,12.92195177398792,0.0</coordinates>
            </Point>
        </Placemark>
        <Placemark id="777">
            <name>51</name>
            <Point id="776">
                <coordinates>80.05009758578005,12.922086328113005,0.0</coordinates>
            </Point>
        </Placemark>
        <Placemark id="779">
            <name>52</name>
            <Point id="778">
                <coordinates>80.05034029382726,12.92238890751737,0.0</coordinates>
            </Point>
        </Placemark>
        <Placemark id="781">
            <name>53</name>
            <Point id="780">
                <coordinates>80.05038554426962,12.922735088569086,0.0</coordinates>
            </Point>
        </Placemark>
        <Placemark id="783">
            <name>54</name>
            <Point id="782">
                <coordinates>80.05022805152446,12.923084434788938,0.0</coordinates>
            </Point>
        </Placemark>
        <Placemark id="785">
            <name>55</name>
            <Point id="784">
                <coordinates>80.04993257816011,12.923293291569747,0.0</coordinates>
            </Point>
        </Placemark>
        <Placemark id="787">
            <name>56</name>
            <Point id="786">
                <coordinates>80.04956839317039,12.923362794842765,0.0</coordinates>
            </Point>
        </Placemark>
        <Placemark id="789">
            <name>57</name>
            <Point id="788">
                <coordinates>80.04916537325664,12.923414344626417,0.0</coordinates>
            </Point>
        </Placemark>
        <Placemark id="791">
            <name>58</name>
            <Point id="790">
                <coordinates>80.0487959383357,12.923461598594768,0.0</coordinates>
            </Point>
        </Placemark>
        <Placemark id="793">
            <name>59</name>
            <Point id="792">
                <coordinates>80.04842650341476,12.923508852563117,0.0</coordinates>
            </Point>
        </Placemark>
        <Placemark id="795">
            <name>60</name>
            <Point id="794">
                <coordinates>80.04802348350101,12.923560402346771,0.0</coordinates>
            </Point>
        </Placemark>
        <Placemark id="797">
            <name>61</name>
            <Point id="796">
                <coordinates>80.04765404858007,12.92360765631512,0.0</coordinates>
            </Point>
        </Placemark>
        <Placemark id="799">
            <name>62</name>
            <Point id="798">
                <coordinates>80.04725102866632,12.923659206098774,0.0</coordinates>
            </Point>
        </Placemark>
        <Placemark id="801">
            <name>63</name>
            <Point id="800">
                <coordinates>80.04723920280875,12.923660718729735,0.0</coordinates>
            </Point>
        </Placemark>
        <Placemark id="803">
            <name>64</name>
            <Point id="802">
                <coordinates>80.0288090497133,12.923661369021213,0.0</coordinates>
            </Point>
        </Placemark>
        <Placemark id="805">
            <name>65</name>
            <Point id="804">
                <coordinates>80.02852825066218,12.923446105405285,0.0</coordinates>
            </Point>
        </Placemark>
        <Placemark id="807">
            <name>66</name>
            <Point id="806">
                <coordinates>80.02818367831125,12.92326226574373,0.0</coordinates>
            </Point>
        </Placemark>
        <Placemark id="809">
            <name>67</name>
            <Point id="808">
                <coordinates>80.02783910596034,12.923078426082176,0.0</coordinates>
            </Point>
        </Placemark>
        <Placemark id="811">
            <name>68</name>
            <Point id="810">
                <coordinates>80.027523247972,12.922909906392418,0.0</coordinates>
            </Point>
        </Placemark>
        <Placemark id="813">
            <name>69</name>
            <Point id="812">
                <coordinates>80.02717867562109,12.922726066730863,0.0</coordinates>
            </Point>
        </Placemark>
        <Placemark id="815">
            <name>70</name>
            <Point id="814">
                <coordinates>80.02683410327018,12.922542227069309,0.0</coordinates>
            </Point>
        </Placemark>
        <Placemark id="817">
            <name>71</name>
            <Point id="816">
                <coordinates>80.02648713109302,12.922464714748584,0.0</coordinates>
            </Point>
        </Placemark>
        <Placemark id="819">
            <name>72</name>
            <Point id="818">
                <coordinates>80.02611720367379,12.922577601190252,0.0</coordinates>
            </Point>
        </Placemark>
        <Placemark id="821">
            <name>73</name>
            <Point id="820">
                <coordinates>80.02586167108885,12.922863055270705,0.0</coordinates>
            </Point>
        </Placemark>
        <Placemark id="823">
            <name>74</name>
            <Point id="822">
                <coordinates>80.0257929596036,12.923205306577158,0.0</coordinates>
            </Point>
        </Placemark>
        <Placemark id="825">
            <name>75</name>
            <Point id="824">
                <coordinates>80.02591909522218,12.923564377653385,0.0</coordinates>
            </Point>
        </Placemark>
        <Placemark id="827">
            <name>76</name>
            <Point id="826">
                <coordinates>80.02621780371736,12.923806232048975,0.0</coordinates>
            </Point>
        </Placemark>
        <Placemark id="829">
            <name>77</name>
            <Point id="828">
                <coordinates>80.02656070636999,12.92391182018127,0.0</coordinates>
            </Point>
        </Placemark>
        <Placemark id="831">
            <name>78</name>
            <Point id="830">
                <coordinates>80.02693683057461,12.924021137850872,0.0</coordinates>
            </Point>
        </Placemark>
        <Placemark id="833">
            <name>79</name>
            <Point id="832">
                <coordinates>80.02731295477925,12.924130455520473,0.0</coordinates>
            </Point>
        </Placemark>
        <Placemark id="835">
            <name>80</name>
            <Point id="834">
                <coordinates>80.02765773530015,12.924230663384273,0.0</coordinates>
            </Point>
        </Placemark>
        <Placemark id="837">
            <name>81</name>
            <Point id="836">
                <coordinates>80.02803385950479,12.924339981053874,0.0</coordinates>
            </Point>
        </Placemark>
        <Placemark id="839">
            <name>82</name>
            <Point id="838">
                <coordinates>80.02840998370941,12.924449298723475,0.0</coordinates>
            </Point>
        </Placemark>
        <Placemark id="841">
            <name>83</name>
            <Point id="840">
                <coordinates>80.02878610791404,12.924558616393076,0.0</coordinates>
            </Point>
        </Placemark>
        <Placemark id="843">
            <name>84</name>
            <Point id="842">
                <coordinates>80.0288090497133,12.924565284254387,0.0</coordinates>
            </Point>
        </Placemark>
        <Placemark id="845">
            <name>85</name>
            <Point id="844">
                <coordinates>80.04723926910604,12.924564633915907,0.0</coordinates>
            </Point>
        </Placemark>
        <Placemark id="847">
            <name>86</name>
            <Point id="846">
                <coordinates>80.04759758768112,12.92447675393807,0.0</coordinates>
            </Point>
        </Placemark>
        <Placemark id="849">
            <name>87</name>
            <Point id="848">
                <coordinates>80.04794359906145,12.924345548216706,0.0</coordinates>
            </Point>
        </Placemark>
        <Placemark id="851">
            <name>88</name>
            <Point id="850">
                <coordinates>80.0483210660218,12.924202414702494,0.0</coordinates>
            </Point>
        </Placemark>
        <Placemark id="853">
            <name>89</name>
            <Point id="852">
                <coordinates>80.04866707740213,12.92407120898113,0.0</coordinates>
            </Point>
        </Placemark>
        <Placemark id="855">
            <name>90</name>
            <Point id="854">
                <coordinates>80.04901308878246,12.92394000325977,0.0</coordinates>
            </Point>
        </Placemark>
        <Placemark id="857">
            <name>91</name>
            <Point id="856">
                <coordinates>80.04939055574282,12.923796869745555,0.0</coordinates>
            </Point>
        </Placemark>
        <Placemark id="859">
            <name>92</name>
            <Point id="858">
                <coordinates>80.04975735895171,12.923759610562968,0.0</coordinates>
            </Point>
        </Placemark>
        <Placemark id="861">
            <name>93</name>
            <Point id="860">
                <coordinates>80.05009772025373,12.923894165615193,0.0</coordinates>
            </Point>
        </Placemark>
        <Placemark id="863">
            <name>94</name>
            <Point id="862">
                <coordinates>80.050340427379,12.924196745680693,0.0</coordinates>
            </Point>
        </Placemark>
        <Placemark id="865">
            <name>95</name>
            <Point id="864">
                <coordinates>80.05038567676657,12.924542926855668,0.0</coordinates>
            </Point>
        </Placemark>
        <Placemark id="867">
            <name>96</name>
            <Point id="866">
                <coordinates>80.05022818295696,12.924892272646511,0.0</coordinates>
            </Point>
        </Placemark>
        <Placemark id="869">
            <name>97</name>
            <Point id="868">
                <coordinates>80.04993270895623,12.925101128622451,0.0</coordinates>
            </Point>
        </Placemark>
        <Placemark id="871">
            <name>98</name>
            <Point id="870">
                <coordinates>80.0495685237639,12.925170630967344,0.0</coordinates>
            </Point>
        </Placemark>
        <Placemark id="873">
            <name>99</name>
            <Point id="872">
                <coordinates>80.04916550371503,12.925222179806562,0.0</coordinates>
            </Point>
        </Placemark>
        <Placemark id="875">
            <name>100</name>
            <Point id="874">
                <coordinates>80.04879606867023,12.92526943290918,0.0</coordinates>
            </Point>
        </Placemark>
        <Placemark id="877">
            <name>101</name>
            <Point id="876">
                <coordinates>80.04842663362543,12.925316686011799,0.0</coordinates>
            </Point>
        </Placemark>
        <Placemark id="879">
            <name>102</name>
            <Point id="878">
                <coordinates>80.04802361357655,12.925368234851017,0.0</coordinates>
            </Point>
        </Placemark>
        <Placemark id="881">
            <name>103</name>
            <Point id="880">
                <coordinates>80.04765417853174,12.925415487953636,0.0</coordinates>
            </Point>
        </Placemark>
        <Placemark id="883">
            <name>104</name>
            <Point id="882">
                <coordinates>80.04725115848288,12.925467036792854,0.0</coordinates>
            </Point>
        </Placemark>
        <Placemark id="885">
            <name>105</name>
            <Point id="884">
                <coordinates>80.04723933540836,12.925468549039625,0.0</coordinates>
            </Point>
        </Placemark>
        <Placemark id="887">
            <name>106</name>
            <Point id="886">
                <coordinates>80.0288090497133,12.925469199425107,0.0</coordinates>
            </Point>
        </Placemark>
        <Placemark id="889">
            <name>107</name>
            <Point id="888">
                <coordinates>80.02852825055368,12.925253936004536,0.0</coordinates>
            </Point>
        </Placemark>
        <Placemark id="891">
            <name>108</name>
            <Point id="890">
                <coordinates>80.02818367755185,12.925070097515128,0.0</coordinates>
            </Point>
        </Placemark>
        <Placemark id="893">
            <name>109</name>
            <Point id="892">
                <coordinates>80.02783910455001,12.92488625902572,0.0</coordinates>
            </Point>
        </Placemark>
        <Placemark id="895">
            <name>110</name>
            <Point id="894">
                <coordinates>80.02752324596499,12.924717740410431,0.0</coordinates>
            </Point>
        </Placemark>
        <Placemark id="897">
            <name>111</name>
            <Point id="896">
                <coordinates>80.02717867296315,12.924533901921022,0.0</coordinates>
            </Point>
        </Placemark>
        <Placemark id="899">
            <name>112</name>
            <Point id="898">
                <coordinates>80.0268340999613,12.924350063431614,0.0</coordinates>
            </Point>
        </Placemark>
        <Placemark id="901">
            <name>113</name>
            <Point id="900">
                <coordinates>80.02648712750971,12.9242725522912,0.0</coordinates>
            </Point>
        </Placemark>
        <Placemark id="903">
            <name>114</name>
            <Point id="902">
                <coordinates>80.02611720049018,12.924385439991262,0.0</coordinates>
            </Point>
        </Placemark>
        <Placemark id="905">
            <name>115</name>
            <Point id="904">
                <coordinates>80.02586166891595,12.92467089494097,0.0</coordinates>
            </Point>
        </Placemark>
        <Placemark id="907">
            <name>116</name>
            <Point id="906">
                <coordinates>80.02579295864254,12.92501314648116,0.0</coordinates>
            </Point>
        </Placemark>
        <Placemark id="909">
            <name>117</name>
            <Point id="908">
                <coordinates>80.02591909553249,12.925372217128304,0.0</coordinates>
            </Point>
        </Placemark>
        <Placemark id="911">
            <name>118</name>
            <Point id="910">
                <coordinates>80.026217804884,12.925614070507763,0.0</coordinates>
            </Point>
        </Placemark>
        <Placemark id="913">
            <name>119</name>
            <Point id="912">
                <coordinates>80.02656070786152,12.925719657635465,0.0</coordinates>
            </Point>
        </Placemark>
        <Placemark id="915">
            <name>120</name>
            <Point id="914">
                <coordinates>80.02693683237976,12.925828974268395,0.0</coordinates>
            </Point>
        </Placemark>
        <Placemark id="917">
            <name>121</name>
            <Point id="916">
                <coordinates>80.02731295689799,12.925938290901325,0.0</coordinates>
            </Point>
        </Placemark>
        <Placemark id="919">
            <name>122</name>
            <Point id="918">
                <coordinates>80.02765773770638,12.926038497814844,0.0</coordinates>
            </Point>
        </Placemark>
        <Placemark id="921">
            <name>123</name>
            <Point id="920">
                <coordinates>80.02803386222462,12.926147814447775,0.0</coordinates>
            </Point>
        </Placemark>
        <Placemark id="923">
            <name>124</name>
            <Point id="922">
                <coordinates>80.02840998674286,12.926257131080705,0.0</coordinates>
            </Point>
        </Placemark>
        <Placemark id="925">
            <name>125</name>
            <Point id="924">
                <coordinates>80.0287861112611,12.926366447713635,0.0</coordinates>
            </Point>
        </Placemark>
        <Placemark id="927">
            <name>126</name>
            <Point id="926">
                <coordinates>80.0288090497133,12.926373114533368,0.0</coordinates>
            </Point>
        </Placemark>
        <Placemark id="929">
            <name>127</name>
            <Point id="928">
                <coordinates>80.04723940171573,12.92637246410088,0.0</coordinates>
            </Point>
        </Placemark>
    </Document>
</kml>
