<?xml version="1.0" encoding="UTF-8"?>
<kml xmlns="http://www.opengis.net/kml/2.2" xmlns:gx="http://www.google.com/kml/ext/2.2">
    <Document id="145">
        <Style id="148">
            <LineStyle id="149">
                <color>ffff0000</color>
                <colorMode>normal</colorMode>
                <width>2</width>
            </LineStyle>
        </Style>
        <Placemark id="147">
            <styleUrl>#148</styleUrl>
            <LineString id="146">
                <altitudeMode>clampToGround</altitudeMode>
                <coordinates>80.0288090497133,12.909500022217381,0.0 80.04723816480855,12.90949937266225,0.0 80.04723816480855,12.90949937266225,0.0 80.04759673244513,12.909410491965637,0.0 80.04759673244513,12.909410491965637,0.0 80.04794365705098,12.909279104416205,0.0 80.04794365705098,12.909279104416205,0.0 80.04832212025735,12.909135772544097,0.0 80.04832212025735,12.909135772544097,0.0 80.0486690448632,12.909004384994667,0.0 80.0486690448632,12.909004384994667,0.0 80.04901596946905,12.908872997445236,0.0 80.04901596946905,12.908872997445236,0.0 80.04939443267543,12.908729665573128,0.0 80.04939443267543,12.908729665573128,0.0 80.04976148930493,12.90869407047961,0.0 80.04976148930493,12.90869407047961,0.0 80.05010089876207,12.908833253650227,0.0 80.05010089876207,12.908833253650227,0.0 80.05034147693888,12.909142901795178,0.0 80.05034147693888,12.909142901795178,0.0 80.05038429571901,12.909495684546766,0.0 80.05038429571901,12.909495684546766,0.0 80.0502243535557,12.909850394298939,0.0 80.0502243535557,12.909850394298939,0.0 80.0499274202422,12.910061170907188,0.0 80.0499274202422,12.910061170907188,0.0 80.04956263428896,12.910128686495494,0.0 80.04956263428896,12.910128686495494,0.0 80.04915897095213,12.910176374818338,0.0 80.04915897095213,12.910176374818338,0.0 80.04878894622671,12.91022008911428,0.0 80.04878894622671,12.91022008911428,0.0 80.04841892150128,12.91026380341022,0.0 80.04841892150128,12.91026380341022,0.0 80.04801525816445,12.910311491733065,0.0 80.04801525816445,12.910311491733065,0.0 80.04764523343904,12.910355206029006,0.0 80.04764523343904,12.910355206029006,0.0 80.0472415701022,12.91040289435185,0.0 80.0472415701022,12.91040289435185,0.0 80.04723823102697,12.910403288826362,0.0 80.04723823102697,12.910403288826362,0.0 80.0288090497133,12.910403938428491,0.0 80.0288090497133,12.910403938428491,0.0 80.02852797109534,12.910185262904395,0.0 80.02852797109534,12.910185262904395,0.0 80.02818172134346,12.910001175876086,0.0 80.02818172134346,12.910001175876086,0.0 80.02783547159156,12.909817088847777,0.0 80.02783547159156,12.909817088847777,0.0 80.02751807598567,12.909648342405161,0.0 80.02751807598567,12.909648342405161,0.0 80.02717182623378,12.90946425537685,0.0 80.02717182623378,12.90946425537685,0.0 80.02682557648188,12.909280168348541,0.0 80.02682557648188,12.909280168348541,0.0 80.02647790526359,12.90920436708025,0.0 80.02647790526359,12.90920436708025,0.0 80.02610903149612,12.909322639419997,0.0 80.02610903149612,12.909322639419997,0.0 80.0258561356158,12.909615593194069,0.0 80.0258561356158,12.909615593194069,0.0 80.02579057579989,12.909964697272976,0.0 80.02579057579989,12.909964697272976,0.0 80.0259200099145,12.910329173746536,0.0 80.0259200099145,12.910329173746536,0.0 80.02622093143886,12.910572745089798,0.0 80.02622093143886,12.910572745089798,0.0 80.02656509941392,12.910676090043163,0.0 80.02656509941392,12.910676090043163,0.0 80.02694267580605,12.910782393366151,0.0 80.02694267580605,12.910782393366151,0.0 80.0273202521982,12.91088869668914,0.0 80.0273202521982,12.91088869668914,0.0 80.02766636389099,12.910986141401878,0.0 80.02766636389099,12.910986141401878,0.0 80.02804394028311,12.911092444724868,0.0 80.02804394028311,12.911092444724868,0.0 80.02842151667525,12.911198748047857,0.0 80.02842151667525,12.911198748047857,0.0 80.02879909306739,12.911305051370846,0.0 80.02879909306739,12.911305051370846,0.0 80.0288090497133,12.911307854577212,0.0 80.0288090497133,12.911307854577212,0.0 80.04723829725042,12.911307204928084,0.0 80.04723829725042,12.911307204928084,0.0 80.04759686499261,12.911218324489974,0.0 80.04759686499261,12.911218324489974,0.0 80.04794378998572,12.911086937888388,0.0 80.04794378998572,12.911086937888388,0.0 80.04832225361456,12.910943607050296,0.0 80.04832225361456,12.910943607050296,0.0 80.04866917860767,12.91081222044871,0.0 80.04866917860767,12.91081222044871,0.0 80.04901610360076,12.910680833847124,0.0 80.04901610360076,12.910680833847124,0.0 80.04939456722961,12.910537503009031,0.0 80.04939456722961,12.910537503009031,0.0 80.04976162396403,12.910501908918361,0.0 80.04976162396403,12.910501908918361,0.0 80.05010103301093,12.91064109301629,0.0 80.05010103301093,12.91064109301629,0.0 80.05034161027507,12.910950741818532,0.0 80.05034161027507,12.910950741818532,0.0 80.05038442801538,12.911303524687105,0.0 80.05038442801538,12.911303524687105,0.0 80.05022448480659,12.911658234002292,0.0 80.05022448480659,12.911658234002292,0.0 80.04992755087183,12.911869009799279,0.0 80.04992755087183,12.911869009799279,0.0 80.04956276472747,12.911936524452802,0.0 80.04956276472747,12.911936524452802,0.0 80.04915910126901,12.911984211821252,0.0 80.04915910126901,12.911984211821252,0.0 80.04878907643209,12.912027925242331,0.0 80.04878907643209,12.912027925242331,0.0 80.04841905159516,12.912071638663411,0.0 80.04841905159516,12.912071638663411,0.0 80.0480153881367,12.912119326031862,0.0 80.0480153881367,12.912119326031862,0.0 80.04764536329978,12.912163039452942,0.0 80.04764536329978,12.912163039452942,0.0 80.04724169984132,12.912210726821392,0.0 80.04724169984132,12.912210726821392,0.0 80.0472383634789,12.912211120967408,0.0 80.0472383634789,12.912211120967408,0.0 80.0288090497133,12.912211770663534,0.0 80.0288090497133,12.912211770663534,0.0 80.02852797099003,12.911993095336776,0.0 80.02852797099003,12.911993095336776,0.0 80.0281817206062,12.911809009492481,0.0 80.0281817206062,12.911809009492481,0.0 80.02783547022239,12.911624923648187,0.0 80.02783547022239,12.911624923648187,0.0 80.02751807403723,12.911456178290917,0.0 80.02751807403723,12.911456178290917,0.0 80.0271718236534,12.911272092446623,0.0 80.0271718236534,12.911272092446623,0.0 80.02682557326959,12.91108800660233,0.0 80.02682557326959,12.91108800660233,0.0 80.0264779017911,12.911012206522914,0.0 80.0264779017911,12.911012206522914,0.0 80.02610902842962,12.911130480124037,0.0 80.02610902842962,12.911130480124037,0.0 80.02585613355494,12.911423434762895,0.0 80.02585613355494,12.911423434762895,0.0 80.02579057493743,12.911772539065984,0.0 80.02579057493743,12.911772539065984,0.0 80.0259200103032,12.912137015096938,0.0 80.0259200103032,12.912137015096938,0.0 80.02622093266369,12.912380585411185,0.0 80.02622093266369,12.912380585411185,0.0 80.02656510094877,12.91248392934595,0.0 80.02656510094877,12.91248392934595,0.0 80.02694267763871,12.912590231615246,0.0 80.02694267763871,12.912590231615246,0.0 80.02732025432864,12.912696533884542,0.0 80.02732025432864,12.912696533884542,0.0 80.02766636629443,12.912793977631395,0.0 80.02766636629443,12.912793977631395,0.0 80.02804394298437,12.91290027990069,0.0 80.02804394298437,12.91290027990069,0.0 80.02842151967431,12.913006582169986,0.0 80.02842151967431,12.913006582169986,0.0 80.02879909636425,12.913112884439283,0.0 80.02879909636425,12.913112884439283,0.0 80.0288090497133,12.91311568668746,0.0 80.0288090497133,12.91311568668746,0.0 80.04723842971241,12.913115036944333,0.0 80.04723842971241,12.913115036944333,0.0 80.04759699756023,12.913026156764762,0.0 80.04759699756023,12.913026156764762,0.0 80.04794392294065,12.912894771111153,0.0 80.04794392294065,12.912894771111153,0.0 80.04832238699201,12.912751441307217,0.0 80.04832238699201,12.912751441307217,0.0 80.04866931237243,12.912620055653608,0.0 80.04866931237243,12.912620055653608,0.0 80.04901623775284,12.912488669999998,0.0 80.04901623775284,12.912488669999998,0.0 80.04939470180419,12.912345340196064,0.0 80.04939470180419,12.912345340196064,0.0 80.04976175864353,12.912309747108381,0.0 80.04976175864353,12.912309747108381,0.0 80.05010116728013,12.912448932133747,0.0 80.05010116728013,12.912448932133747,0.0 80.05034174363146,12.912758581593366,0.0 80.05034174363146,12.912758581593366,0.0 80.05038456033184,12.913111364578938,0.0 80.05038456033184,12.913111364578938,0.0 80.05022461607741,12.91346607345708,0.0 80.05022461607741,12.91346607345708,0.0 80.04992768152131,12.913676848442691,0.0 80.04992768152131,12.913676848442691,0.0 80.04956289518582,12.9137443621613,0.0 80.04956289518582,12.9137443621613,0.0 80.04915923160571,12.913792048575225,0.0 80.04915923160571,12.913792048575225,0.0 80.04878920665728,12.913835761121323,0.0 80.04878920665728,12.913835761121323,0.0 80.04841918170884,12.913879473667421,0.0 80.04841918170884,12.913879473667421,0.0 80.04801551812872,12.913927160081347,0.0 80.04801551812872,12.913927160081347,0.0 80.04764549318028,12.913970872627443,0.0 80.04764549318028,12.913970872627443,0.0 80.04724182960018,12.914018559041367,0.0 80.04724182960018,12.914018559041367,0.0 80.04723849595096,12.914018952858854,0.0 80.04723849595096,12.914018952858854,0.0 80.0288090497133,12.91401960264898,0.0 80.0288090497133,12.91401960264898,0.0 80.02852797088468,12.913800927519585,0.0 80.02852797088468,12.913800927519585,0.0 80.02818171986885,12.913616842859472,0.0 80.02818171986885,12.913616842859472,0.0 80.02783546885304,12.91343275819936,0.0 80.02783546885304,12.91343275819936,0.0 80.02751807208853,12.913264013927588,0.0 80.02751807208853,12.913264013927588,0.0 80.0271718210727,12.913079929267475,0.0 80.0271718210727,12.913079929267475,0.0 80.02682557005687,12.912895844607363,0.0 80.02682557005687,12.912895844607363,0.0 80.02647789831815,12.912820045716987,0.0 80.02647789831815,12.912820045716987,0.0 80.02610902536273,12.912938320579663,0.0 80.02610902536273,12.912938320579663,0.0 80.02585613149384,12.913231276083422,0.0 80.02585613149384,12.913231276083422,0.0 80.02579057407489,12.91358038061072,0.0 80.02579057407489,12.91358038061072,0.0 80.02592001069199,12.913944856199002,0.0 80.02592001069199,12.913944856199002,0.0 80.02622093388872,12.914188425484088,0.0 80.02622093388872,12.914188425484088,0.0 80.02656510248386,12.914291768400112,0.0 80.02656510248386,12.914291768400112,0.0 80.02694267947163,12.914398069615567,0.0 80.02694267947163,12.914398069615567,0.0 80.02732025645942,12.914504370831022,0.0 80.02732025645942,12.914504370831022,0.0 80.02766636869822,12.914601813611855,0.0 80.02766636869822,12.914601813611855,0.0 80.02804394568601,12.91470811482731,0.0 80.02804394568601,12.91470811482731,0.0 80.0284215226738,12.914814416042764,0.0 80.0284215226738,12.914814416042764,0.0 80.02879909966157,12.91492071725822,0.0 80.02879909966157,12.91492071725822,0.0 80.0288090497133,12.914923518548093,0.0 80.0288090497133,12.914923518548093,0.0 80.04723856219455,12.914922868710969,0.0 80.04723856219455,12.914922868710969,0.0 80.04940331514973,12.914149966135632,0.0</coordinates>
            </LineString>
        </Placemark>
        <Placemark id="151">
            <name>0</name>
            <Point id="150">
                <coordinates>80.0288090497133,12.909500022217381,0.0</coordinates>
            </Point>
        </Placemark>
        <Placemark id="153">
            <name>1</name>
            <Point id="152">
                <coordinates>80.04723816480855,12.90949937266225,0.0</coordinates>
            </Point>
        </Placemark>
        <Placemark id="155">
            <name>2</name>
            <Point id="154">
                <coordinates>80.04759673244513,12.909410491965637,0.0</coordinates>
            </Point>
        </Placemark>
        <Placemark id="157">
            <name>3</name>
            <Point id="156">
                <coordinates>80.04794365705098,12.909279104416205,0.0</coordinates>
            </Point>
        </Placemark>
        <Placemark id="159">
            <name>4</name>
            <Point id="158">
                <coordinates>80.04832212025735,12.909135772544097,0.0</coordinates>
            </Point>
        </Placemark>
        <Placemark id="161">
            <name>5</name>
            <Point id="160">
                <coordinates>80.0486690448632,12.909004384994667,0.0</coordinates>
            </Point>
        </Placemark>
        <Placemark id="163">
            <name>6</name>
            <Point id="162">
                <coordinates>80.04901596946905,12.908872997445236,0.0</coordinates>
            </Point>
        </Placemark>
        <Placemark id="165">
            <name>7</name>
            <Point id="164">
                <coordinates>80.04939443267543,12.908729665573128,0.0</coordinates>
            </Point>
        </Placemark>
        <Placemark id="167">
            <name>8</name>
            <Point id="166">
                <coordinates>80.04976148930493,12.90869407047961,0.0</coordinates>
            </Point>
        </Placemark>
        <Placemark id="169">
            <name>9</name>
            <Point id="168">
                <coordinates>80.05010089876207,12.908833253650227,0.0</coordinates>
            </Point>
        </Placemark>
        <Placemark id="171">
            <name>10</name>
            <Point id="170">
                <coordinates>80.05034147693888,12.909142901795178,0.0</coordinates>
            </Point>
        </Placemark>
        <Placemark id="173">
            <name>11</name>
            <Point id="172">
                <coordinates>80.05038429571901,12.909495684546766,0.0</coordinates>
            </Point>
        </Placemark>
        <Placemark id="175">
            <name>12</name>
            <Point id="174">
                <coordinates>80.0502243535557,12.909850394298939,0.0</coordinates>
            </Point>
        </Placemark>
        <Placemark id="177">
            <name>13</name>
            <Point id="176">
                <coordinates>80.0499274202422,12.910061170907188,0.0</coordinates>
            </Point>
        </Placemark>
        <Placemark id="179">
            <name>14</name>
            <Point id="178">
                <coordinates>80.04956263428896,12.910128686495494,0.0</coordinates>
            </Point>
        </Placemark>
        <Placemark id="181">
            <name>15</name>
            <Point id="180">
                <coordinates>80.04915897095213,12.910176374818338,0.0</coordinates>
            </Point>
        </Placemark>
        <Placemark id="183">
            <name>16</name>
            <Point id="182">
                <coordinates>80.04878894622671,12.91022008911428,0.0</coordinates>
            </Point>
        </Placemark>
        <Placemark id="185">
            <name>17</name>
            <Point id="184">
                <coordinates>80.04841892150128,12.91026380341022,0.0</coordinates>
            </Point>
        </Placemark>
        <Placemark id="187">
            <name>18</name>
            <Point id="186">
                <coordinates>80.04801525816445,12.910311491733065,0.0</coordinates>
            </Point>
        </Placemark>
        <Placemark id="189">
            <name>19</name>
            <Point id="188">
                <coordinates>80.04764523343904,12.910355206029006,0.0</coordinates>
            </Point>
        </Placemark>
        <Placemark id="191">
            <name>20</name>
            <Point id="190">
                <coordinates>80.0472415701022,12.91040289435185,0.0</coordinates>
            </Point>
        </Placemark>
        <Placemark id="193">
            <name>21</name>
            <Point id="192">
                <coordinates>80.04723823102697,12.910403288826362,0.0</coordinates>
            </Point>
        </Placemark>
        <Placemark id="195">
            <name>22</name>
            <Point id="194">
                <coordinates>80.0288090497133,12.910403938428491,0.0</coordinates>
            </Point>
        </Placemark>
        <Placemark id="197">
            <name>23</name>
            <Point id="196">
                <coordinates>80.02852797109534,12.910185262904395,0.0</coordinates>
            </Point>
        </Placemark>
        <Placemark id="199">
            <name>24</name>
            <Point id="198">
                <coordinates>80.02818172134346,12.910001175876086,0.0</coordinates>
            </Point>
        </Placemark>
        <Placemark id="201">
            <name>25</name>
            <Point id="200">
                <coordinates>80.02783547159156,12.909817088847777,0.0</coordinates>
            </Point>
        </Placemark>
        <Placemark id="203">
            <name>26</name>
            <Point id="202">
                <coordinates>80.02751807598567,12.909648342405161,0.0</coordinates>
            </Point>
        </Placemark>
        <Placemark id="205">
            <name>27</name>
            <Point id="204">
                <coordinates>80.02717182623378,12.90946425537685,0.0</coordinates>
            </Point>
        </Placemark>
        <Placemark id="207">
            <name>28</name>
            <Point id="206">
                <coordinates>80.02682557648188,12.909280168348541,0.0</coordinates>
            </Point>
        </Placemark>
        <Placemark id="209">
            <name>29</name>
            <Point id="208">
                <coordinates>80.02647790526359,12.90920436708025,0.0</coordinates>
            </Point>
        </Placemark>
        <Placemark id="211">
            <name>30</name>
            <Point id="210">
                <coordinates>80.02610903149612,12.909322639419997,0.0</coordinates>
            </Point>
        </Placemark>
        <Placemark id="213">
            <name>31</name>
            <Point id="212">
                <coordinates>80.0258561356158,12.909615593194069,0.0</coordinates>
            </Point>
        </Placemark>
        <Placemark id="215">
            <name>32</name>
            <Point id="214">
                <coordinates>80.02579057579989,12.909964697272976,0.0</coordinates>
            </Point>
        </Placemark>
        <Placemark id="217">
            <name>33</name>
            <Point id="216">
                <coordinates>80.0259200099145,12.910329173746536,0.0</coordinates>
            </Point>
        </Placemark>
        <Placemark id="219">
            <name>34</name>
            <Point id="218">
                <coordinates>80.02622093143886,12.910572745089798,0.0</coordinates>
            </Point>
        </Placemark>
        <Placemark id="221">
            <name>35</name>
            <Point id="220">
                <coordinates>80.02656509941392,12.910676090043163,0.0</coordinates>
            </Point>
        </Placemark>
        <Placemark id="223">
            <name>36</name>
            <Point id="222">
                <coordinates>80.02694267580605,12.910782393366151,0.0</coordinates>
            </Point>
        </Placemark>
        <Placemark id="225">
            <name>37</name>
            <Point id="224">
                <coordinates>80.0273202521982,12.91088869668914,0.0</coordinates>
            </Point>
        </Placemark>
        <Placemark id="227">
            <name>38</name>
            <Point id="226">
                <coordinates>80.02766636389099,12.910986141401878,0.0</coordinates>
            </Point>
        </Placemark>
        <Placemark id="229">
            <name>39</name>
            <Point id="228">
                <coordinates>80.02804394028311,12.911092444724868,0.0</coordinates>
            </Point>
        </Placemark>
        <Placemark id="231">
            <name>40</name>
            <Point id="230">
                <coordinates>80.02842151667525,12.911198748047857,0.0</coordinates>
            </Point>
        </Placemark>
        <Placemark id="233">
            <name>41</name>
            <Point id="232">
                <coordinates>80.02879909306739,12.911305051370846,0.0</coordinates>
            </Point>
        </Placemark>
        <Placemark id="235">
            <name>42</name>
            <Point id="234">
                <coordinates>80.0288090497133,12.911307854577212,0.0</coordinates>
            </Point>
        </Placemark>
        <Placemark id="237">
            <name>43</name>
            <Point id="236">
                <coordinates>80.04723829725042,12.911307204928084,0.0</coordinates>
            </Point>
        </Placemark>
        <Placemark id="239">
            <name>44</name>
            <Point id="238">
                <coordinates>80.04759686499261,12.911218324489974,0.0</coordinates>
            </Point>
        </Placemark>
        <Placemark id="241">
            <name>45</name>
            <Point id="240">
                <coordinates>80.04794378998572,12.911086937888388,0.0</coordinates>
            </Point>
        </Placemark>
        <Placemark id="243">
            <name>46</name>
            <Point id="242">
                <coordinates>80.04832225361456,12.910943607050296,0.0</coordinates>
            </Point>
        </Placemark>
        <Placemark id="245">
            <name>47</name>
            <Point id="244">
                <coordinates>80.04866917860767,12.91081222044871,0.0</coordinates>
            </Point>
        </Placemark>
        <Placemark id="247">
            <name>48</name>
            <Point id="246">
                <coordinates>80.04901610360076,12.910680833847124,0.0</coordinates>
            </Point>
        </Placemark>
        <Placemark id="249">
            <name>49</name>
            <Point id="248">
                <coordinates>80.04939456722961,12.910537503009031,0.0</coordinates>
            </Point>
        </Placemark>
        <Placemark id="251">
            <name>50</name>
            <Point id="250">
                <coordinates>80.04976162396403,12.910501908918361,0.0</coordinates>
            </Point>
        </Placemark>
        <Placemark id="253">
            <name>51</name>
            <Point id="252">
                <coordinates>80.05010103301093,12.91064109301629,0.0</coordinates>
            </Point>
        </Placemark>
        <Placemark id="255">
            <name>52</name>
            <Point id="254">
                <coordinates>80.05034161027507,12.910950741818532,0.0</coordinates>
            </Point>
        </Placemark>
        <Placemark id="257">
            <name>53</name>
            <Point id="256">
                <coordinates>80.05038442801538,12.911303524687105,0.0</coordinates>
            </Point>
        </Placemark>
        <Placemark id="259">
            <name>54</name>
            <Point id="258">
                <coordinates>80.05022448480659,12.911658234002292,0.0</coordinates>
            </Point>
        </Placemark>
        <Placemark id="261">
            <name>55</name>
            <Point id="260">
                <coordinates>80.04992755087183,12.911869009799279,0.0</coordinates>
            </Point>
        </Placemark>
        <Placemark id="263">
            <name>56</name>
            <Point id="262">
                <coordinates>80.04956276472747,12.911936524452802,0.0</coordinates>
            </Point>
        </Placemark>
        <Placemark id="265">
            <name>57</name>
            <Point id="264">
                <coordinates>80.04915910126901,12.911984211821252,0.0</coordinates>
            </Point>
        </Placemark>
        <Placemark id="267">
            <name>58</name>
            <Point id="266">
                <coordinates>80.04878907643209,12.912027925242331,0.0</coordinates>
            </Point>
        </Placemark>
        <Placemark id="269">
            <name>59</name>
            <Point id="268">
                <coordinates>80.04841905159516,12.912071638663411,0.0</coordinates>
            </Point>
        </Placemark>
        <Placemark id="271">
            <name>60</name>
            <Point id="270">
                <coordinates>80.0480153881367,12.912119326031862,0.0</coordinates>
            </Point>
        </Placemark>
        <Placemark id="273">
            <name>61</name>
            <Point id="272">
                <coordinates>80.04764536329978,12.912163039452942,0.0</coordinates>
            </Point>
        </Placemark>
        <Placemark id="275">
            <name>62</name>
            <Point id="274">
                <coordinates>80.04724169984132,12.912210726821392,0.0</coordinates>
            </Point>
        </Placemark>
        <Placemark id="277">
            <name>63</name>
            <Point id="276">
                <coordinates>80.0472383634789,12.912211120967408,0.0</coordinates>
            </Point>
        </Placemark>
        <Placemark id="279">
            <name>64</name>
            <Point id="278">
                <coordinates>80.0288090497133,12.912211770663534,0.0</coordinates>
            </Point>
        </Placemark>
        <Placemark id="281">
            <name>65</name>
            <Point id="280">
                <coordinates>80.02852797099003,12.911993095336776,0.0</coordinates>
            </Point>
        </Placemark>
        <Placemark id="283">
            <name>66</name>
            <Point id="282">
                <coordinates>80.0281817206062,12.911809009492481,0.0</coordinates>
            </Point>
        </Placemark>
        <Placemark id="285">
            <name>67</name>
            <Point id="284">
                <coordinates>80.02783547022239,12.911624923648187,0.0</coordinates>
            </Point>
        </Placemark>
        <Placemark id="287">
            <name>68</name>
            <Point id="286">
                <coordinates>80.02751807403723,12.911456178290917,0.0</coordinates>
            </Point>
        </Placemark>
        <Placemark id="289">
            <name>69</name>
            <Point id="288">
                <coordinates>80.0271718236534,12.911272092446623,0.0</coordinates>
            </Point>
        </Placemark>
        <Placemark id="291">
            <name>70</name>
            <Point id="290">
                <coordinates>80.02682557326959,12.91108800660233,0.0</coordinates>
            </Point>
        </Placemark>
        <Placemark id="293">
            <name>71</name>
            <Point id="292">
                <coordinates>80.0264779017911,12.911012206522914,0.0</coordinates>
            </Point>
        </Placemark>
        <Placemark id="295">
            <name>72</name>
            <Point id="294">
                <coordinates>80.02610902842962,12.911130480124037,0.0</coordinates>
            </Point>
        </Placemark>
        <Placemark id="297">
            <name>73</name>
            <Point id="296">
                <coordinates>80.02585613355494,12.911423434762895,0.0</coordinates>
            </Point>
        </Placemark>
        <Placemark id="299">
            <name>74</name>
            <Point id="298">
                <coordinates>80.02579057493743,12.911772539065984,0.0</coordinates>
            </Point>
        </Placemark>
        <Placemark id="301">
            <name>75</name>
            <Point id="300">
                <coordinates>80.0259200103032,12.912137015096938,0.0</coordinates>
            </Point>
        </Placemark>
        <Placemark id="303">
            <name>76</name>
            <Point id="302">
                <coordinates>80.02622093266369,12.912380585411185,0.0</coordinates>
            </Point>
        </Placemark>
        <Placemark id="305">
            <name>77</name>
            <Point id="304">
                <coordinates>80.02656510094877,12.91248392934595,0.0</coordinates>
            </Point>
        </Placemark>
        <Placemark id="307">
            <name>78</name>
            <Point id="306">
                <coordinates>80.02694267763871,12.912590231615246,0.0</coordinates>
            </Point>
        </Placemark>
        <Placemark id="309">
            <name>79</name>
            <Point id="308">
                <coordinates>80.02732025432864,12.912696533884542,0.0</coordinates>
            </Point>
        </Placemark>
        <Placemark id="311">
            <name>80</name>
            <Point id="310">
                <coordinates>80.02766636629443,12.912793977631395,0.0</coordinates>
            </Point>
        </Placemark>
        <Placemark id="313">
            <name>81</name>
            <Point id="312">
                <coordinates>80.02804394298437,12.91290027990069,0.0</coordinates>
            </Point>
        </Placemark>
        <Placemark id="315">
            <name>82</name>
            <Point id="314">
                <coordinates>80.02842151967431,12.913006582169986,0.0</coordinates>
            </Point>
        </Placemark>
        <Placemark id="317">
            <name>83</name>
            <Point id="316">
                <coordinates>80.02879909636425,12.913112884439283,0.0</coordinates>
            </Point>
        </Placemark>
        <Placemark id="319">
            <name>84</name>
            <Point id="318">
                <coordinates>80.0288090497133,12.91311568668746,0.0</coordinates>
            </Point>
        </Placemark>
        <Placemark id="321">
            <name>85</name>
            <Point id="320">
                <coordinates>80.04723842971241,12.913115036944333,0.0</coordinates>
            </Point>
        </Placemark>
        <Placemark id="323">
            <name>86</name>
            <Point id="322">
                <coordinates>80.04759699756023,12.913026156764762,0.0</coordinates>
            </Point>
        </Placemark>
        <Placemark id="325">
            <name>87</name>
            <Point id="324">
                <coordinates>80.04794392294065,12.912894771111153,0.0</coordinates>
            </Point>
        </Placemark>
        <Placemark id="327">
            <name>88</name>
            <Point id="326">
                <coordinates>80.04832238699201,12.912751441307217,0.0</coordinates>
            </Point>
        </Placemark>
        <Placemark id="329">
            <name>89</name>
            <Point id="328">
                <coordinates>80.04866931237243,12.912620055653608,0.0</coordinates>
            </Point>
        </Placemark>
        <Placemark id="331">
            <name>90</name>
            <Point id="330">
                <coordinates>80.04901623775284,12.912488669999998,0.0</coordinates>
            </Point>
        </Placemark>
        <Placemark id="333">
            <name>91</name>
            <Point id="332">
                <coordinates>80.04939470180419,12.912345340196064,0.0</coordinates>
            </Point>
        </Placemark>
        <Placemark id="335">
            <name>92</name>
            <Point id="334">
                <coordinates>80.04976175864353,12.912309747108381,0.0</coordinates>
            </Point>
        </Placemark>
        <Placemark id="337">
            <name>93</name>
            <Point id="336">
                <coordinates>80.05010116728013,12.912448932133747,0.0</coordinates>
            </Point>
        </Placemark>
        <Placemark id="339">
            <name>94</name>
            <Point id="338">
                <coordinates>80.05034174363146,12.912758581593366,0.0</coordinates>
            </Point>
        </Placemark>
        <Placemark id="341">
            <name>95</name>
            <Point id="340">
                <coordinates>80.05038456033184,12.913111364578938,0.0</coordinates>
            </Point>
        </Placemark>
        <Placemark id="343">
            <name>96</name>
            <Point id="342">
                <coordinates>80.05022461607741,12.91346607345708,0.0</coordinates>
            </Point>
        </Placemark>
        <Placemark id="345">
            <name>97</name>
            <Point id="344">
                <coordinates>80.04992768152131,12.913676848442691,0.0</coordinates>
            </Point>
        </Placemark>
        <Placemark id="347">
            <name>98</name>
            <Point id="346">
                <coordinates>80.04956289518582,12.9137443621613,0.0</coordinates>
            </Point>
        </Placemark>
        <Placemark id="349">
            <name>99</name>
            <Point id="348">
                <coordinates>80.04915923160571,12.913792048575225,0.0</coordinates>
            </Point>
        </Placemark>
        <Placemark id="351">
            <name>100</name>
            <Point id="350">
                <coordinates>80.04878920665728,12.913835761121323,0.0</coordinates>
            </Point>
        </Placemark>
        <Placemark id="353">
            <name>101</name>
            <Point id="352">
                <coordinates>80.04841918170884,12.913879473667421,0.0</coordinates>
            </Point>
        </Placemark>
        <Placemark id="355">
            <name>102</name>
            <Point id="354">
                <coordinates>80.04801551812872,12.913927160081347,0.0</coordinates>
            </Point>
        </Placemark>
        <Placemark id="357">
            <name>103</name>
            <Point id="356">
                <coordinates>80.04764549318028,12.913970872627443,0.0</coordinates>
            </Point>
        </Placemark>
        <Placemark id="359">
            <name>104</name>
            <Point id="358">
                <coordinates>80.04724182960018,12.914018559041367,0.0</coordinates>
            </Point>
        </Placemark>
        <Placemark id="361">
            <name>105</name>
            <Point id="360">
                <coordinates>80.04723849595096,12.914018952858854,0.0</coordinates>
            </Point>
        </Placemark>
        <Placemark id="363">
            <name>106</name>
            <Point id="362">
                <coordinates>80.0288090497133,12.91401960264898,0.0</coordinates>
            </Point>
        </Placemark>
        <Placemark id="365">
            <name>107</name>
            <Point id="364">
                <coordinates>80.02852797088468,12.913800927519585,0.0</coordinates>
            </Point>
        </Placemark>
        <Placemark id="367">
            <name>108</name>
            <Point id="366">
                <coordinates>80.02818171986885,12.913616842859472,0.0</coordinates>
            </Point>
        </Placemark>
        <Placemark id="369">
            <name>109</name>
            <Point id="368">
                <coordinates>80.02783546885304,12.91343275819936,0.0</coordinates>
            </Point>
        </Placemark>
        <Placemark id="371">
            <name>110</name>
            <Point id="370">
                <coordinates>80.02751807208853,12.913264013927588,0.0</coordinates>
            </Point>
        </Placemark>
        <Placemark id="373">
            <name>111</name>
            <Point id="372">
                <coordinates>80.0271718210727,12.913079929267475,0.0</coordinates>
            </Point>
        </Placemark>
        <Placemark id="375">
            <name>112</name>
            <Point id="374">
                <coordinates>80.02682557005687,12.912895844607363,0.0</coordinates>
            </Point>
        </Placemark>
        <Placemark id="377">
            <name>113</name>
            <Point id="376">
                <coordinates>80.02647789831815,12.912820045716987,0.0</coordinates>
            </Point>
        </Placemark>
        <Placemark id="379">
            <name>114</name>
            <Point id="378">
                <coordinates>80.02610902536273,12.912938320579663,0.0</coordinates>
            </Point>
        </Placemark>
        <Placemark id="381">
            <name>115</name>
            <Point id="380">
                <coordinates>80.02585613149384,12.913231276083422,0.0</coordinates>
            </Point>
        </Placemark>
        <Placemark id="383">
            <name>116</name>
            <Point id="382">
                <coordinates>80.02579057407489,12.91358038061072,0.0</coordinates>
            </Point>
        </Placemark>
        <Placemark id="385">
            <name>117</name>
            <Point id="384">
                <coordinates>80.02592001069199,12.913944856199002,0.0</coordinates>
            </Point>
        </Placemark>
        <Placemark id="387">
            <name>118</name>
            <Point id="386">
                <coordinates>80.02622093388872,12.914188425484088,0.0</coordinates>
            </Point>
        </Placemark>
        <Placemark id="389">
            <name>119</name>
            <Point id="388">
                <coordinates>80.02656510248386,12.914291768400112,0.0</coordinates>
            </Point>
        </Placemark>
        <Placemark id="391">
            <name>120</name>
            <Point id="390">
                <coordinates>80.02694267947163,12.914398069615567,0.0</coordinates>
            </Point>
        </Placemark>
        <Placemark id="393">
            <name>121</name>
            <Point id="392">
                <coordinates>80.02732025645942,12.914504370831022,0.0</coordinates>
            </Point>
        </Placemark>
        <Placemark id="395">
            <name>122</name>
            <Point id="394">
                <coordinates>80.02766636869822,12.914601813611855,0.0</coordinates>
            </Point>
        </Placemark>
        <Placemark id="397">
            <name>123</name>
            <Point id="396">
                <coordinates>80.02804394568601,12.91470811482731,0.0</coordinates>
            </Point>
        </Placemark>
        <Placemark id="399">
            <name>124</name>
            <Point id="398">
                <coordinates>80.0284215226738,12.914814416042764,0.0</coordinates>
            </Point>
        </Placemark>
        <Placemark id="401">
            <name>125</name>
            <Point id="400">
                <coordinates>80.02879909966157,12.91492071725822,0.0</coordinates>
            </Point>
        </Placemark>
        <Placemark id="403">
            <name>126</name>
            <Point id="402">
                <coordinates>80.0288090497133,12.914923518548093,0.0</coordinates>
            </Point>
        </Placemark>
        <Placemark id="405">
            <name>127</name>
            <Point id="404">
                <coordinates>80.04723856219455,12.914922868710969,0.0</coordinates>
            </Point>
        </Placemark>
    </Document>
</kml>
