<?xml version="1.0" encoding="UTF-8"?>
<kml xmlns="http://www.opengis.net/kml/2.2" xmlns:gx="http://www.google.com/kml/ext/2.2">
    <Document id="407">
        <Style id="410">
            <LineStyle id="411">
                <color>ffff0000</color>
                <colorMode>normal</colorMode>
                <width>2</width>
            </LineStyle>
        </Style>
        <Placemark id="409">
            <styleUrl>#410</styleUrl>
            <LineString id="408">
                <altitudeMode>clampToGround</altitudeMode>
                <coordinates>80.0288090497133,12.915224823833922,0.0 80.04723858427687,12.915224173981127,0.0 80.04723858427687,12.915224173981127,0.0 80.04759715224795,12.91513529410323,0.0 80.04759715224795,12.91513529410323,0.0 80.04794407808028,12.91500390955576,0.0 80.04794407808028,12.91500390955576,0.0 80.04832254262465,12.91486058095852,0.0 80.04832254262465,12.91486058095852,0.0 80.04866946845698,12.914729196411049,0.0 80.04866946845698,12.914729196411049,0.0 80.04901639428932,12.91459781186358,0.0 80.04901639428932,12.91459781186358,0.0 80.04939485883368,12.91445448326634,0.0 80.04939485883368,12.91445448326634,0.0 80.04976191579544,12.914418891348982,0.0 80.04976191579544,12.914418891348982,0.0 80.0501013239533,12.914558077456519,0.0 80.0501013239533,12.914558077456519,0.0 80.05034189923954,12.914867727683191,0.0 80.05034189923954,12.914867727683191,0.0 80.05038471472645,12.91522051080528,0.0 80.05038471472645,12.91522051080528,0.0 80.05022476925194,12.915575219173451,0.0 80.05022476925194,12.915575219173451,0.0 80.04992783397084,12.915785993212314,0.0 80.04992783397084,12.915785993212314,0.0 80.04956304741232,12.91585350584003,0.0 80.04956304741232,12.91585350584003,0.0 80.04915938369027,12.915901191140176,0.0 80.04915938369027,12.915901191140176,0.0 80.04878935861171,12.915944902665307,0.0 80.04878935861171,12.915944902665307,0.0 80.04841933353318,12.91598861419044,0.0 80.04841933353318,12.91598861419044,0.0 80.04801566981112,12.916036299490585,0.0 80.04801566981112,12.916036299490585,0.0 80.04764564473257,12.916080011015719,0.0 80.04764564473257,12.916080011015719,0.0 80.04724198101052,12.916127696315863,0.0 80.04724198101052,12.916127696315863,0.0 80.04723865052716,12.916128089750025,0.0 80.04723865052716,12.916128089750025,0.0 80.0288090497133,12.916128739649817,0.0 80.0288090497133,12.916128739649817,0.0 80.02852797076177,12.915910064750715,0.0 80.02852797076177,12.915910064750715,0.0 80.0281817190085,12.91572598147236,0.0 80.0281817190085,12.91572598147236,0.0 80.02783546725523,12.915541898194004,0.0 80.02783546725523,12.915541898194004,0.0 80.02751806981472,12.915373155188846,0.0 80.02751806981472,12.915373155188846,0.0 80.02717181806145,12.91518907191049,0.0 80.02717181806145,12.91518907191049,0.0 80.02682556630816,12.915004988632132,0.0 80.02682556630816,12.915004988632132,0.0 80.02647789426578,12.914929191129183,0.0 80.02647789426578,12.914929191129183,0.0 80.02610902178418,12.915047467463888,0.0 80.02610902178418,12.915047467463888,0.0 80.0258561290889,12.915340423976847,0.0 80.0258561290889,12.915340423976847,0.0 80.02579057306848,12.915689528765757,0.0 80.02579057306848,12.915689528765757,0.0 80.0259200111457,12.916054003837504,0.0 80.0259200111457,12.916054003837504,0.0 80.02622093531816,12.91629757192172,0.0 80.02622093531816,12.91629757192172,0.0 80.0265651042751,12.916400913649028,0.0 80.0265651042751,12.916400913649028,0.0 80.02694268161041,12.916507213634812,0.0 80.02694268161041,12.916507213634812,0.0 80.02732025894572,12.916613513620597,0.0 80.02732025894572,12.916613513620597,0.0 80.0276663715031,12.916710955274233,0.0 80.0276663715031,12.916710955274233,0.0 80.02804394883842,12.916817255260018,0.0 80.02804394883842,12.916817255260018,0.0 80.02842152617373,12.916923555245804,0.0 80.02842152617373,12.916923555245804,0.0 80.02879910350904,12.91702985523159,0.0 80.02879910350904,12.91702985523159,0.0 80.0288090497133,12.917032655403295,0.0 80.0288090497133,12.917032655403295,0.0 80.0472387167825,12.917032005456502,0.0 80.0472387167825,12.917032005456502,0.0 80.04759728485924,12.916943125837221,0.0 80.04759728485924,12.916943125837221,0.0 80.04794421107898,12.916811742238014,0.0 80.04794421107898,12.916811742238014,0.0 80.048322676046,12.916668414675241,0.0 80.048322676046,12.916668414675241,0.0 80.04866960226575,12.916537031076032,0.0 80.04866960226575,12.916537031076032,0.0 80.0490165284855,12.916405647476825,0.0 80.0490165284855,12.916405647476825,0.0 80.04939499345251,12.916262319914052,0.0 80.04939499345251,12.916262319914052,0.0 80.04976205051922,12.91622672899998,0.0 80.04976205051922,12.91622672899998,0.0 80.05010145826664,12.916365916035232,0.0 80.05010145826664,12.916365916035232,0.0 80.0503420326398,12.916675566919473,0.0 80.0503420326398,12.916675566919473,0.0 80.05038484708643,12.917028350158589,0.0 80.05038484708643,12.917028350158589,0.0 80.050224900566,12.917383058089575,0.0 80.050224900566,12.917383058089575,0.0 80.04992796466338,12.917593831316815,0.0 80.04992796466338,12.917593831316815,0.0 80.04956317791368,12.917661343009339,0.0 80.04956317791368,12.917661343009339,0.0 80.04915951406994,12.917709027354672,0.0 80.04915951406994,12.917709027354672,0.0 80.04878948887985,12.917752738004559,0.0 80.04878948887985,12.917752738004559,0.0 80.04841946368975,12.917796448654446,0.0 80.04841946368975,12.917796448654446,0.0 80.04801579984603,12.917844132999779,0.0 80.04801579984603,12.917844132999779,0.0 80.04764577465593,12.917887843649666,0.0 80.04764577465593,12.917887843649666,0.0 80.04724211081219,12.917935527994997,0.0 80.04724211081219,12.917935527994997,0.0 80.04723878304286,12.91793592110056,0.0 80.04723878304286,12.91793592110056,0.0 80.0288090497133,12.917936571094353,0.0 80.0288090497133,12.917936571094353,0.0 80.02852797065641,12.917717896392675,0.0 80.02852797065641,12.917717896392675,0.0 80.02818171827094,12.917533814298864,0.0 80.02818171827094,12.917533814298864,0.0 80.02783546588547,12.91734973220505,0.0 80.02783546588547,12.91734973220505,0.0 80.02751806786546,12.917180990285722,0.0 80.02751806786546,12.917180990285722,0.0 80.02717181547999,12.91699690819191,0.0 80.02717181547999,12.91699690819191,0.0 80.02682556309452,12.916812826098097,0.0 80.02682556309452,12.916812826098097,0.0 80.02647789079182,12.91673702978455,0.0 80.02647789079182,12.91673702978455,0.0 80.02610901871643,12.916855307381182,0.0 80.02610901871643,12.916855307381182,0.0 80.02585612702724,12.917148264759298,0.0 80.02585612702724,12.917148264759298,0.0 80.02579057220575,12.917497369772473,0.0 80.02579057220575,12.917497369772473,0.0 80.02592001153467,12.917861844401406,0.0 80.02592001153467,12.917861844401406,0.0 80.02622093654362,12.918105411456146,0.0 80.02622093654362,12.918105411456146,0.0 80.02656496011835,12.918209265664437,0.0 80.02656496011835,12.918209265664437,0.0 80.02694231921309,12.91831633484611,0.0 80.02694231921309,12.91831633484611,0.0 80.02731967830782,12.918423404027788,0.0 80.02731967830782,12.918423404027788,0.0 80.02766559081132,12.918521550777657,0.0 80.02766559081132,12.918521550777657,0.0 80.02804294990607,12.918627016355892,0.0 80.02804294990607,12.918627016355892,0.0 80.0284203090008,12.918732165820384,0.0 80.0284203090008,12.918732165820384,0.0 80.02879766809554,12.918837315284875,0.0 80.02879766809554,12.918837315284875,0.0 80.0288090497133,12.918840486722985,0.0 80.0288090497133,12.918840486722985,0.0 80.04723884930826,12.918839836682189,0.0 80.04723884930826,12.918839836682189,0.0 80.04759732060167,12.918752318883797,0.0 80.04759732060167,12.918752318883797,0.0 80.0479438919492,12.918622441153735,0.0 80.0479438919492,12.918622441153735,0.0 80.04832196978289,12.918479689687207,0.0 80.04832196978289,12.918479689687207,0.0 80.04866854113044,12.918347440775214,0.0 80.04866854113044,12.918347440775214,0.0 80.04901511247797,12.918215191863222,0.0 80.04901511247797,12.918215191863222,0.0 80.04939319031166,12.918070920322865,0.0 80.04939319031166,12.918070920322865,0.0 80.04976015032862,12.918034413537715,0.0 80.04976015032862,12.918034413537715,0.0 80.05009993165092,12.918172753113634,0.0 80.05009993165092,12.918172753113634,0.0 80.05034133884841,12.91848180260454,0.0 80.05034133884841,12.91848180260454,0.0 80.05038510290326,12.9188291832443,0.0 80.05038510290326,12.9188291832443,0.0 80.05022611185373,12.919177922191913,0.0 80.05022611185373,12.919177922191913,0.0 80.04992974438568,12.91938564334267,0.0 80.04992974438568,12.91938564334267,0.0 80.04956527812706,12.919453849711076,0.0 80.04956527812706,12.919453849711076,0.0 80.04916207404442,12.91950409547683,0.0 80.04916207404442,12.91950409547683,0.0 80.04879247030198,12.919550154095438,0.0 80.04879247030198,12.919550154095438,0.0 80.04842286655955,12.919596212714048,0.0 80.04842286655955,12.919596212714048,0.0 80.04801966247689,12.919646458479802,0.0 80.04801966247689,12.919646458479802,0.0 80.04765005873446,12.919692517098412,0.0 80.04765005873446,12.919692517098412,0.0 80.0472468546518,12.919742762864166,0.0 80.0472468546518,12.919742762864166,0.0 80.0472389155787,12.919743752201388,0.0 80.0472389155787,12.919743752201388,0.0 80.0288090497133,12.919744402289188,0.0 80.0288090497133,12.919744402289188,0.0 80.02852825089718,12.919529138250079,0.0 80.02852825089718,12.919529138250079,0.0 80.0281836799563,12.919345296049443,0.0 80.0281836799563,12.919345296049443,0.0 80.02783910901543,12.919161453848806,0.0 80.02783910901543,12.919161453848806,0.0 80.02752325231963,12.918992931831557,0.0 80.02752325231963,12.918992931831557,0.0 80.02717868137876,12.91880908963092,0.0 80.02717868137876,12.91880908963092,0.0 80.02683411043789,12.918625247430283,0.0 80.02683411043789,12.918625247430283,0.0 80.02648713885525,12.918547732552788,0.0 80.02648713885525,12.918547732552788,0.0 80.0261172105702,12.918660616268529,0.0 80.0261172105702,12.918660616268529,0.0 80.02586167579587,12.918946068466004,0.0 80.02586167579587,12.918946068466004,0.0 80.0257929616856,12.919288319266126,0.0 80.0257929616856,12.919288319266126,0.0 80.02591909455013,12.919647391271813,0.0 80.02591909455013,12.919647391271813,0.0 80.02621780119028,12.91988924786852,0.0 80.02621780119028,12.91988924786852,0.0 80.02656070313914,12.919994838176954,0.0 80.02656070313914,12.919994838176954,0.0 80.02693682666442,12.920104158092172,0.0 80.02693682666442,12.920104158092172,0.0 80.02731295018971,12.920213478007392,0.0 80.02731295018971,12.920213478007392,0.0 80.02765773008788,12.920313687929676,0.0 80.02765773008788,12.920313687929676,0.0 80.02803385361317,12.920423007844894,0.0 80.02803385361317,12.920423007844894,0.0 80.02840997713844,12.920532327760114,0.0 80.02840997713844,12.920532327760114,0.0 80.02878610066372,12.920641647675332,0.0 80.02878610066372,12.920641647675332,0.0 80.0288090497133,12.920648317792955,0.0 80.0288090497133,12.920648317792955,0.0 80.04723898185416,12.920647667658152,0.0 80.04723898185416,12.920647667658152,0.0 80.04940378410002,12.919874765416747,0.0</coordinates>
            </LineString>
        </Placemark>
        <Placemark id="413">
            <name>0</name>
            <Point id="412">
                <coordinates>80.0288090497133,12.915224823833922,0.0</coordinates>
            </Point>
        </Placemark>
        <Placemark id="415">
            <name>1</name>
            <Point id="414">
                <coordinates>80.04723858427687,12.915224173981127,0.0</coordinates>
            </Point>
        </Placemark>
        <Placemark id="417">
            <name>2</name>
            <Point id="416">
                <coordinates>80.04759715224795,12.91513529410323,0.0</coordinates>
            </Point>
        </Placemark>
        <Placemark id="419">
            <name>3</name>
            <Point id="418">
                <coordinates>80.04794407808028,12.91500390955576,0.0</coordinates>
            </Point>
        </Placemark>
        <Placemark id="421">
            <name>4</name>
            <Point id="420">
                <coordinates>80.04832254262465,12.91486058095852,0.0</coordinates>
            </Point>
        </Placemark>
        <Placemark id="423">
            <name>5</name>
            <Point id="422">
                <coordinates>80.04866946845698,12.914729196411049,0.0</coordinates>
            </Point>
        </Placemark>
        <Placemark id="425">
            <name>6</name>
            <Point id="424">
                <coordinates>80.04901639428932,12.91459781186358,0.0</coordinates>
            </Point>
        </Placemark>
        <Placemark id="427">
            <name>7</name>
            <Point id="426">
                <coordinates>80.04939485883368,12.91445448326634,0.0</coordinates>
            </Point>
        </Placemark>
        <Placemark id="429">
            <name>8</name>
            <Point id="428">
                <coordinates>80.04976191579544,12.914418891348982,0.0</coordinates>
            </Point>
        </Placemark>
        <Placemark id="431">
            <name>9</name>
            <Point id="430">
                <coordinates>80.0501013239533,12.914558077456519,0.0</coordinates>
            </Point>
        </Placemark>
        <Placemark id="433">
            <name>10</name>
            <Point id="432">
                <coordinates>80.05034189923954,12.914867727683191,0.0</coordinates>
            </Point>
        </Placemark>
        <Placemark id="435">
            <name>11</name>
            <Point id="434">
                <coordinates>80.05038471472645,12.91522051080528,0.0</coordinates>
            </Point>
        </Placemark>
        <Placemark id="437">
            <name>12</name>
            <Point id="436">
                <coordinates>80.05022476925194,12.915575219173451,0.0</coordinates>
            </Point>
        </Placemark>
        <Placemark id="439">
            <name>13</name>
            <Point id="438">
                <coordinates>80.04992783397084,12.915785993212314,0.0</coordinates>
            </Point>
        </Placemark>
        <Placemark id="441">
            <name>14</name>
            <Point id="440">
                <coordinates>80.04956304741232,12.91585350584003,0.0</coordinates>
            </Point>
        </Placemark>
        <Placemark id="443">
            <name>15</name>
            <Point id="442">
                <coordinates>80.04915938369027,12.915901191140176,0.0</coordinates>
            </Point>
        </Placemark>
        <Placemark id="445">
            <name>16</name>
            <Point id="444">
                <coordinates>80.04878935861171,12.915944902665307,0.0</coordinates>
            </Point>
        </Placemark>
        <Placemark id="447">
            <name>17</name>
            <Point id="446">
                <coordinates>80.04841933353318,12.91598861419044,0.0</coordinates>
            </Point>
        </Placemark>
        <Placemark id="449">
            <name>18</name>
            <Point id="448">
                <coordinates>80.04801566981112,12.916036299490585,0.0</coordinates>
            </Point>
        </Placemark>
        <Placemark id="451">
            <name>19</name>
            <Point id="450">
                <coordinates>80.04764564473257,12.916080011015719,0.0</coordinates>
            </Point>
        </Placemark>
        <Placemark id="453">
            <name>20</name>
            <Point id="452">
                <coordinates>80.04724198101052,12.916127696315863,0.0</coordinates>
            </Point>
        </Placemark>
        <Placemark id="455">
            <name>21</name>
            <Point id="454">
                <coordinates>80.04723865052716,12.916128089750025,0.0</coordinates>
            </Point>
        </Placemark>
        <Placemark id="457">
            <name>22</name>
            <Point id="456">
                <coordinates>80.0288090497133,12.916128739649817,0.0</coordinates>
            </Point>
        </Placemark>
        <Placemark id="459">
            <name>23</name>
            <Point id="458">
                <coordinates>80.02852797076177,12.915910064750715,0.0</coordinates>
            </Point>
        </Placemark>
        <Placemark id="461">
            <name>24</name>
            <Point id="460">
                <coordinates>80.0281817190085,12.91572598147236,0.0</coordinates>
            </Point>
        </Placemark>
        <Placemark id="463">
            <name>25</name>
            <Point id="462">
                <coordinates>80.02783546725523,12.915541898194004,0.0</coordinates>
            </Point>
        </Placemark>
        <Placemark id="465">
            <name>26</name>
            <Point id="464">
                <coordinates>80.02751806981472,12.915373155188846,0.0</coordinates>
            </Point>
        </Placemark>
        <Placemark id="467">
            <name>27</name>
            <Point id="466">
                <coordinates>80.02717181806145,12.91518907191049,0.0</coordinates>
            </Point>
        </Placemark>
        <Placemark id="469">
            <name>28</name>
            <Point id="468">
                <coordinates>80.02682556630816,12.915004988632132,0.0</coordinates>
            </Point>
        </Placemark>
        <Placemark id="471">
            <name>29</name>
            <Point id="470">
                <coordinates>80.02647789426578,12.914929191129183,0.0</coordinates>
            </Point>
        </Placemark>
        <Placemark id="473">
            <name>30</name>
            <Point id="472">
                <coordinates>80.02610902178418,12.915047467463888,0.0</coordinates>
            </Point>
        </Placemark>
        <Placemark id="475">
            <name>31</name>
            <Point id="474">
                <coordinates>80.0258561290889,12.915340423976847,0.0</coordinates>
            </Point>
        </Placemark>
        <Placemark id="477">
            <name>32</name>
            <Point id="476">
                <coordinates>80.02579057306848,12.915689528765757,0.0</coordinates>
            </Point>
        </Placemark>
        <Placemark id="479">
            <name>33</name>
            <Point id="478">
                <coordinates>80.0259200111457,12.916054003837504,0.0</coordinates>
            </Point>
        </Placemark>
        <Placemark id="481">
            <name>34</name>
            <Point id="480">
                <coordinates>80.02622093531816,12.91629757192172,0.0</coordinates>
            </Point>
        </Placemark>
        <Placemark id="483">
            <name>35</name>
            <Point id="482">
                <coordinates>80.0265651042751,12.916400913649028,0.0</coordinates>
            </Point>
        </Placemark>
        <Placemark id="485">
            <name>36</name>
            <Point id="484">
                <coordinates>80.02694268161041,12.916507213634812,0.0</coordinates>
            </Point>
        </Placemark>
        <Placemark id="487">
            <name>37</name>
            <Point id="486">
                <coordinates>80.02732025894572,12.916613513620597,0.0</coordinates>
            </Point>
        </Placemark>
        <Placemark id="489">
            <name>38</name>
            <Point id="488">
                <coordinates>80.0276663715031,12.916710955274233,0.0</coordinates>
            </Point>
        </Placemark>
        <Placemark id="491">
            <name>39</name>
            <Point id="490">
                <coordinates>80.02804394883842,12.916817255260018,0.0</coordinates>
            </Point>
        </Placemark>
        <Placemark id="493">
            <name>40</name>
            <Point id="492">
                <coordinates>80.02842152617373,12.916923555245804,0.0</coordinates>
            </Point>
        </Placemark>
        <Placemark id="495">
            <name>41</name>
            <Point id="494">
                <coordinates>80.02879910350904,12.91702985523159,0.0</coordinates>
            </Point>
        </Placemark>
        <Placemark id="497">
            <name>42</name>
            <Point id="496">
                <coordinates>80.0288090497133,12.917032655403295,0.0</coordinates>
            </Point>
        </Placemark>
        <Placemark id="499">
            <name>43</name>
            <Point id="498">
                <coordinates>80.0472387167825,12.917032005456502,0.0</coordinates>
            </Point>
        </Placemark>
        <Placemark id="501">
            <name>44</name>
            <Point id="500">
                <coordinates>80.04759728485924,12.916943125837221,0.0</coordinates>
            </Point>
        </Placemark>
        <Placemark id="503">
            <name>45</name>
            <Point id="502">
                <coordinates>80.04794421107898,12.916811742238014,0.0</coordinates>
            </Point>
        </Placemark>
        <Placemark id="505">
            <name>46</name>
            <Point id="504">
                <coordinates>80.048322676046,12.916668414675241,0.0</coordinates>
            </Point>
        </Placemark>
        <Placemark id="507">
            <name>47</name>
            <Point id="506">
                <coordinates>80.04866960226575,12.916537031076032,0.0</coordinates>
            </Point>
        </Placemark>
        <Placemark id="509">
            <name>48</name>
            <Point id="508">
                <coordinates>80.0490165284855,12.916405647476825,0.0</coordinates>
            </Point>
        </Placemark>
        <Placemark id="511">
            <name>49</name>
            <Point id="510">
                <coordinates>80.04939499345251,12.916262319914052,0.0</coordinates>
            </Point>
        </Placemark>
        <Placemark id="513">
            <name>50</name>
            <Point id="512">
                <coordinates>80.04976205051922,12.91622672899998,0.0</coordinates>
            </Point>
        </Placemark>
        <Placemark id="515">
            <name>51</name>
            <Point id="514">
                <coordinates>80.05010145826664,12.916365916035232,0.0</coordinates>
            </Point>
        </Placemark>
        <Placemark id="517">
            <name>52</name>
            <Point id="516">
                <coordinates>80.0503420326398,12.916675566919473,0.0</coordinates>
            </Point>
        </Placemark>
        <Placemark id="519">
            <name>53</name>
            <Point id="518">
                <coordinates>80.05038484708643,12.917028350158589,0.0</coordinates>
            </Point>
        </Placemark>
        <Placemark id="521">
            <name>54</name>
            <Point id="520">
                <coordinates>80.050224900566,12.917383058089575,0.0</coordinates>
            </Point>
        </Placemark>
        <Placemark id="523">
            <name>55</name>
            <Point id="522">
                <coordinates>80.04992796466338,12.917593831316815,0.0</coordinates>
            </Point>
        </Placemark>
        <Placemark id="525">
            <name>56</name>
            <Point id="524">
                <coordinates>80.04956317791368,12.917661343009339,0.0</coordinates>
            </Point>
        </Placemark>
        <Placemark id="527">
            <name>57</name>
            <Point id="526">
                <coordinates>80.04915951406994,12.917709027354672,0.0</coordinates>
            </Point>
        </Placemark>
        <Placemark id="529">
            <name>58</name>
            <Point id="528">
                <coordinates>80.04878948887985,12.917752738004559,0.0</coordinates>
            </Point>
        </Placemark>
        <Placemark id="531">
            <name>59</name>
            <Point id="530">
                <coordinates>80.04841946368975,12.917796448654446,0.0</coordinates>
            </Point>
        </Placemark>
        <Placemark id="533">
            <name>60</name>
            <Point id="532">
                <coordinates>80.04801579984603,12.917844132999779,0.0</coordinates>
            </Point>
        </Placemark>
        <Placemark id="535">
            <name>61</name>
            <Point id="534">
                <coordinates>80.04764577465593,12.917887843649666,0.0</coordinates>
            </Point>
        </Placemark>
        <Placemark id="537">
            <name>62</name>
            <Point id="536">
                <coordinates>80.04724211081219,12.917935527994997,0.0</coordinates>
            </Point>
        </Placemark>
        <Placemark id="539">
            <name>63</name>
            <Point id="538">
                <coordinates>80.04723878304286,12.91793592110056,0.0</coordinates>
            </Point>
        </Placemark>
        <Placemark id="541">
            <name>64</name>
            <Point id="540">
                <coordinates>80.0288090497133,12.917936571094353,0.0</coordinates>
            </Point>
        </Placemark>
        <Placemark id="543">
            <name>65</name>
            <Point id="542">
                <coordinates>80.02852797065641,12.917717896392675,0.0</coordinates>
            </Point>
        </Placemark>
        <Placemark id="545">
            <name>66</name>
            <Point id="544">
                <coordinates>80.02818171827094,12.917533814298864,0.0</coordinates>
            </Point>
        </Placemark>
        <Placemark id="547">
            <name>67</name>
            <Point id="546">
                <coordinates>80.02783546588547,12.91734973220505,0.0</coordinates>
            </Point>
        </Placemark>
        <Placemark id="549">
            <name>68</name>
            <Point id="548">
                <coordinates>80.02751806786546,12.917180990285722,0.0</coordinates>
            </Point>
        </Placemark>
        <Placemark id="551">
            <name>69</name>
            <Point id="550">
                <coordinates>80.02717181547999,12.91699690819191,0.0</coordinates>
            </Point>
        </Placemark>
        <Placemark id="553">
            <name>70</name>
            <Point id="552">
                <coordinates>80.02682556309452,12.916812826098097,0.0</coordinates>
            </Point>
        </Placemark>
        <Placemark id="555">
            <name>71</name>
            <Point id="554">
                <coordinates>80.02647789079182,12.91673702978455,0.0</coordinates>
            </Point>
        </Placemark>
        <Placemark id="557">
            <name>72</name>
            <Point id="556">
                <coordinates>80.02610901871643,12.916855307381182,0.0</coordinates>
            </Point>
        </Placemark>
        <Placemark id="559">
            <name>73</name>
            <Point id="558">
                <coordinates>80.02585612702724,12.917148264759298,0.0</coordinates>
            </Point>
        </Placemark>
        <Placemark id="561">
            <name>74</name>
            <Point id="560">
                <coordinates>80.02579057220575,12.917497369772473,0.0</coordinates>
            </Point>
        </Placemark>
        <Placemark id="563">
            <name>75</name>
            <Point id="562">
                <coordinates>80.02592001153467,12.917861844401406,0.0</coordinates>
            </Point>
        </Placemark>
        <Placemark id="565">
            <name>76</name>
            <Point id="564">
                <coordinates>80.02622093654362,12.918105411456146,0.0</coordinates>
            </Point>
        </Placemark>
        <Placemark id="567">
            <name>77</name>
            <Point id="566">
                <coordinates>80.02656496011835,12.918209265664437,0.0</coordinates>
            </Point>
        </Placemark>
        <Placemark id="569">
            <name>78</name>
            <Point id="568">
                <coordinates>80.02694231921309,12.91831633484611,0.0</coordinates>
            </Point>
        </Placemark>
        <Placemark id="571">
            <name>79</name>
            <Point id="570">
                <coordinates>80.02731967830782,12.918423404027788,0.0</coordinates>
            </Point>
        </Placemark>
        <Placemark id="573">
            <name>80</name>
            <Point id="572">
                <coordinates>80.02766559081132,12.918521550777657,0.0</coordinates>
            </Point>
        </Placemark>
        <Placemark id="575">
            <name>81</name>
            <Point id="574">
                <coordinates>80.02804294990607,12.918627016355892,0.0</coordinates>
            </Point>
        </Placemark>
        <Placemark id="577">
            <name>82</name>
            <Point id="576">
                <coordinates>80.0284203090008,12.918732165820384,0.0</coordinates>
            </Point>
        </Placemark>
        <Placemark id="579">
            <name>83</name>
            <Point id="578">
                <coordinates>80.02879766809554,12.918837315284875,0.0</coordinates>
            </Point>
        </Placemark>
        <Placemark id="581">
            <name>84</name>
            <Point id="580">
                <coordinates>80.0288090497133,12.918840486722985,0.0</coordinates>
            </Point>
        </Placemark>
        <Placemark id="583">
            <name>85</name>
            <Point id="582">
                <coordinates>80.04723884930826,12.918839836682189,0.0</coordinates>
            </Point>
        </Placemark>
        <Placemark id="585">
            <name>86</name>
            <Point id="584">
                <coordinates>80.04759732060167,12.918752318883797,0.0</coordinates>
            </Point>
        </Placemark>
        <Placemark id="587">
            <name>87</name>
            <Point id="586">
                <coordinates>80.0479438919492,12.918622441153735,0.0</coordinates>
            </Point>
        </Placemark>
        <Placemark id="589">
            <name>88</name>
            <Point id="588">
                <coordinates>80.04832196978289,12.918479689687207,0.0</coordinates>
            </Point>
        </Placemark>
        <Placemark id="591">
            <name>89</name>
            <Point id="590">
                <coordinates>80.04866854113044,12.918347440775214,0.0</coordinates>
            </Point>
        </Placemark>
        <Placemark id="593">
            <name>90</name>
            <Point id="592">
                <coordinates>80.04901511247797,12.918215191863222,0.0</coordinates>
            </Point>
        </Placemark>
        <Placemark id="595">
            <name>91</name>
            <Point id="594">
                <coordinates>80.04939319031166,12.918070920322865,0.0</coordinates>
            </Point>
        </Placemark>
        <Placemark id="597">
            <name>92</name>
            <Point id="596">
                <coordinates>80.04976015032862,12.918034413537715,0.0</coordinates>
            </Point>
        </Placemark>
        <Placemark id="599">
            <name>93</name>
            <Point id="598">
                <coordinates>80.05009993165092,12.918172753113634,0.0</coordinates>
            </Point>
        </Placemark>
        <Placemark id="601">
            <name>94</name>
            <Point id="600">
                <coordinates>80.05034133884841,12.91848180260454,0.0</coordinates>
            </Point>
        </Placemark>
        <Placemark id="603">
            <name>95</name>
            <Point id="602">
                <coordinates>80.05038510290326,12.9188291832443,0.0</coordinates>
            </Point>
        </Placemark>
        <Placemark id="605">
            <name>96</name>
            <Point id="604">
                <coordinates>80.05022611185373,12.919177922191913,0.0</coordinates>
            </Point>
        </Placemark>
        <Placemark id="607">
            <name>97</name>
            <Point id="606">
                <coordinates>80.04992974438568,12.91938564334267,0.0</coordinates>
            </Point>
        </Placemark>
        <Placemark id="609">
            <name>98</name>
            <Point id="608">
                <coordinates>80.04956527812706,12.919453849711076,0.0</coordinates>
            </Point>
        </Placemark>
        <Placemark id="611">
            <name>99</name>
            <Point id="610">
                <coordinates>80.04916207404442,12.91950409547683,0.0</coordinates>
            </Point>
        </Placemark>
        <Placemark id="613">
            <name>100</name>
            <Point id="612">
                <coordinates>80.04879247030198,12.919550154095438,0.0</coordinates>
            </Point>
        </Placemark>
        <Placemark id="615">
            <name>101</name>
            <Point id="614">
                <coordinates>80.04842286655955,12.919596212714048,0.0</coordinates>
            </Point>
        </Placemark>
        <Placemark id="617">
            <name>102</name>
            <Point id="616">
                <coordinates>80.04801966247689,12.919646458479802,0.0</coordinates>
            </Point>
        </Placemark>
        <Placemark id="619">
            <name>103</name>
            <Point id="618">
                <coordinates>80.04765005873446,12.919692517098412,0.0</coordinates>
            </Point>
        </Placemark>
        <Placemark id="621">
            <name>104</name>
            <Point id="620">
                <coordinates>80.0472468546518,12.919742762864166,0.0</coordinates>
            </Point>
        </Placemark>
        <Placemark id="623">
            <name>105</name>
            <Point id="622">
                <coordinates>80.0472389155787,12.919743752201388,0.0</coordinates>
            </Point>
        </Placemark>
        <Placemark id="625">
            <name>106</name>
            <Point id="624">
                <coordinates>80.0288090497133,12.919744402289188,0.0</coordinates>
            </Point>
        </Placemark>
        <Placemark id="627">
            <name>107</name>
            <Point id="626">
                <coordinates>80.02852825089718,12.919529138250079,0.0</coordinates>
            </Point>
        </Placemark>
        <Placemark id="629">
            <name>108</name>
            <Point id="628">
                <coordinates>80.0281836799563,12.919345296049443,0.0</coordinates>
            </Point>
        </Placemark>
        <Placemark id="631">
            <name>109</name>
            <Point id="630">
                <coordinates>80.02783910901543,12.919161453848806,0.0</coordinates>
            </Point>
        </Placemark>
        <Placemark id="633">
            <name>110</name>
            <Point id="632">
                <coordinates>80.02752325231963,12.918992931831557,0.0</coordinates>
            </Point>
        </Placemark>
        <Placemark id="635">
            <name>111</name>
            <Point id="634">
                <coordinates>80.02717868137876,12.91880908963092,0.0</coordinates>
            </Point>
        </Placemark>
        <Placemark id="637">
            <name>112</name>
            <Point id="636">
                <coordinates>80.02683411043789,12.918625247430283,0.0</coordinates>
            </Point>
        </Placemark>
        <Placemark id="639">
            <name>113</name>
            <Point id="638">
                <coordinates>80.02648713885525,12.918547732552788,0.0</coordinates>
            </Point>
        </Placemark>
        <Placemark id="641">
            <name>114</name>
            <Point id="640">
                <coordinates>80.0261172105702,12.918660616268529,0.0</coordinates>
            </Point>
        </Placemark>
        <Placemark id="643">
            <name>115</name>
            <Point id="642">
                <coordinates>80.02586167579587,12.918946068466004,0.0</coordinates>
            </Point>
        </Placemark>
        <Placemark id="645">
            <name>116</name>
            <Point id="644">
                <coordinates>80.0257929616856,12.919288319266126,0.0</coordinates>
            </Point>
        </Placemark>
        <Placemark id="647">
            <name>117</name>
            <Point id="646">
                <coordinates>80.02591909455013,12.919647391271813,0.0</coordinates>
            </Point>
        </Placemark>
        <Placemark id="649">
            <name>118</name>
            <Point id="648">
                <coordinates>80.02621780119028,12.91988924786852,0.0</coordinates>
            </Point>
        </Placemark>
        <Placemark id="651">
            <name>119</name>
            <Point id="650">
                <coordinates>80.02656070313914,12.919994838176954,0.0</coordinates>
            </Point>
        </Placemark>
        <Placemark id="653">
            <name>120</name>
            <Point id="652">
                <coordinates>80.02693682666442,12.920104158092172,0.0</coordinates>
            </Point>
        </Placemark>
        <Placemark id="655">
            <name>121</name>
            <Point id="654">
                <coordinates>80.02731295018971,12.920213478007392,0.0</coordinates>
            </Point>
        </Placemark>
        <Placemark id="657">
            <name>122</name>
            <Point id="656">
                <coordinates>80.02765773008788,12.920313687929676,0.0</coordinates>
            </Point>
        </Placemark>
        <Placemark id="659">
            <name>123</name>
            <Point id="658">
                <coordinates>80.02803385361317,12.920423007844894,0.0</coordinates>
            </Point>
        </Placemark>
        <Placemark id="661">
            <name>124</name>
            <Point id="660">
                <coordinates>80.02840997713844,12.920532327760114,0.0</coordinates>
            </Point>
        </Placemark>
        <Placemark id="663">
            <name>125</name>
            <Point id="662">
                <coordinates>80.02878610066372,12.920641647675332,0.0</coordinates>
            </Point>
        </Placemark>
        <Placemark id="665">
            <name>126</name>
            <Point id="664">
                <coordinates>80.0288090497133,12.920648317792955,0.0</coordinates>
            </Point>
        </Placemark>
        <Placemark id="667">
            <name>127</name>
            <Point id="666">
                <coordinates>80.04723898185416,12.920647667658152,0.0</coordinates>
            </Point>
        </Placemark>
    </Document>
</kml>
