<?xml version="1.0" encoding="UTF-8"?>
<kml xmlns="http://www.opengis.net/kml/2.2" xmlns:gx="http://www.google.com/kml/ext/2.2">
    <Document id="341">
        <Style id="344">
            <LineStyle id="345">
                <color>ffff0000</color>
                <colorMode>normal</colorMode>
                <width>2</width>
            </LineStyle>
        </Style>
        <Placemark id="343">
            <styleUrl>#344</styleUrl>
            <LineString id="342">
                <altitudeMode>clampToGround</altitudeMode>
                <coordinates>80.28290784812486,13.343424036068912,0.0 80.29573979240287,13.343423912136323,0.0 80.29573979240287,13.343423912136323,0.0 80.29669010826503,13.343120007504199,0.0 80.29669010826503,13.343120007504199,0.0 80.2974297155616,13.342631715800023,0.0 80.2974297155616,13.342631715800023,0.0 80.29816492969975,13.342172966889668,0.0 80.29816492969975,13.342172966889668,0.0 80.29931722370677,13.342128267276504,0.0 80.29931722370677,13.342128267276504,0.0 80.29983496981443,13.342621776194393,0.0 80.29983496981443,13.342621776194393,0.0 80.29910635659468,13.343070943609243,0.0 80.29910635659468,13.343070943609243,0.0 80.29801420521757,13.343293183356748,0.0 80.29801420521757,13.343293183356748,0.0 80.29687836778537,13.34352431269415,0.0 80.29687836778537,13.34352431269415,0.0 80.29574253035318,13.343755442031554,0.0 80.29574253035318,13.343755442031554,0.0 80.29573981634763,13.343755994299235,0.0 80.29573981634763,13.343755994299235,0.0 80.28290784812486,13.343756118236156,0.0 80.28290784812486,13.343756118236156,0.0 80.28212471543061,13.343348180082236,0.0 80.28212471543061,13.343348180082236,0.0 80.28130468107602,13.342925171015725,0.0 80.28130468107602,13.342925171015725,0.0 80.28046338698863,13.342514300442701,0.0 80.28046338698863,13.342514300442701,0.0 80.27934725173881,13.342526068337254,0.0 80.27934725173881,13.342526068337254,0.0 80.27889924929043,13.343014431939558,0.0 80.27889924929043,13.343014431939558,0.0 80.27961017359712,13.343444564598792,0.0 80.27961017359712,13.343444564598792,0.0 80.28070860859411,13.343658955702015,0.0 80.28070860859411,13.343658955702015,0.0 80.2818070435911,13.343873346805237,0.0 80.2818070435911,13.343873346805237,0.0 80.28290547858809,13.344087737908461,0.0 80.28290547858809,13.344087737908461,0.0 80.28290784812486,13.344088200391543,0.0 80.28290784812486,13.344088200391543,0.0 80.29573984029328,13.344088076450285,0.0 80.29573984029328,13.344088076450285,0.0 80.29669015668802,13.343784172019003,0.0 80.29669015668802,13.343784172019003,0.0 80.29742976675405,13.343295881359202,0.0 80.29742976675405,13.343295881359202,0.0 80.29816498349409,13.342837133487018,0.0 80.29816498349409,13.342837133487018,0.0 80.29931727775461,13.342792435500964,0.0 80.29931727775461,13.342792435500964,0.0 80.29983502106325,13.343285945149944,0.0 80.29983502106325,13.343285945149944,0.0 80.29910640532684,13.343735111573753,0.0 80.29910640532684,13.343735111573753,0.0 80.29801425307555,13.343957350251708,0.0 80.29801425307555,13.343957350251708,0.0 80.29687841473421,13.344188478476783,0.0 80.29687841473421,13.344188478476783,0.0 80.29574257639287,13.344419606701855,0.0 80.29574257639287,13.344419606701855,0.0 80.29573986423979,13.344420158589482,0.0 80.29573986423979,13.344420158589482,0.0 80.28290784812486,13.34442028253507,0.0 80.28290784812486,13.34442028253507,0.0 80.2821247139732,13.34401234508455,0.0 80.2821247139732,13.34401234508455,0.0 80.28130467796248,13.343589336817354,0.0 80.28130467796248,13.343589336817354,0.0 80.28046338226648,13.343178467064371,0.0 80.28046338226648,13.343178467064371,0.0 80.27934724706273,13.343190236046858,0.0 80.27934724706273,13.343190236046858,0.0 80.27889924652635,13.343678600085846,0.0 80.27889924652635,13.343678600085846,0.0 80.27961017251424,13.344108732055735,0.0 80.27961017251424,13.344108732055735,0.0 80.2807086082797,13.344323122178725,0.0 80.2807086082797,13.344323122178725,0.0 80.28180704404515,13.344537512301713,0.0 80.28180704404515,13.344537512301713,0.0 80.2829054798106,13.344751902424703,0.0 80.2829054798106,13.344751902424703,0.0 80.28290784812486,13.34475236466674,0.0 80.28290784812486,13.34475236466674,0.0 80.2957398881872,13.344752240716817,0.0 80.2957398881872,13.344752240716817,0.0 80.29669020511456,13.34444833648639,0.0 80.29669020511456,13.34444833648639,0.0 80.29742981795023,13.34396004687104,0.0 80.29742981795023,13.34396004687104,0.0 80.29816503729235,13.3435013000371,0.0 80.29816503729235,13.3435013000371,0.0 80.29931733180639,13.343456603678273,0.0 80.29931733180639,13.343456603678273,0.0 80.29983507231577,13.343950114058387,0.0 80.29983507231577,13.343950114058387,0.0 80.29910645406255,13.344399279491087,0.0 80.29910645406255,13.344399279491087,0.0 80.29801430093703,13.34462151709942,0.0 80.29801430093703,13.34462151709942,0.0 80.29687846168649,13.344852644212086,0.0 80.29687846168649,13.344852644212086,0.0 80.29574262243595,13.345083771324752,0.0 80.29574262243595,13.345083771324752,0.0 80.29573991213549,13.3450843228323,0.0 80.29573991213549,13.3450843228323,0.0 80.28290784812486,13.345084446786553,0.0 80.28290784812486,13.345084446786553,0.0 80.28212471251571,13.34467651003948,0.0 80.28212471251571,13.34467651003948,0.0 80.28130467484873,13.344253502571659,0.0 80.28130467484873,13.344253502571659,0.0 80.280463377544,13.343842633638776,0.0 80.280463377544,13.343842633638776,0.0 80.27934724238634,13.343854403709274,0.0 80.27934724238634,13.343854403709274,0.0 80.27889924376211,13.344342768184973,0.0 80.27889924376211,13.344342768184973,0.0 80.2796101714313,13.344772899465466,0.0 80.2796101714313,13.344772899465466,0.0 80.28070860796527,13.344987288608154,0.0 80.28070860796527,13.344987288608154,0.0 80.28180704449923,13.345201677750842,0.0 80.28180704449923,13.345201677750842,0.0 80.2829054810332,13.345416066893529,0.0 80.2829054810332,13.345416066893529,0.0 80.28290784812486,13.345416528894507,0.0 80.28290784812486,13.345416528894507,0.0 80.29573993608464,13.34541640493592,0.0 80.29573993608464,13.34541640493592,0.0 80.29669025354467,13.345112500906362,0.0 80.29669025354467,13.345112500906362,0.0 80.29742986915016,13.344624212335537,0.0 80.29742986915016,13.344624212335537,0.0 80.29816509109453,13.344165466539922,0.0 80.29816509109453,13.344165466539922,0.0 80.29931738586211,13.34412077180843,0.0 80.29931738586211,13.34412077180843,0.0 80.29983512357204,13.344614282919727,0.0 80.29983512357204,13.344614282919727,0.0 80.29910650280183,13.345063447361245,0.0 80.29910650280183,13.345063447361245,0.0 80.29801434880203,13.345285683899878,0.0 80.29801434880203,13.345285683899878,0.0 80.29687850864222,13.345516809900058,0.0 80.29687850864222,13.345516809900058,0.0 80.29574266848243,13.345747935900238,0.0 80.29574266848243,13.345747935900238,0.0 80.29573996003472,13.345748487027683,0.0 80.29573996003472,13.345748487027683,0.0 80.28290784812486,13.345748610990603,0.0 80.28290784812486,13.345748610990603,0.0 80.2821247110581,13.345340674947032,0.0 80.2821247110581,13.345340674947032,0.0 80.28130467173476,13.344917668278644,0.0 80.28130467173476,13.344917668278644,0.0 80.28046337282119,13.344506800165917,0.0 80.28046337282119,13.344506800165917,0.0 80.27934723770962,13.344518571324503,0.0 80.27934723770962,13.344518571324503,0.0 80.27889924099769,13.345006936236942,0.0 80.27889924099769,13.345006936236942,0.0 80.2796101703483,13.34543706682799,0.0 80.2796101703483,13.34543706682799,0.0 80.28070860765082,13.345651454990305,0.0 80.28070860765082,13.345651454990305,0.0 80.28180704495335,13.345865843152621,0.0 80.28180704495335,13.345865843152621,0.0 80.28290548225588,13.346080231314938,0.0 80.28290548225588,13.346080231314938,0.0 80.28290784812486,13.34608069307484,0.0 80.28290784812486,13.34608069307484,0.0 80.29573998398564,13.346080569107588,0.0 80.29573998398564,13.346080569107588,0.0 80.29669030197836,13.345776665278915,0.0 80.29669030197836,13.345776665278915,0.0 80.29742992035386,13.345288377752695,0.0 80.29742992035386,13.345288377752695,0.0 80.29816514490064,13.344829632995475,0.0 80.29816514490064,13.344829632995475,0.0 80.29931743992177,13.344784939891436,0.0 80.29931743992177,13.344784939891436,0.0 80.29983517483205,13.34527845173396,0.0 80.29983517483205,13.34527845173396,0.0 80.2991065515447,13.345727615184222,0.0 80.2991065515447,13.345727615184222,0.0 80.29801439667054,13.345949850653081,0.0 80.29801439667054,13.345949850653081,0.0 80.29687855560142,13.346180975540696,0.0 80.29687855560142,13.346180975540696,0.0 80.2957427145323,13.34641210042831,0.0 80.2957427145323,13.34641210042831,0.0 80.29574000793747,13.346412651175632,0.0 80.29574000793747,13.346412651175632,0.0 80.28290784812486,13.346412775147217,0.0 80.28290784812486,13.346412775147217,0.0 80.28063943628813,13.345238683793687,0.0</coordinates>
            </LineString>
        </Placemark>
        <Placemark id="347">
            <name>0</name>
            <Point id="346">
                <coordinates>80.28290784812486,13.343424036068912,0.0</coordinates>
            </Point>
        </Placemark>
        <Placemark id="349">
            <name>1</name>
            <Point id="348">
                <coordinates>80.29573979240287,13.343423912136323,0.0</coordinates>
            </Point>
        </Placemark>
        <Placemark id="351">
            <name>2</name>
            <Point id="350">
                <coordinates>80.29669010826503,13.343120007504199,0.0</coordinates>
            </Point>
        </Placemark>
        <Placemark id="353">
            <name>3</name>
            <Point id="352">
                <coordinates>80.2974297155616,13.342631715800023,0.0</coordinates>
            </Point>
        </Placemark>
        <Placemark id="355">
            <name>4</name>
            <Point id="354">
                <coordinates>80.29816492969975,13.342172966889668,0.0</coordinates>
            </Point>
        </Placemark>
        <Placemark id="357">
            <name>5</name>
            <Point id="356">
                <coordinates>80.29931722370677,13.342128267276504,0.0</coordinates>
            </Point>
        </Placemark>
        <Placemark id="359">
            <name>6</name>
            <Point id="358">
                <coordinates>80.29983496981443,13.342621776194393,0.0</coordinates>
            </Point>
        </Placemark>
        <Placemark id="361">
            <name>7</name>
            <Point id="360">
                <coordinates>80.29910635659468,13.343070943609243,0.0</coordinates>
            </Point>
        </Placemark>
        <Placemark id="363">
            <name>8</name>
            <Point id="362">
                <coordinates>80.29801420521757,13.343293183356748,0.0</coordinates>
            </Point>
        </Placemark>
        <Placemark id="365">
            <name>9</name>
            <Point id="364">
                <coordinates>80.29687836778537,13.34352431269415,0.0</coordinates>
            </Point>
        </Placemark>
        <Placemark id="367">
            <name>10</name>
            <Point id="366">
                <coordinates>80.29574253035318,13.343755442031554,0.0</coordinates>
            </Point>
        </Placemark>
        <Placemark id="369">
            <name>11</name>
            <Point id="368">
                <coordinates>80.29573981634763,13.343755994299235,0.0</coordinates>
            </Point>
        </Placemark>
        <Placemark id="371">
            <name>12</name>
            <Point id="370">
                <coordinates>80.28290784812486,13.343756118236156,0.0</coordinates>
            </Point>
        </Placemark>
        <Placemark id="373">
            <name>13</name>
            <Point id="372">
                <coordinates>80.28212471543061,13.343348180082236,0.0</coordinates>
            </Point>
        </Placemark>
        <Placemark id="375">
            <name>14</name>
            <Point id="374">
                <coordinates>80.28130468107602,13.342925171015725,0.0</coordinates>
            </Point>
        </Placemark>
        <Placemark id="377">
            <name>15</name>
            <Point id="376">
                <coordinates>80.28046338698863,13.342514300442701,0.0</coordinates>
            </Point>
        </Placemark>
        <Placemark id="379">
            <name>16</name>
            <Point id="378">
                <coordinates>80.27934725173881,13.342526068337254,0.0</coordinates>
            </Point>
        </Placemark>
        <Placemark id="381">
            <name>17</name>
            <Point id="380">
                <coordinates>80.27889924929043,13.343014431939558,0.0</coordinates>
            </Point>
        </Placemark>
        <Placemark id="383">
            <name>18</name>
            <Point id="382">
                <coordinates>80.27961017359712,13.343444564598792,0.0</coordinates>
            </Point>
        </Placemark>
        <Placemark id="385">
            <name>19</name>
            <Point id="384">
                <coordinates>80.28070860859411,13.343658955702015,0.0</coordinates>
            </Point>
        </Placemark>
        <Placemark id="387">
            <name>20</name>
            <Point id="386">
                <coordinates>80.2818070435911,13.343873346805237,0.0</coordinates>
            </Point>
        </Placemark>
        <Placemark id="389">
            <name>21</name>
            <Point id="388">
                <coordinates>80.28290547858809,13.344087737908461,0.0</coordinates>
            </Point>
        </Placemark>
        <Placemark id="391">
            <name>22</name>
            <Point id="390">
                <coordinates>80.28290784812486,13.344088200391543,0.0</coordinates>
            </Point>
        </Placemark>
        <Placemark id="393">
            <name>23</name>
            <Point id="392">
                <coordinates>80.29573984029328,13.344088076450285,0.0</coordinates>
            </Point>
        </Placemark>
        <Placemark id="395">
            <name>24</name>
            <Point id="394">
                <coordinates>80.29669015668802,13.343784172019003,0.0</coordinates>
            </Point>
        </Placemark>
        <Placemark id="397">
            <name>25</name>
            <Point id="396">
                <coordinates>80.29742976675405,13.343295881359202,0.0</coordinates>
            </Point>
        </Placemark>
        <Placemark id="399">
            <name>26</name>
            <Point id="398">
                <coordinates>80.29816498349409,13.342837133487018,0.0</coordinates>
            </Point>
        </Placemark>
        <Placemark id="401">
            <name>27</name>
            <Point id="400">
                <coordinates>80.29931727775461,13.342792435500964,0.0</coordinates>
            </Point>
        </Placemark>
        <Placemark id="403">
            <name>28</name>
            <Point id="402">
                <coordinates>80.29983502106325,13.343285945149944,0.0</coordinates>
            </Point>
        </Placemark>
        <Placemark id="405">
            <name>29</name>
            <Point id="404">
                <coordinates>80.29910640532684,13.343735111573753,0.0</coordinates>
            </Point>
        </Placemark>
        <Placemark id="407">
            <name>30</name>
            <Point id="406">
                <coordinates>80.29801425307555,13.343957350251708,0.0</coordinates>
            </Point>
        </Placemark>
        <Placemark id="409">
            <name>31</name>
            <Point id="408">
                <coordinates>80.29687841473421,13.344188478476783,0.0</coordinates>
            </Point>
        </Placemark>
        <Placemark id="411">
            <name>32</name>
            <Point id="410">
                <coordinates>80.29574257639287,13.344419606701855,0.0</coordinates>
            </Point>
        </Placemark>
        <Placemark id="413">
            <name>33</name>
            <Point id="412">
                <coordinates>80.29573986423979,13.344420158589482,0.0</coordinates>
            </Point>
        </Placemark>
        <Placemark id="415">
            <name>34</name>
            <Point id="414">
                <coordinates>80.28290784812486,13.34442028253507,0.0</coordinates>
            </Point>
        </Placemark>
        <Placemark id="417">
            <name>35</name>
            <Point id="416">
                <coordinates>80.2821247139732,13.34401234508455,0.0</coordinates>
            </Point>
        </Placemark>
        <Placemark id="419">
            <name>36</name>
            <Point id="418">
                <coordinates>80.28130467796248,13.343589336817354,0.0</coordinates>
            </Point>
        </Placemark>
        <Placemark id="421">
            <name>37</name>
            <Point id="420">
                <coordinates>80.28046338226648,13.343178467064371,0.0</coordinates>
            </Point>
        </Placemark>
        <Placemark id="423">
            <name>38</name>
            <Point id="422">
                <coordinates>80.27934724706273,13.343190236046858,0.0</coordinates>
            </Point>
        </Placemark>
        <Placemark id="425">
            <name>39</name>
            <Point id="424">
                <coordinates>80.27889924652635,13.343678600085846,0.0</coordinates>
            </Point>
        </Placemark>
        <Placemark id="427">
            <name>40</name>
            <Point id="426">
                <coordinates>80.27961017251424,13.344108732055735,0.0</coordinates>
            </Point>
        </Placemark>
        <Placemark id="429">
            <name>41</name>
            <Point id="428">
                <coordinates>80.2807086082797,13.344323122178725,0.0</coordinates>
            </Point>
        </Placemark>
        <Placemark id="431">
            <name>42</name>
            <Point id="430">
                <coordinates>80.28180704404515,13.344537512301713,0.0</coordinates>
            </Point>
        </Placemark>
        <Placemark id="433">
            <name>43</name>
            <Point id="432">
                <coordinates>80.2829054798106,13.344751902424703,0.0</coordinates>
            </Point>
        </Placemark>
        <Placemark id="435">
            <name>44</name>
            <Point id="434">
                <coordinates>80.28290784812486,13.34475236466674,0.0</coordinates>
            </Point>
        </Placemark>
        <Placemark id="437">
            <name>45</name>
            <Point id="436">
                <coordinates>80.2957398881872,13.344752240716817,0.0</coordinates>
            </Point>
        </Placemark>
        <Placemark id="439">
            <name>46</name>
            <Point id="438">
                <coordinates>80.29669020511456,13.34444833648639,0.0</coordinates>
            </Point>
        </Placemark>
        <Placemark id="441">
            <name>47</name>
            <Point id="440">
                <coordinates>80.29742981795023,13.34396004687104,0.0</coordinates>
            </Point>
        </Placemark>
        <Placemark id="443">
            <name>48</name>
            <Point id="442">
                <coordinates>80.29816503729235,13.3435013000371,0.0</coordinates>
            </Point>
        </Placemark>
        <Placemark id="445">
            <name>49</name>
            <Point id="444">
                <coordinates>80.29931733180639,13.343456603678273,0.0</coordinates>
            </Point>
        </Placemark>
        <Placemark id="447">
            <name>50</name>
            <Point id="446">
                <coordinates>80.29983507231577,13.343950114058387,0.0</coordinates>
            </Point>
        </Placemark>
        <Placemark id="449">
            <name>51</name>
            <Point id="448">
                <coordinates>80.29910645406255,13.344399279491087,0.0</coordinates>
            </Point>
        </Placemark>
        <Placemark id="451">
            <name>52</name>
            <Point id="450">
                <coordinates>80.29801430093703,13.34462151709942,0.0</coordinates>
            </Point>
        </Placemark>
        <Placemark id="453">
            <name>53</name>
            <Point id="452">
                <coordinates>80.29687846168649,13.344852644212086,0.0</coordinates>
            </Point>
        </Placemark>
        <Placemark id="455">
            <name>54</name>
            <Point id="454">
                <coordinates>80.29574262243595,13.345083771324752,0.0</coordinates>
            </Point>
        </Placemark>
        <Placemark id="457">
            <name>55</name>
            <Point id="456">
                <coordinates>80.29573991213549,13.3450843228323,0.0</coordinates>
            </Point>
        </Placemark>
        <Placemark id="459">
            <name>56</name>
            <Point id="458">
                <coordinates>80.28290784812486,13.345084446786553,0.0</coordinates>
            </Point>
        </Placemark>
        <Placemark id="461">
            <name>57</name>
            <Point id="460">
                <coordinates>80.28212471251571,13.34467651003948,0.0</coordinates>
            </Point>
        </Placemark>
        <Placemark id="463">
            <name>58</name>
            <Point id="462">
                <coordinates>80.28130467484873,13.344253502571659,0.0</coordinates>
            </Point>
        </Placemark>
        <Placemark id="465">
            <name>59</name>
            <Point id="464">
                <coordinates>80.280463377544,13.343842633638776,0.0</coordinates>
            </Point>
        </Placemark>
        <Placemark id="467">
            <name>60</name>
            <Point id="466">
                <coordinates>80.27934724238634,13.343854403709274,0.0</coordinates>
            </Point>
        </Placemark>
        <Placemark id="469">
            <name>61</name>
            <Point id="468">
                <coordinates>80.27889924376211,13.344342768184973,0.0</coordinates>
            </Point>
        </Placemark>
        <Placemark id="471">
            <name>62</name>
            <Point id="470">
                <coordinates>80.2796101714313,13.344772899465466,0.0</coordinates>
            </Point>
        </Placemark>
        <Placemark id="473">
            <name>63</name>
            <Point id="472">
                <coordinates>80.28070860796527,13.344987288608154,0.0</coordinates>
            </Point>
        </Placemark>
        <Placemark id="475">
            <name>64</name>
            <Point id="474">
                <coordinates>80.28180704449923,13.345201677750842,0.0</coordinates>
            </Point>
        </Placemark>
        <Placemark id="477">
            <name>65</name>
            <Point id="476">
                <coordinates>80.2829054810332,13.345416066893529,0.0</coordinates>
            </Point>
        </Placemark>
        <Placemark id="479">
            <name>66</name>
            <Point id="478">
                <coordinates>80.28290784812486,13.345416528894507,0.0</coordinates>
            </Point>
        </Placemark>
        <Placemark id="481">
            <name>67</name>
            <Point id="480">
                <coordinates>80.29573993608464,13.34541640493592,0.0</coordinates>
            </Point>
        </Placemark>
        <Placemark id="483">
            <name>68</name>
            <Point id="482">
                <coordinates>80.29669025354467,13.345112500906362,0.0</coordinates>
            </Point>
        </Placemark>
        <Placemark id="485">
            <name>69</name>
            <Point id="484">
                <coordinates>80.29742986915016,13.344624212335537,0.0</coordinates>
            </Point>
        </Placemark>
        <Placemark id="487">
            <name>70</name>
            <Point id="486">
                <coordinates>80.29816509109453,13.344165466539922,0.0</coordinates>
            </Point>
        </Placemark>
        <Placemark id="489">
            <name>71</name>
            <Point id="488">
                <coordinates>80.29931738586211,13.34412077180843,0.0</coordinates>
            </Point>
        </Placemark>
        <Placemark id="491">
            <name>72</name>
            <Point id="490">
                <coordinates>80.29983512357204,13.344614282919727,0.0</coordinates>
            </Point>
        </Placemark>
        <Placemark id="493">
            <name>73</name>
            <Point id="492">
                <coordinates>80.29910650280183,13.345063447361245,0.0</coordinates>
            </Point>
        </Placemark>
        <Placemark id="495">
            <name>74</name>
            <Point id="494">
                <coordinates>80.29801434880203,13.345285683899878,0.0</coordinates>
            </Point>
        </Placemark>
        <Placemark id="497">
            <name>75</name>
            <Point id="496">
                <coordinates>80.29687850864222,13.345516809900058,0.0</coordinates>
            </Point>
        </Placemark>
        <Placemark id="499">
            <name>76</name>
            <Point id="498">
                <coordinates>80.29574266848243,13.345747935900238,0.0</coordinates>
            </Point>
        </Placemark>
        <Placemark id="501">
            <name>77</name>
            <Point id="500">
                <coordinates>80.29573996003472,13.345748487027683,0.0</coordinates>
            </Point>
        </Placemark>
        <Placemark id="503">
            <name>78</name>
            <Point id="502">
                <coordinates>80.28290784812486,13.345748610990603,0.0</coordinates>
            </Point>
        </Placemark>
        <Placemark id="505">
            <name>79</name>
            <Point id="504">
                <coordinates>80.2821247110581,13.345340674947032,0.0</coordinates>
            </Point>
        </Placemark>
        <Placemark id="507">
            <name>80</name>
            <Point id="506">
                <coordinates>80.28130467173476,13.344917668278644,0.0</coordinates>
            </Point>
        </Placemark>
        <Placemark id="509">
            <name>81</name>
            <Point id="508">
                <coordinates>80.28046337282119,13.344506800165917,0.0</coordinates>
            </Point>
        </Placemark>
        <Placemark id="511">
            <name>82</name>
            <Point id="510">
                <coordinates>80.27934723770962,13.344518571324503,0.0</coordinates>
            </Point>
        </Placemark>
        <Placemark id="513">
            <name>83</name>
            <Point id="512">
                <coordinates>80.27889924099769,13.345006936236942,0.0</coordinates>
            </Point>
        </Placemark>
        <Placemark id="515">
            <name>84</name>
            <Point id="514">
                <coordinates>80.2796101703483,13.34543706682799,0.0</coordinates>
            </Point>
        </Placemark>
        <Placemark id="517">
            <name>85</name>
            <Point id="516">
                <coordinates>80.28070860765082,13.345651454990305,0.0</coordinates>
            </Point>
        </Placemark>
        <Placemark id="519">
            <name>86</name>
            <Point id="518">
                <coordinates>80.28180704495335,13.345865843152621,0.0</coordinates>
            </Point>
        </Placemark>
        <Placemark id="521">
            <name>87</name>
            <Point id="520">
                <coordinates>80.28290548225588,13.346080231314938,0.0</coordinates>
            </Point>
        </Placemark>
        <Placemark id="523">
            <name>88</name>
            <Point id="522">
                <coordinates>80.28290784812486,13.34608069307484,0.0</coordinates>
            </Point>
        </Placemark>
        <Placemark id="525">
            <name>89</name>
            <Point id="524">
                <coordinates>80.29573998398564,13.346080569107588,0.0</coordinates>
            </Point>
        </Placemark>
        <Placemark id="527">
            <name>90</name>
            <Point id="526">
                <coordinates>80.29669030197836,13.345776665278915,0.0</coordinates>
            </Point>
        </Placemark>
        <Placemark id="529">
            <name>91</name>
            <Point id="528">
                <coordinates>80.29742992035386,13.345288377752695,0.0</coordinates>
            </Point>
        </Placemark>
        <Placemark id="531">
            <name>92</name>
            <Point id="530">
                <coordinates>80.29816514490064,13.344829632995475,0.0</coordinates>
            </Point>
        </Placemark>
        <Placemark id="533">
            <name>93</name>
            <Point id="532">
                <coordinates>80.29931743992177,13.344784939891436,0.0</coordinates>
            </Point>
        </Placemark>
        <Placemark id="535">
            <name>94</name>
            <Point id="534">
                <coordinates>80.29983517483205,13.34527845173396,0.0</coordinates>
            </Point>
        </Placemark>
        <Placemark id="537">
            <name>95</name>
            <Point id="536">
                <coordinates>80.2991065515447,13.345727615184222,0.0</coordinates>
            </Point>
        </Placemark>
        <Placemark id="539">
            <name>96</name>
            <Point id="538">
                <coordinates>80.29801439667054,13.345949850653081,0.0</coordinates>
            </Point>
        </Placemark>
        <Placemark id="541">
            <name>97</name>
            <Point id="540">
                <coordinates>80.29687855560142,13.346180975540696,0.0</coordinates>
            </Point>
        </Placemark>
        <Placemark id="543">
            <name>98</name>
            <Point id="542">
                <coordinates>80.2957427145323,13.34641210042831,0.0</coordinates>
            </Point>
        </Placemark>
        <Placemark id="545">
            <name>99</name>
            <Point id="544">
                <coordinates>80.29574000793747,13.346412651175632,0.0</coordinates>
            </Point>
        </Placemark>
        <Placemark id="547">
            <name>100</name>
            <Point id="546">
                <coordinates>80.28290784812486,13.346412775147217,0.0</coordinates>
            </Point>
        </Placemark>
    </Document>
</kml>
