<?xml version="1.0" encoding="UTF-8"?>
<kml xmlns="http://www.opengis.net/kml/2.2" xmlns:gx="http://www.google.com/kml/ext/2.2">
    <Document id="2893">
        <Style id="2896">
            <LineStyle id="2897">
                <color>ffff0000</color>
                <colorMode>normal</colorMode>
                <width>2</width>
            </LineStyle>
        </Style>
        <Placemark id="2895">
            <styleUrl>#2896</styleUrl>
            <LineString id="2894">
                <altitudeMode>clampToGround</altitudeMode>
                <coordinates>80.12500225116261,12.991219083080901,0.0 80.1505634840379,12.99121859955141,0.0 80.1505634840379,12.99121859955141,0.0 80.1515950292735,12.990856566249573,0.0 80.1515950292735,12.990856566249573,0.0 80.15238845612309,12.990328129577184,0.0 80.15238845612309,12.990328129577184,0.0 80.15330918237504,12.989873062629792,0.0 80.15330918237504,12.989873062629792,0.0 80.15446907608049,12.990075764273243,0.0 80.15446907608049,12.990075764273243,0.0 80.15441535779088,12.990693323765395,0.0 80.15441535779088,12.990693323765395,0.0 80.15347006445965,12.991153888204586,0.0 80.15347006445965,12.991153888204586,0.0 80.1525191830582,12.991611738175653,0.0 80.1525191830582,12.991611738175653,0.0 80.15156830165677,12.99206958814672,0.0 80.15156830165677,12.99206958814672,0.0 80.15058346020527,12.992543789902468,0.0 80.15058346020527,12.992543789902468,0.0 80.15056366925346,12.992553319257764,0.0 80.15056366925346,12.992553319257764,0.0 80.12500225116261,12.99255380285671,0.0 80.12500225116261,12.99255380285671,0.0 80.12412415812013,12.992092852154219,0.0 80.12412415812013,12.992092852154219,0.0 80.12324197464348,12.991633763328752,0.0 80.12324197464348,12.991633763328752,0.0 80.12221843065687,12.991238271942047,0.0 80.12221843065687,12.991238271942047,0.0 80.1211383592713,12.99148950967249,0.0 80.1211383592713,12.99148950967249,0.0 80.12125328061819,12.992085725641243,0.0 80.12125328061819,12.992085725641243,0.0 80.12220226031914,12.992544479426794,0.0 80.12220226031914,12.992544479426794,0.0 80.12312053225939,12.992985265508194,0.0 80.12312053225939,12.992985265508194,0.0 80.12403880419966,12.993426051589594,0.0 80.12403880419966,12.993426051589594,0.0 80.12499108621178,12.993883163081415,0.0 80.12499108621178,12.993883163081415,0.0 80.12500225116261,12.993888522446886,0.0 80.12500225116261,12.993888522446886,0.0 80.15056385449695,12.993888038778485,0.0 80.15056385449695,12.993888038778485,0.0 80.15159540302848,12.993526006731074,0.0 80.15159540302848,12.993526006731074,0.0 80.15238884141382,12.992997574449173,0.0 80.15238884141382,12.992997574449173,0.0 80.15330957759987,12.992542512596682,0.0 80.15330957759987,12.992542512596682,0.0 80.15446946688026,12.992745220658435,0.0 80.15446946688026,12.992745220658435,0.0 80.15441573510928,12.993362779853298,0.0 80.15441573510928,12.993362779853298,0.0 80.15347043628967,12.993823341465275,0.0 80.15347043628967,12.993823341465275,0.0 80.152519550007,12.99428118886664,0.0 80.152519550007,12.99428118886664,0.0 80.15156866372432,12.994739036268006,0.0 80.15156866372432,12.994739036268006,0.0 80.15058381721727,12.995213235362277,0.0 80.15058381721727,12.995213235362277,0.0 80.15056403976843,12.995222758113547,0.0 80.15056403976843,12.995222758113547,0.0 80.12500225116261,12.9952232418514,0.0 80.12500225116261,12.9952232418514,0.0 80.1241241517141,12.994762294269242,0.0 80.1241241517141,12.994762294269242,0.0 80.12324196131897,12.994303208813735,0.0 80.12324196131897,12.994303208813735,0.0 80.12221841137229,12.993907721336985,0.0 80.12221841137229,12.993907721336985,0.0 80.12113834377293,12.9941589631933,0.0 80.12113834377293,12.9941589631933,0.0 80.12125327410487,12.994755178723036,0.0 80.12125327410487,12.994755178723036,0.0 80.12220225839143,12.99521393011274,0.0 80.12220225839143,12.99521393011274,0.0 80.12312053455697,12.995654713962876,0.0 80.12312053455697,12.995654713962876,0.0 80.12403881072254,12.996095497813013,0.0 80.12403881072254,12.996095497813013,0.0 80.12499109711645,12.996552606990932,0.0 80.12499109711645,12.996552606990932,0.0 80.12500225116261,12.99655796107023,0.0 80.12500225116261,12.99655796107023,0.0 80.15056422506787,12.99655747726292,0.0 80.15056422506787,12.99655747726292,0.0 80.15159577689623,12.99619544647031,0.0 80.15159577689623,12.99619544647031,0.0 80.15238922682055,12.995667018580216,0.0 80.15238922682055,12.995667018580216,0.0 80.1533099729434,12.995211961824134,0.0 80.1533099729434,12.995211961824134,0.0 80.15446985779732,12.995414676305996,0.0 80.15446985779732,12.995414676305996,0.0 80.15441611254114,12.99603223520341,0.0 80.15441611254114,12.99603223520341,0.0 80.15347080823163,12.996492793987347,0.0 80.15347080823163,12.996492793987347,0.0 80.15251991706636,12.996950638818264,0.0 80.15251991706636,12.996950638818264,0.0 80.15156902590108,12.997408483649183,0.0 80.15156902590108,12.997408483649183,0.0 80.15058417433704,12.997882680081204,0.0 80.15058417433704,12.997882680081204,0.0 80.15056441039529,12.997892196226585,0.0 80.15056441039529,12.997892196226585,0.0 80.12500225116261,12.997892680103355,0.0 80.12500225116261,12.997892680103355,0.0 80.1241241453063,12.997431735642447,0.0 80.1241241453063,12.997431735642447,0.0 80.12324194799073,12.996972653557892,0.0 80.12324194799073,12.996972653557892,0.0 80.12221839208235,12.996577169992243,0.0 80.12221839208235,12.996577169992243,0.0 80.12113832827033,12.996828415975598,0.0 80.12113832827033,12.996828415975598,0.0 80.12125326758988,12.997424631066155,0.0 80.12125326758988,12.997424631066155,0.0 80.12220225646334,12.997883380059312,0.0 80.12220225646334,12.997883380059312,0.0 80.1231205368554,12.998324161677534,0.0 80.1231205368554,12.998324161677534,0.0 80.12403881724745,12.998764943295754,0.0 80.12403881724745,12.998764943295754,0.0 80.12499110802439,12.999222050159096,0.0 80.12499110802439,12.999222050159096,0.0 80.12500225116261,12.999227398950747,0.0 80.12500225116261,12.999227398950747,0.0 80.15056459575068,12.999226915004522,0.0 80.15056459575068,12.999226915004522,0.0 80.15159615087681,12.998864885467091,0.0 80.15159615087681,12.998864885467091,0.0 80.1523896123433,12.998336461970123,0.0 80.1523896123433,12.998336461970123,0.0 80.1533103684057,12.997881410311964,0.0 80.1533103684057,12.997881410311964,0.0 80.15447024883176,12.998084131215746,0.0 80.15447024883176,12.998084131215746,0.0 80.15441649008652,12.998701689815553,0.0 80.15441649008652,12.998701689815553,0.0 80.15347118028555,12.999162245770622,0.0 80.15347118028555,12.999162245770622,0.0 80.1525202842363,12.999620088030342,0.0 80.1525202842363,12.999620088030342,0.0 80.15156938818707,13.000077930290065,0.0 80.15156938818707,13.000077930290065,0.0 80.15058453156463,13.00055212405906,0.0 80.15058453156463,13.00055212405906,0.0 80.15056478113405,13.000561633596696,0.0 80.15056478113405,13.000561633596696,0.0 80.12500225116261,13.000562117612386,0.0 80.12500225116261,13.000562117612386,0.0 80.1241241388967,13.000101176273649,0.0 80.1241241388967,13.000101176273649,0.0 80.1232419346588,12.99964209756104,0.0 80.1232419346588,12.99964209756104,0.0 80.12221837278702,12.999246617907634,0.0 80.12221837278702,12.999246617907634,0.0 80.12113831276352,12.999497868019198,0.0 80.12113831276352,12.999497868019198,0.0 80.12125326107325,13.000094082670417,0.0 80.12125326107325,13.000094082670417,0.0 80.1222022545349,13.000552829266324,0.0 80.1222022545349,13.000552829266324,0.0 80.12312053915464,13.000993608651978,0.0 80.12312053915464,13.000993608651978,0.0 80.12403882377438,13.001434388037632,0.0 80.12403882377438,13.001434388037632,0.0 80.1249911189356,13.001891492585719,0.0 80.1249911189356,13.001891492585719,0.0 80.12500225116261,13.001896836088243,0.0 80.12500225116261,13.001896836088243,0.0 80.1505649665454,13.001896352003094,0.0 80.1505649665454,13.001896352003094,0.0 80.1515965249702,13.001534323721218,0.0 80.1515965249702,13.001534323721218,0.0 80.15238999798204,13.00100590461869,0.0 80.15238999798204,13.00100590461869,0.0 80.15331076398671,13.00055085805996,0.0 80.15331076398671,13.00055085805996,0.0 80.15447063998349,13.00075358538747,0.0 80.15447063998349,13.00075358538747,0.0 80.15441686774535,13.001371143689507,0.0 80.15441686774535,13.001371143689507,0.0 80.15347155245142,13.001831696814888,0.0 80.15347155245142,13.001831696814888,0.0 80.15252065151685,13.00228953650267,0.0 80.15252065151685,13.00228953650267,0.0 80.15156975058228,13.002747376190449,0.0 80.15156975058228,13.002747376190449,0.0 80.15058488890004,13.00322156729565,0.0 80.15058488890004,13.00322156729565,0.0 80.15056515198472,13.003231070223686,0.0 80.15056515198472,13.003231070223686,0.0 80.12500225116261,13.003231554378296,0.0 80.12500225116261,13.003231554378296,0.0 80.12412413248532,13.002770616162653,0.0 80.12412413248532,13.002770616162653,0.0 80.1232419213231,13.002311540822983,0.0 80.1232419213231,13.002311540822983,0.0 80.1222183534863,13.001916065082968,0.0 80.1222183534863,13.001916065082968,0.0 80.12113829725247,13.002167319323915,0.0 80.12113829725247,13.002167319323915,0.0 80.12125325455494,13.002763533535635,0.0 80.12125325455494,13.002763533535635,0.0 80.12220225260609,13.003222277733592,0.0 80.12220225260609,13.003222277733592,0.0 80.12312054145472,13.003663054886024,0.0 80.12312054145472,13.003663054886024,0.0 80.12403883030335,13.004103832038458,0.0 80.12403883030335,13.004103832038458,0.0 80.12499112985007,13.00456093427061,0.0 80.12499112985007,13.00456093427061,0.0 80.12500225116261,13.004566272482524,0.0 80.12500225116261,13.004566272482524,0.0 80.15056533745202,13.004565788258454,0.0 80.15056533745202,13.004565788258454,0.0 80.15282480191787,13.00338604920702,0.0</coordinates>
            </LineString>
        </Placemark>
        <Placemark id="2899">
            <name>0</name>
            <Point id="2898">
                <coordinates>80.12500225116261,12.991219083080901,0.0</coordinates>
            </Point>
        </Placemark>
        <Placemark id="2901">
            <name>1</name>
            <Point id="2900">
                <coordinates>80.1505634840379,12.99121859955141,0.0</coordinates>
            </Point>
        </Placemark>
        <Placemark id="2903">
            <name>2</name>
            <Point id="2902">
                <coordinates>80.1515950292735,12.990856566249573,0.0</coordinates>
            </Point>
        </Placemark>
        <Placemark id="2905">
            <name>3</name>
            <Point id="2904">
                <coordinates>80.15238845612309,12.990328129577184,0.0</coordinates>
            </Point>
        </Placemark>
        <Placemark id="2907">
            <name>4</name>
            <Point id="2906">
                <coordinates>80.15330918237504,12.989873062629792,0.0</coordinates>
            </Point>
        </Placemark>
        <Placemark id="2909">
            <name>5</name>
            <Point id="2908">
                <coordinates>80.15446907608049,12.990075764273243,0.0</coordinates>
            </Point>
        </Placemark>
        <Placemark id="2911">
            <name>6</name>
            <Point id="2910">
                <coordinates>80.15441535779088,12.990693323765395,0.0</coordinates>
            </Point>
        </Placemark>
        <Placemark id="2913">
            <name>7</name>
            <Point id="2912">
                <coordinates>80.15347006445965,12.991153888204586,0.0</coordinates>
            </Point>
        </Placemark>
        <Placemark id="2915">
            <name>8</name>
            <Point id="2914">
                <coordinates>80.1525191830582,12.991611738175653,0.0</coordinates>
            </Point>
        </Placemark>
        <Placemark id="2917">
            <name>9</name>
            <Point id="2916">
                <coordinates>80.15156830165677,12.99206958814672,0.0</coordinates>
            </Point>
        </Placemark>
        <Placemark id="2919">
            <name>10</name>
            <Point id="2918">
                <coordinates>80.15058346020527,12.992543789902468,0.0</coordinates>
            </Point>
        </Placemark>
        <Placemark id="2921">
            <name>11</name>
            <Point id="2920">
                <coordinates>80.15056366925346,12.992553319257764,0.0</coordinates>
            </Point>
        </Placemark>
        <Placemark id="2923">
            <name>12</name>
            <Point id="2922">
                <coordinates>80.12500225116261,12.99255380285671,0.0</coordinates>
            </Point>
        </Placemark>
        <Placemark id="2925">
            <name>13</name>
            <Point id="2924">
                <coordinates>80.12412415812013,12.992092852154219,0.0</coordinates>
            </Point>
        </Placemark>
        <Placemark id="2927">
            <name>14</name>
            <Point id="2926">
                <coordinates>80.12324197464348,12.991633763328752,0.0</coordinates>
            </Point>
        </Placemark>
        <Placemark id="2929">
            <name>15</name>
            <Point id="2928">
                <coordinates>80.12221843065687,12.991238271942047,0.0</coordinates>
            </Point>
        </Placemark>
        <Placemark id="2931">
            <name>16</name>
            <Point id="2930">
                <coordinates>80.1211383592713,12.99148950967249,0.0</coordinates>
            </Point>
        </Placemark>
        <Placemark id="2933">
            <name>17</name>
            <Point id="2932">
                <coordinates>80.12125328061819,12.992085725641243,0.0</coordinates>
            </Point>
        </Placemark>
        <Placemark id="2935">
            <name>18</name>
            <Point id="2934">
                <coordinates>80.12220226031914,12.992544479426794,0.0</coordinates>
            </Point>
        </Placemark>
        <Placemark id="2937">
            <name>19</name>
            <Point id="2936">
                <coordinates>80.12312053225939,12.992985265508194,0.0</coordinates>
            </Point>
        </Placemark>
        <Placemark id="2939">
            <name>20</name>
            <Point id="2938">
                <coordinates>80.12403880419966,12.993426051589594,0.0</coordinates>
            </Point>
        </Placemark>
        <Placemark id="2941">
            <name>21</name>
            <Point id="2940">
                <coordinates>80.12499108621178,12.993883163081415,0.0</coordinates>
            </Point>
        </Placemark>
        <Placemark id="2943">
            <name>22</name>
            <Point id="2942">
                <coordinates>80.12500225116261,12.993888522446886,0.0</coordinates>
            </Point>
        </Placemark>
        <Placemark id="2945">
            <name>23</name>
            <Point id="2944">
                <coordinates>80.15056385449695,12.993888038778485,0.0</coordinates>
            </Point>
        </Placemark>
        <Placemark id="2947">
            <name>24</name>
            <Point id="2946">
                <coordinates>80.15159540302848,12.993526006731074,0.0</coordinates>
            </Point>
        </Placemark>
        <Placemark id="2949">
            <name>25</name>
            <Point id="2948">
                <coordinates>80.15238884141382,12.992997574449173,0.0</coordinates>
            </Point>
        </Placemark>
        <Placemark id="2951">
            <name>26</name>
            <Point id="2950">
                <coordinates>80.15330957759987,12.992542512596682,0.0</coordinates>
            </Point>
        </Placemark>
        <Placemark id="2953">
            <name>27</name>
            <Point id="2952">
                <coordinates>80.15446946688026,12.992745220658435,0.0</coordinates>
            </Point>
        </Placemark>
        <Placemark id="2955">
            <name>28</name>
            <Point id="2954">
                <coordinates>80.15441573510928,12.993362779853298,0.0</coordinates>
            </Point>
        </Placemark>
        <Placemark id="2957">
            <name>29</name>
            <Point id="2956">
                <coordinates>80.15347043628967,12.993823341465275,0.0</coordinates>
            </Point>
        </Placemark>
        <Placemark id="2959">
            <name>30</name>
            <Point id="2958">
                <coordinates>80.152519550007,12.99428118886664,0.0</coordinates>
            </Point>
        </Placemark>
        <Placemark id="2961">
            <name>31</name>
            <Point id="2960">
                <coordinates>80.15156866372432,12.994739036268006,0.0</coordinates>
            </Point>
        </Placemark>
        <Placemark id="2963">
            <name>32</name>
            <Point id="2962">
                <coordinates>80.15058381721727,12.995213235362277,0.0</coordinates>
            </Point>
        </Placemark>
        <Placemark id="2965">
            <name>33</name>
            <Point id="2964">
                <coordinates>80.15056403976843,12.995222758113547,0.0</coordinates>
            </Point>
        </Placemark>
        <Placemark id="2967">
            <name>34</name>
            <Point id="2966">
                <coordinates>80.12500225116261,12.9952232418514,0.0</coordinates>
            </Point>
        </Placemark>
        <Placemark id="2969">
            <name>35</name>
            <Point id="2968">
                <coordinates>80.1241241517141,12.994762294269242,0.0</coordinates>
            </Point>
        </Placemark>
        <Placemark id="2971">
            <name>36</name>
            <Point id="2970">
                <coordinates>80.12324196131897,12.994303208813735,0.0</coordinates>
            </Point>
        </Placemark>
        <Placemark id="2973">
            <name>37</name>
            <Point id="2972">
                <coordinates>80.12221841137229,12.993907721336985,0.0</coordinates>
            </Point>
        </Placemark>
        <Placemark id="2975">
            <name>38</name>
            <Point id="2974">
                <coordinates>80.12113834377293,12.9941589631933,0.0</coordinates>
            </Point>
        </Placemark>
        <Placemark id="2977">
            <name>39</name>
            <Point id="2976">
                <coordinates>80.12125327410487,12.994755178723036,0.0</coordinates>
            </Point>
        </Placemark>
        <Placemark id="2979">
            <name>40</name>
            <Point id="2978">
                <coordinates>80.12220225839143,12.99521393011274,0.0</coordinates>
            </Point>
        </Placemark>
        <Placemark id="2981">
            <name>41</name>
            <Point id="2980">
                <coordinates>80.12312053455697,12.995654713962876,0.0</coordinates>
            </Point>
        </Placemark>
        <Placemark id="2983">
            <name>42</name>
            <Point id="2982">
                <coordinates>80.12403881072254,12.996095497813013,0.0</coordinates>
            </Point>
        </Placemark>
        <Placemark id="2985">
            <name>43</name>
            <Point id="2984">
                <coordinates>80.12499109711645,12.996552606990932,0.0</coordinates>
            </Point>
        </Placemark>
        <Placemark id="2987">
            <name>44</name>
            <Point id="2986">
                <coordinates>80.12500225116261,12.99655796107023,0.0</coordinates>
            </Point>
        </Placemark>
        <Placemark id="2989">
            <name>45</name>
            <Point id="2988">
                <coordinates>80.15056422506787,12.99655747726292,0.0</coordinates>
            </Point>
        </Placemark>
        <Placemark id="2991">
            <name>46</name>
            <Point id="2990">
                <coordinates>80.15159577689623,12.99619544647031,0.0</coordinates>
            </Point>
        </Placemark>
        <Placemark id="2993">
            <name>47</name>
            <Point id="2992">
                <coordinates>80.15238922682055,12.995667018580216,0.0</coordinates>
            </Point>
        </Placemark>
        <Placemark id="2995">
            <name>48</name>
            <Point id="2994">
                <coordinates>80.1533099729434,12.995211961824134,0.0</coordinates>
            </Point>
        </Placemark>
        <Placemark id="2997">
            <name>49</name>
            <Point id="2996">
                <coordinates>80.15446985779732,12.995414676305996,0.0</coordinates>
            </Point>
        </Placemark>
        <Placemark id="2999">
            <name>50</name>
            <Point id="2998">
                <coordinates>80.15441611254114,12.99603223520341,0.0</coordinates>
            </Point>
        </Placemark>
        <Placemark id="3001">
            <name>51</name>
            <Point id="3000">
                <coordinates>80.15347080823163,12.996492793987347,0.0</coordinates>
            </Point>
        </Placemark>
        <Placemark id="3003">
            <name>52</name>
            <Point id="3002">
                <coordinates>80.15251991706636,12.996950638818264,0.0</coordinates>
            </Point>
        </Placemark>
        <Placemark id="3005">
            <name>53</name>
            <Point id="3004">
                <coordinates>80.15156902590108,12.997408483649183,0.0</coordinates>
            </Point>
        </Placemark>
        <Placemark id="3007">
            <name>54</name>
            <Point id="3006">
                <coordinates>80.15058417433704,12.997882680081204,0.0</coordinates>
            </Point>
        </Placemark>
        <Placemark id="3009">
            <name>55</name>
            <Point id="3008">
                <coordinates>80.15056441039529,12.997892196226585,0.0</coordinates>
            </Point>
        </Placemark>
        <Placemark id="3011">
            <name>56</name>
            <Point id="3010">
                <coordinates>80.12500225116261,12.997892680103355,0.0</coordinates>
            </Point>
        </Placemark>
        <Placemark id="3013">
            <name>57</name>
            <Point id="3012">
                <coordinates>80.1241241453063,12.997431735642447,0.0</coordinates>
            </Point>
        </Placemark>
        <Placemark id="3015">
            <name>58</name>
            <Point id="3014">
                <coordinates>80.12324194799073,12.996972653557892,0.0</coordinates>
            </Point>
        </Placemark>
        <Placemark id="3017">
            <name>59</name>
            <Point id="3016">
                <coordinates>80.12221839208235,12.996577169992243,0.0</coordinates>
            </Point>
        </Placemark>
        <Placemark id="3019">
            <name>60</name>
            <Point id="3018">
                <coordinates>80.12113832827033,12.996828415975598,0.0</coordinates>
            </Point>
        </Placemark>
        <Placemark id="3021">
            <name>61</name>
            <Point id="3020">
                <coordinates>80.12125326758988,12.997424631066155,0.0</coordinates>
            </Point>
        </Placemark>
        <Placemark id="3023">
            <name>62</name>
            <Point id="3022">
                <coordinates>80.12220225646334,12.997883380059312,0.0</coordinates>
            </Point>
        </Placemark>
        <Placemark id="3025">
            <name>63</name>
            <Point id="3024">
                <coordinates>80.1231205368554,12.998324161677534,0.0</coordinates>
            </Point>
        </Placemark>
        <Placemark id="3027">
            <name>64</name>
            <Point id="3026">
                <coordinates>80.12403881724745,12.998764943295754,0.0</coordinates>
            </Point>
        </Placemark>
        <Placemark id="3029">
            <name>65</name>
            <Point id="3028">
                <coordinates>80.12499110802439,12.999222050159096,0.0</coordinates>
            </Point>
        </Placemark>
        <Placemark id="3031">
            <name>66</name>
            <Point id="3030">
                <coordinates>80.12500225116261,12.999227398950747,0.0</coordinates>
            </Point>
        </Placemark>
        <Placemark id="3033">
            <name>67</name>
            <Point id="3032">
                <coordinates>80.15056459575068,12.999226915004522,0.0</coordinates>
            </Point>
        </Placemark>
        <Placemark id="3035">
            <name>68</name>
            <Point id="3034">
                <coordinates>80.15159615087681,12.998864885467091,0.0</coordinates>
            </Point>
        </Placemark>
        <Placemark id="3037">
            <name>69</name>
            <Point id="3036">
                <coordinates>80.1523896123433,12.998336461970123,0.0</coordinates>
            </Point>
        </Placemark>
        <Placemark id="3039">
            <name>70</name>
            <Point id="3038">
                <coordinates>80.1533103684057,12.997881410311964,0.0</coordinates>
            </Point>
        </Placemark>
        <Placemark id="3041">
            <name>71</name>
            <Point id="3040">
                <coordinates>80.15447024883176,12.998084131215746,0.0</coordinates>
            </Point>
        </Placemark>
        <Placemark id="3043">
            <name>72</name>
            <Point id="3042">
                <coordinates>80.15441649008652,12.998701689815553,0.0</coordinates>
            </Point>
        </Placemark>
        <Placemark id="3045">
            <name>73</name>
            <Point id="3044">
                <coordinates>80.15347118028555,12.999162245770622,0.0</coordinates>
            </Point>
        </Placemark>
        <Placemark id="3047">
            <name>74</name>
            <Point id="3046">
                <coordinates>80.1525202842363,12.999620088030342,0.0</coordinates>
            </Point>
        </Placemark>
        <Placemark id="3049">
            <name>75</name>
            <Point id="3048">
                <coordinates>80.15156938818707,13.000077930290065,0.0</coordinates>
            </Point>
        </Placemark>
        <Placemark id="3051">
            <name>76</name>
            <Point id="3050">
                <coordinates>80.15058453156463,13.00055212405906,0.0</coordinates>
            </Point>
        </Placemark>
        <Placemark id="3053">
            <name>77</name>
            <Point id="3052">
                <coordinates>80.15056478113405,13.000561633596696,0.0</coordinates>
            </Point>
        </Placemark>
        <Placemark id="3055">
            <name>78</name>
            <Point id="3054">
                <coordinates>80.12500225116261,13.000562117612386,0.0</coordinates>
            </Point>
        </Placemark>
        <Placemark id="3057">
            <name>79</name>
            <Point id="3056">
                <coordinates>80.1241241388967,13.000101176273649,0.0</coordinates>
            </Point>
        </Placemark>
        <Placemark id="3059">
            <name>80</name>
            <Point id="3058">
                <coordinates>80.1232419346588,12.99964209756104,0.0</coordinates>
            </Point>
        </Placemark>
        <Placemark id="3061">
            <name>81</name>
            <Point id="3060">
                <coordinates>80.12221837278702,12.999246617907634,0.0</coordinates>
            </Point>
        </Placemark>
        <Placemark id="3063">
            <name>82</name>
            <Point id="3062">
                <coordinates>80.12113831276352,12.999497868019198,0.0</coordinates>
            </Point>
        </Placemark>
        <Placemark id="3065">
            <name>83</name>
            <Point id="3064">
                <coordinates>80.12125326107325,13.000094082670417,0.0</coordinates>
            </Point>
        </Placemark>
        <Placemark id="3067">
            <name>84</name>
            <Point id="3066">
                <coordinates>80.1222022545349,13.000552829266324,0.0</coordinates>
            </Point>
        </Placemark>
        <Placemark id="3069">
            <name>85</name>
            <Point id="3068">
                <coordinates>80.12312053915464,13.000993608651978,0.0</coordinates>
            </Point>
        </Placemark>
        <Placemark id="3071">
            <name>86</name>
            <Point id="3070">
                <coordinates>80.12403882377438,13.001434388037632,0.0</coordinates>
            </Point>
        </Placemark>
        <Placemark id="3073">
            <name>87</name>
            <Point id="3072">
                <coordinates>80.1249911189356,13.001891492585719,0.0</coordinates>
            </Point>
        </Placemark>
        <Placemark id="3075">
            <name>88</name>
            <Point id="3074">
                <coordinates>80.12500225116261,13.001896836088243,0.0</coordinates>
            </Point>
        </Placemark>
        <Placemark id="3077">
            <name>89</name>
            <Point id="3076">
                <coordinates>80.1505649665454,13.001896352003094,0.0</coordinates>
            </Point>
        </Placemark>
        <Placemark id="3079">
            <name>90</name>
            <Point id="3078">
                <coordinates>80.1515965249702,13.001534323721218,0.0</coordinates>
            </Point>
        </Placemark>
        <Placemark id="3081">
            <name>91</name>
            <Point id="3080">
                <coordinates>80.15238999798204,13.00100590461869,0.0</coordinates>
            </Point>
        </Placemark>
        <Placemark id="3083">
            <name>92</name>
            <Point id="3082">
                <coordinates>80.15331076398671,13.00055085805996,0.0</coordinates>
            </Point>
        </Placemark>
        <Placemark id="3085">
            <name>93</name>
            <Point id="3084">
                <coordinates>80.15447063998349,13.00075358538747,0.0</coordinates>
            </Point>
        </Placemark>
        <Placemark id="3087">
            <name>94</name>
            <Point id="3086">
                <coordinates>80.15441686774535,13.001371143689507,0.0</coordinates>
            </Point>
        </Placemark>
        <Placemark id="3089">
            <name>95</name>
            <Point id="3088">
                <coordinates>80.15347155245142,13.001831696814888,0.0</coordinates>
            </Point>
        </Placemark>
        <Placemark id="3091">
            <name>96</name>
            <Point id="3090">
                <coordinates>80.15252065151685,13.00228953650267,0.0</coordinates>
            </Point>
        </Placemark>
        <Placemark id="3093">
            <name>97</name>
            <Point id="3092">
                <coordinates>80.15156975058228,13.002747376190449,0.0</coordinates>
            </Point>
        </Placemark>
        <Placemark id="3095">
            <name>98</name>
            <Point id="3094">
                <coordinates>80.15058488890004,13.00322156729565,0.0</coordinates>
            </Point>
        </Placemark>
        <Placemark id="3097">
            <name>99</name>
            <Point id="3096">
                <coordinates>80.15056515198472,13.003231070223686,0.0</coordinates>
            </Point>
        </Placemark>
        <Placemark id="3099">
            <name>100</name>
            <Point id="3098">
                <coordinates>80.12500225116261,13.003231554378296,0.0</coordinates>
            </Point>
        </Placemark>
        <Placemark id="3101">
            <name>101</name>
            <Point id="3100">
                <coordinates>80.12412413248532,13.002770616162653,0.0</coordinates>
            </Point>
        </Placemark>
        <Placemark id="3103">
            <name>102</name>
            <Point id="3102">
                <coordinates>80.1232419213231,13.002311540822983,0.0</coordinates>
            </Point>
        </Placemark>
        <Placemark id="3105">
            <name>103</name>
            <Point id="3104">
                <coordinates>80.1222183534863,13.001916065082968,0.0</coordinates>
            </Point>
        </Placemark>
        <Placemark id="3107">
            <name>104</name>
            <Point id="3106">
                <coordinates>80.12113829725247,13.002167319323915,0.0</coordinates>
            </Point>
        </Placemark>
        <Placemark id="3109">
            <name>105</name>
            <Point id="3108">
                <coordinates>80.12125325455494,13.002763533535635,0.0</coordinates>
            </Point>
        </Placemark>
        <Placemark id="3111">
            <name>106</name>
            <Point id="3110">
                <coordinates>80.12220225260609,13.003222277733592,0.0</coordinates>
            </Point>
        </Placemark>
        <Placemark id="3113">
            <name>107</name>
            <Point id="3112">
                <coordinates>80.12312054145472,13.003663054886024,0.0</coordinates>
            </Point>
        </Placemark>
        <Placemark id="3115">
            <name>108</name>
            <Point id="3114">
                <coordinates>80.12403883030335,13.004103832038458,0.0</coordinates>
            </Point>
        </Placemark>
        <Placemark id="3117">
            <name>109</name>
            <Point id="3116">
                <coordinates>80.12499112985007,13.00456093427061,0.0</coordinates>
            </Point>
        </Placemark>
        <Placemark id="3119">
            <name>110</name>
            <Point id="3118">
                <coordinates>80.12500225116261,13.004566272482524,0.0</coordinates>
            </Point>
        </Placemark>
        <Placemark id="3121">
            <name>111</name>
            <Point id="3120">
                <coordinates>80.15056533745202,13.004565788258454,0.0</coordinates>
            </Point>
        </Placemark>
    </Document>
</kml>
