<?xml version="1.0" encoding="UTF-8"?>
<kml xmlns="http://www.opengis.net/kml/2.2" xmlns:gx="http://www.google.com/kml/ext/2.2">
    <Document id="3159">
        <Style id="3162">
            <LineStyle id="3163">
                <color>ffff0000</color>
                <colorMode>normal</colorMode>
                <width>2</width>
            </LineStyle>
        </Style>
        <Placemark id="3161">
            <styleUrl>#3162</styleUrl>
            <LineString id="3160">
                <altitudeMode>clampToGround</altitudeMode>
                <coordinates>80.16929825889014,12.997030376032061,0.0 80.19486029838761,12.997029892200164,0.0 80.19486029838761,12.997029892200164,0.0 80.19589185079953,12.996667861629659,0.0 80.19589185079953,12.996667861629659,0.0 80.19668530276624,12.996139434516929,0.0 80.19668530276624,12.996139434516929,0.0 80.19760605064792,12.995684378662924,0.0 80.19760605064792,12.995684378662924,0.0 80.19876593471834,12.995887094281153,0.0 80.19876593471834,12.995887094281153,0.0 80.19871218707526,12.99650465312591,0.0 80.19871218707526,12.99650465312591,0.0 80.19776688179402,12.996965211409277,0.0 80.19776688179402,12.996965211409277,0.0 80.19681598976452,12.99742305578522,0.0 80.19681598976452,12.99742305578522,0.0 80.19586509773502,12.997880900161164,0.0 80.19586509773502,12.997880900161164,0.0 80.1948802452759,12.998355096121962,0.0 80.1948802452759,12.998355096121962,0.0 80.19486048372494,12.998364611098095,0.0 80.19486048372494,12.998364611098095,0.0 80.16929825889014,12.99836509499945,0.0 80.16929825889014,12.99836509499945,0.0 80.16842015189964,12.99790415109101,0.0 80.16842015189964,12.99790415109101,0.0 80.16753795335916,12.997445069603122,0.0 80.16753795335916,12.997445069603122,0.0 80.16651439639554,12.997049586729743,0.0 80.16651439639554,12.997049586729743,0.0 80.1654343332539,12.997300833443589,0.0 80.1654343332539,12.997300833443589,0.0 80.16554927416426,12.997897048456407,0.0 80.16554927416426,12.997897048456407,0.0 80.1664982638496,12.99835579702537,0.0 80.1664982638496,12.99835579702537,0.0 80.16741654498975,12.99879657824854,0.0 80.16741654498975,12.99879657824854,0.0 80.16833482612991,12.999237359471707,0.0 80.16833482612991,12.999237359471707,0.0 80.16928711768264,12.999694465925364,0.0 80.16928711768264,12.999694465925364,0.0 80.16929825889014,12.999699813781099,0.0 80.16929825889014,12.999699813781099,0.0 80.19486066909022,12.999699329810285,0.0 80.19486066909022,12.999699329810285,0.0 80.19589222480006,12.999337300495025,0.0 80.19589222480006,12.999337300495025,0.0 80.1966856883095,12.998808877775652,0.0 80.1966856883095,12.998808877775652,0.0 80.19760644613122,12.998353827019837,0.0 80.19760644613122,12.998353827019837,0.0 80.1987663257735,12.998556549060307,0.0 80.1987663257735,12.998556549060307,0.0 80.19871256464069,12.999174107607429,0.0 80.19871256464069,12.999174107607429,0.0 80.19776725386774,12.999634663061784,0.0 80.19776725386774,12.999634663061784,0.0 80.19681635695403,13.0000925048664,0.0 80.19681635695403,13.0000925048664,0.0 80.19586546004032,13.000550346671016,0.0 80.19586546004032,13.000550346671016,0.0 80.19488060252256,13.001024539968654,0.0 80.19488060252256,13.001024539968654,0.0 80.1948608544835,13.001034048336713,0.0 80.1948608544835,13.001034048336713,0.0 80.16929825889014,13.001034532376984,0.0 80.16929825889014,13.001034532376984,0.0 80.16842014548973,13.000573591590879,0.0 80.16842014548973,13.000573591590879,0.0 80.16753794002655,13.000114513475113,0.0 80.16753794002655,13.000114513475113,0.0 80.16651437709926,12.999719034514182,0.0 80.16651437709926,12.999719034514182,0.0 80.16543431774633,12.999970285356445,0.0 80.16543431774633,12.999970285356445,0.0 80.16554926764734,13.000566499929898,0.0 80.16554926764734,13.000566499929898,0.0 80.1664982619211,13.001025246101486,0.0 80.1664982619211,13.001025246101486,0.0 80.16741654728915,13.001466025091972,0.0 80.16741654728915,13.001466025091972,0.0 80.1683348326572,13.001906804082456,0.0 80.1683348326572,13.001906804082456,0.0 80.16928712859443,13.002363908220737,0.0 80.16928712859443,13.002363908220737,0.0 80.16929825889014,13.002369250787082,0.0 80.16929825889014,13.002369250787082,0.0 80.19486103990475,13.002368766677346,0.0 80.19486103990475,13.002368766677346,0.0 80.19712047739145,13.00118902735645,0.0</coordinates>
            </LineString>
        </Placemark>
        <Placemark id="3165">
            <name>0</name>
            <Point id="3164">
                <coordinates>80.16929825889014,12.997030376032061,0.0</coordinates>
            </Point>
        </Placemark>
        <Placemark id="3167">
            <name>1</name>
            <Point id="3166">
                <coordinates>80.19486029838761,12.997029892200164,0.0</coordinates>
            </Point>
        </Placemark>
        <Placemark id="3169">
            <name>2</name>
            <Point id="3168">
                <coordinates>80.19589185079953,12.996667861629659,0.0</coordinates>
            </Point>
        </Placemark>
        <Placemark id="3171">
            <name>3</name>
            <Point id="3170">
                <coordinates>80.19668530276624,12.996139434516929,0.0</coordinates>
            </Point>
        </Placemark>
        <Placemark id="3173">
            <name>4</name>
            <Point id="3172">
                <coordinates>80.19760605064792,12.995684378662924,0.0</coordinates>
            </Point>
        </Placemark>
        <Placemark id="3175">
            <name>5</name>
            <Point id="3174">
                <coordinates>80.19876593471834,12.995887094281153,0.0</coordinates>
            </Point>
        </Placemark>
        <Placemark id="3177">
            <name>6</name>
            <Point id="3176">
                <coordinates>80.19871218707526,12.99650465312591,0.0</coordinates>
            </Point>
        </Placemark>
        <Placemark id="3179">
            <name>7</name>
            <Point id="3178">
                <coordinates>80.19776688179402,12.996965211409277,0.0</coordinates>
            </Point>
        </Placemark>
        <Placemark id="3181">
            <name>8</name>
            <Point id="3180">
                <coordinates>80.19681598976452,12.99742305578522,0.0</coordinates>
            </Point>
        </Placemark>
        <Placemark id="3183">
            <name>9</name>
            <Point id="3182">
                <coordinates>80.19586509773502,12.997880900161164,0.0</coordinates>
            </Point>
        </Placemark>
        <Placemark id="3185">
            <name>10</name>
            <Point id="3184">
                <coordinates>80.1948802452759,12.998355096121962,0.0</coordinates>
            </Point>
        </Placemark>
        <Placemark id="3187">
            <name>11</name>
            <Point id="3186">
                <coordinates>80.19486048372494,12.998364611098095,0.0</coordinates>
            </Point>
        </Placemark>
        <Placemark id="3189">
            <name>12</name>
            <Point id="3188">
                <coordinates>80.16929825889014,12.99836509499945,0.0</coordinates>
            </Point>
        </Placemark>
        <Placemark id="3191">
            <name>13</name>
            <Point id="3190">
                <coordinates>80.16842015189964,12.99790415109101,0.0</coordinates>
            </Point>
        </Placemark>
        <Placemark id="3193">
            <name>14</name>
            <Point id="3192">
                <coordinates>80.16753795335916,12.997445069603122,0.0</coordinates>
            </Point>
        </Placemark>
        <Placemark id="3195">
            <name>15</name>
            <Point id="3194">
                <coordinates>80.16651439639554,12.997049586729743,0.0</coordinates>
            </Point>
        </Placemark>
        <Placemark id="3197">
            <name>16</name>
            <Point id="3196">
                <coordinates>80.1654343332539,12.997300833443589,0.0</coordinates>
            </Point>
        </Placemark>
        <Placemark id="3199">
            <name>17</name>
            <Point id="3198">
                <coordinates>80.16554927416426,12.997897048456407,0.0</coordinates>
            </Point>
        </Placemark>
        <Placemark id="3201">
            <name>18</name>
            <Point id="3200">
                <coordinates>80.1664982638496,12.99835579702537,0.0</coordinates>
            </Point>
        </Placemark>
        <Placemark id="3203">
            <name>19</name>
            <Point id="3202">
                <coordinates>80.16741654498975,12.99879657824854,0.0</coordinates>
            </Point>
        </Placemark>
        <Placemark id="3205">
            <name>20</name>
            <Point id="3204">
                <coordinates>80.16833482612991,12.999237359471707,0.0</coordinates>
            </Point>
        </Placemark>
        <Placemark id="3207">
            <name>21</name>
            <Point id="3206">
                <coordinates>80.16928711768264,12.999694465925364,0.0</coordinates>
            </Point>
        </Placemark>
        <Placemark id="3209">
            <name>22</name>
            <Point id="3208">
                <coordinates>80.16929825889014,12.999699813781099,0.0</coordinates>
            </Point>
        </Placemark>
        <Placemark id="3211">
            <name>23</name>
            <Point id="3210">
                <coordinates>80.19486066909022,12.999699329810285,0.0</coordinates>
            </Point>
        </Placemark>
        <Placemark id="3213">
            <name>24</name>
            <Point id="3212">
                <coordinates>80.19589222480006,12.999337300495025,0.0</coordinates>
            </Point>
        </Placemark>
        <Placemark id="3215">
            <name>25</name>
            <Point id="3214">
                <coordinates>80.1966856883095,12.998808877775652,0.0</coordinates>
            </Point>
        </Placemark>
        <Placemark id="3217">
            <name>26</name>
            <Point id="3216">
                <coordinates>80.19760644613122,12.998353827019837,0.0</coordinates>
            </Point>
        </Placemark>
        <Placemark id="3219">
            <name>27</name>
            <Point id="3218">
                <coordinates>80.1987663257735,12.998556549060307,0.0</coordinates>
            </Point>
        </Placemark>
        <Placemark id="3221">
            <name>28</name>
            <Point id="3220">
                <coordinates>80.19871256464069,12.999174107607429,0.0</coordinates>
            </Point>
        </Placemark>
        <Placemark id="3223">
            <name>29</name>
            <Point id="3222">
                <coordinates>80.19776725386774,12.999634663061784,0.0</coordinates>
            </Point>
        </Placemark>
        <Placemark id="3225">
            <name>30</name>
            <Point id="3224">
                <coordinates>80.19681635695403,13.0000925048664,0.0</coordinates>
            </Point>
        </Placemark>
        <Placemark id="3227">
            <name>31</name>
            <Point id="3226">
                <coordinates>80.19586546004032,13.000550346671016,0.0</coordinates>
            </Point>
        </Placemark>
        <Placemark id="3229">
            <name>32</name>
            <Point id="3228">
                <coordinates>80.19488060252256,13.001024539968654,0.0</coordinates>
            </Point>
        </Placemark>
        <Placemark id="3231">
            <name>33</name>
            <Point id="3230">
                <coordinates>80.1948608544835,13.001034048336713,0.0</coordinates>
            </Point>
        </Placemark>
        <Placemark id="3233">
            <name>34</name>
            <Point id="3232">
                <coordinates>80.16929825889014,13.001034532376984,0.0</coordinates>
            </Point>
        </Placemark>
        <Placemark id="3235">
            <name>35</name>
            <Point id="3234">
                <coordinates>80.16842014548973,13.000573591590879,0.0</coordinates>
            </Point>
        </Placemark>
        <Placemark id="3237">
            <name>36</name>
            <Point id="3236">
                <coordinates>80.16753794002655,13.000114513475113,0.0</coordinates>
            </Point>
        </Placemark>
        <Placemark id="3239">
            <name>37</name>
            <Point id="3238">
                <coordinates>80.16651437709926,12.999719034514182,0.0</coordinates>
            </Point>
        </Placemark>
        <Placemark id="3241">
            <name>38</name>
            <Point id="3240">
                <coordinates>80.16543431774633,12.999970285356445,0.0</coordinates>
            </Point>
        </Placemark>
        <Placemark id="3243">
            <name>39</name>
            <Point id="3242">
                <coordinates>80.16554926764734,13.000566499929898,0.0</coordinates>
            </Point>
        </Placemark>
        <Placemark id="3245">
            <name>40</name>
            <Point id="3244">
                <coordinates>80.1664982619211,13.001025246101486,0.0</coordinates>
            </Point>
        </Placemark>
        <Placemark id="3247">
            <name>41</name>
            <Point id="3246">
                <coordinates>80.16741654728915,13.001466025091972,0.0</coordinates>
            </Point>
        </Placemark>
        <Placemark id="3249">
            <name>42</name>
            <Point id="3248">
                <coordinates>80.1683348326572,13.001906804082456,0.0</coordinates>
            </Point>
        </Placemark>
        <Placemark id="3251">
            <name>43</name>
            <Point id="3250">
                <coordinates>80.16928712859443,13.002363908220737,0.0</coordinates>
            </Point>
        </Placemark>
        <Placemark id="3253">
            <name>44</name>
            <Point id="3252">
                <coordinates>80.16929825889014,13.002369250787082,0.0</coordinates>
            </Point>
        </Placemark>
        <Placemark id="3255">
            <name>45</name>
            <Point id="3254">
                <coordinates>80.19486103990475,13.002368766677346,0.0</coordinates>
            </Point>
        </Placemark>
    </Document>
</kml>
