<?xml version="1.0" encoding="UTF-8"?>
<kml xmlns="http://www.opengis.net/kml/2.2" xmlns:gx="http://www.google.com/kml/ext/2.2">
    <Document id="1019">
        <Style id="1022">
            <LineStyle id="1023">
                <color>ffff0000</color>
                <colorMode>normal</colorMode>
                <width>2</width>
            </LineStyle>
        </Style>
        <Placemark id="1021">
            <styleUrl>#1022</styleUrl>
            <LineString id="1020">
                <altitudeMode>clampToGround</altitudeMode>
                <coordinates>80.1902273413071,12.990498321081807,0.0 80.20939094070796,12.99049804849667,0.0 80.20939094070796,12.99049804849667,0.0 80.21042182053492,12.990135721834012,0.0 80.21042182053492,12.990135721834012,0.0 80.21121496544319,12.989606922452841,0.0 80.21121496544319,12.989606922452841,0.0 80.21213527633641,12.989151576772356,0.0 80.21213527633641,12.989151576772356,0.0 80.2132942141264,12.989354624831341,0.0 80.2132942141264,12.989354624831341,0.0 80.2132401905396,12.989972731864489,0.0 80.2132401905396,12.989972731864489,0.0 80.21229542904425,12.990433630145011,0.0 80.21229542904425,12.990433630145011,0.0 80.2113450972558,12.990891817163508,0.0 80.2113450972558,12.990891817163508,0.0 80.21039476546736,12.991350004182005,0.0 80.21039476546736,12.991350004182005,0.0 80.20941049325789,12.991824555022593,0.0 80.20941049325789,12.991824555022593,0.0 80.20939107975329,12.991833914928153,0.0 80.20939107975329,12.991833914928153,0.0 80.1902273413071,12.991834187552396,0.0 80.1902273413071,12.991834187552396,0.0 80.1893497196438,12.991372903811508,0.0 80.1893497196438,12.991372903811508,0.0 80.18846799718301,12.990913490128971,0.0 80.18846799718301,12.990913490128971,0.0 80.18744504187825,12.990517745132301,0.0 80.18744504187825,12.990517745132301,0.0 80.18636585389129,12.990769316261561,0.0 80.18636585389129,12.990769316261561,0.0 80.18648092555595,12.991366056758157,0.0 80.18648092555595,12.991366056758157,0.0 80.18742934534349,12.99182515502364,0.0 80.18742934534349,12.99182515502364,0.0 80.18834707070656,12.992266273512657,0.0 80.18834707070656,12.992266273512657,0.0 80.18926479606961,12.992707392001671,0.0 80.18926479606961,12.992707392001671,0.0 80.19021651126093,12.993164848212503,0.0 80.19021651126093,12.993164848212503,0.0 80.1902273413071,12.993170053836964,0.0 80.1902273413071,12.993170053836964,0.0 80.20939121881959,12.993169781173615,0.0 80.20939121881959,12.993169781173615,0.0 80.2104221019437,12.992807455768626,0.0 80.2104221019437,12.992807455768626,0.0 80.21121525839206,12.992278660789301,0.0 80.21121525839206,12.992278660789301,0.0 80.21213557922236,12.991823320216406,0.0 80.21213557922236,12.991823320216406,0.0 80.2132945125811,12.992026374707281,0.0 80.2132945125811,12.992026374707281,0.0 80.21324047550519,12.99264448144057,0.0 80.21324047550519,12.99264448144057,0.0 80.21229570851766,12.993105376886279,0.0 80.21229570851766,12.993105376886279,0.0 80.21134537184413,12.993563561328065,0.0 80.21134537184413,12.993563561328065,0.0 80.21039503517062,12.994021745769853,0.0 80.21039503517062,12.994021745769853,0.0 80.20941075790161,12.994496293941703,0.0 80.20941075790161,12.994496293941703,0.0 80.20939135790685,12.994505647233034,0.0 80.20939135790685,12.994505647233034,0.0 80.1902273413071,12.994505919935492,0.0 80.1902273413071,12.994505919935492,0.0 80.18796885477815,12.993325166186397,0.0</coordinates>
            </LineString>
        </Placemark>
        <Placemark id="1025">
            <name>0</name>
            <Point id="1024">
                <coordinates>80.1902273413071,12.990498321081807,0.0</coordinates>
            </Point>
        </Placemark>
        <Placemark id="1027">
            <name>1</name>
            <Point id="1026">
                <coordinates>80.20939094070796,12.99049804849667,0.0</coordinates>
            </Point>
        </Placemark>
        <Placemark id="1029">
            <name>2</name>
            <Point id="1028">
                <coordinates>80.21042182053492,12.990135721834012,0.0</coordinates>
            </Point>
        </Placemark>
        <Placemark id="1031">
            <name>3</name>
            <Point id="1030">
                <coordinates>80.21121496544319,12.989606922452841,0.0</coordinates>
            </Point>
        </Placemark>
        <Placemark id="1033">
            <name>4</name>
            <Point id="1032">
                <coordinates>80.21213527633641,12.989151576772356,0.0</coordinates>
            </Point>
        </Placemark>
        <Placemark id="1035">
            <name>5</name>
            <Point id="1034">
                <coordinates>80.2132942141264,12.989354624831341,0.0</coordinates>
            </Point>
        </Placemark>
        <Placemark id="1037">
            <name>6</name>
            <Point id="1036">
                <coordinates>80.2132401905396,12.989972731864489,0.0</coordinates>
            </Point>
        </Placemark>
        <Placemark id="1039">
            <name>7</name>
            <Point id="1038">
                <coordinates>80.21229542904425,12.990433630145011,0.0</coordinates>
            </Point>
        </Placemark>
        <Placemark id="1041">
            <name>8</name>
            <Point id="1040">
                <coordinates>80.2113450972558,12.990891817163508,0.0</coordinates>
            </Point>
        </Placemark>
        <Placemark id="1043">
            <name>9</name>
            <Point id="1042">
                <coordinates>80.21039476546736,12.991350004182005,0.0</coordinates>
            </Point>
        </Placemark>
        <Placemark id="1045">
            <name>10</name>
            <Point id="1044">
                <coordinates>80.20941049325789,12.991824555022593,0.0</coordinates>
            </Point>
        </Placemark>
        <Placemark id="1047">
            <name>11</name>
            <Point id="1046">
                <coordinates>80.20939107975329,12.991833914928153,0.0</coordinates>
            </Point>
        </Placemark>
        <Placemark id="1049">
            <name>12</name>
            <Point id="1048">
                <coordinates>80.1902273413071,12.991834187552396,0.0</coordinates>
            </Point>
        </Placemark>
        <Placemark id="1051">
            <name>13</name>
            <Point id="1050">
                <coordinates>80.1893497196438,12.991372903811508,0.0</coordinates>
            </Point>
        </Placemark>
        <Placemark id="1053">
            <name>14</name>
            <Point id="1052">
                <coordinates>80.18846799718301,12.990913490128971,0.0</coordinates>
            </Point>
        </Placemark>
        <Placemark id="1055">
            <name>15</name>
            <Point id="1054">
                <coordinates>80.18744504187825,12.990517745132301,0.0</coordinates>
            </Point>
        </Placemark>
        <Placemark id="1057">
            <name>16</name>
            <Point id="1056">
                <coordinates>80.18636585389129,12.990769316261561,0.0</coordinates>
            </Point>
        </Placemark>
        <Placemark id="1059">
            <name>17</name>
            <Point id="1058">
                <coordinates>80.18648092555595,12.991366056758157,0.0</coordinates>
            </Point>
        </Placemark>
        <Placemark id="1061">
            <name>18</name>
            <Point id="1060">
                <coordinates>80.18742934534349,12.99182515502364,0.0</coordinates>
            </Point>
        </Placemark>
        <Placemark id="1063">
            <name>19</name>
            <Point id="1062">
                <coordinates>80.18834707070656,12.992266273512657,0.0</coordinates>
            </Point>
        </Placemark>
        <Placemark id="1065">
            <name>20</name>
            <Point id="1064">
                <coordinates>80.18926479606961,12.992707392001671,0.0</coordinates>
            </Point>
        </Placemark>
        <Placemark id="1067">
            <name>21</name>
            <Point id="1066">
                <coordinates>80.19021651126093,12.993164848212503,0.0</coordinates>
            </Point>
        </Placemark>
        <Placemark id="1069">
            <name>22</name>
            <Point id="1068">
                <coordinates>80.1902273413071,12.993170053836964,0.0</coordinates>
            </Point>
        </Placemark>
        <Placemark id="1071">
            <name>23</name>
            <Point id="1070">
                <coordinates>80.20939121881959,12.993169781173615,0.0</coordinates>
            </Point>
        </Placemark>
        <Placemark id="1073">
            <name>24</name>
            <Point id="1072">
                <coordinates>80.2104221019437,12.992807455768626,0.0</coordinates>
            </Point>
        </Placemark>
        <Placemark id="1075">
            <name>25</name>
            <Point id="1074">
                <coordinates>80.21121525839206,12.992278660789301,0.0</coordinates>
            </Point>
        </Placemark>
        <Placemark id="1077">
            <name>26</name>
            <Point id="1076">
                <coordinates>80.21213557922236,12.991823320216406,0.0</coordinates>
            </Point>
        </Placemark>
        <Placemark id="1079">
            <name>27</name>
            <Point id="1078">
                <coordinates>80.2132945125811,12.992026374707281,0.0</coordinates>
            </Point>
        </Placemark>
        <Placemark id="1081">
            <name>28</name>
            <Point id="1080">
                <coordinates>80.21324047550519,12.99264448144057,0.0</coordinates>
            </Point>
        </Placemark>
        <Placemark id="1083">
            <name>29</name>
            <Point id="1082">
                <coordinates>80.21229570851766,12.993105376886279,0.0</coordinates>
            </Point>
        </Placemark>
        <Placemark id="1085">
            <name>30</name>
            <Point id="1084">
                <coordinates>80.21134537184413,12.993563561328065,0.0</coordinates>
            </Point>
        </Placemark>
        <Placemark id="1087">
            <name>31</name>
            <Point id="1086">
                <coordinates>80.21039503517062,12.994021745769853,0.0</coordinates>
            </Point>
        </Placemark>
        <Placemark id="1089">
            <name>32</name>
            <Point id="1088">
                <coordinates>80.20941075790161,12.994496293941703,0.0</coordinates>
            </Point>
        </Placemark>
        <Placemark id="1091">
            <name>33</name>
            <Point id="1090">
                <coordinates>80.20939135790685,12.994505647233034,0.0</coordinates>
            </Point>
        </Placemark>
        <Placemark id="1093">
            <name>34</name>
            <Point id="1092">
                <coordinates>80.1902273413071,12.994505919935492,0.0</coordinates>
            </Point>
        </Placemark>
    </Document>
</kml>
