<?xml version="1.0" encoding="UTF-8"?>
<kml xmlns="http://www.opengis.net/kml/2.2" xmlns:gx="http://www.google.com/kml/ext/2.2">
    <Document id="889">
        <Style id="892">
            <LineStyle id="893">
                <color>ffff0000</color>
                <colorMode>normal</colorMode>
                <width>2</width>
            </LineStyle>
        </Style>
        <Placemark id="891">
            <styleUrl>#892</styleUrl>
            <LineString id="890">
                <altitudeMode>clampToGround</altitudeMode>
                <coordinates>80.3068563181006,13.340116743338571,0.0 80.33251972977321,13.340116247780823,0.0 80.33251972977321,13.340116247780823,0.0 80.33349848888763,13.33979356149853,0.0 80.33349848888763,13.33979356149853,0.0 80.33423808239458,13.339305264594312,0.0 80.33423808239458,13.339305264594312,0.0 80.33502126307566,13.338837698664802,0.0 80.33502126307566,13.338837698664802,0.0 80.33617692321553,13.33884569078518,0.0 80.33617692321553,13.33884569078518,0.0 80.3365809932694,13.339406595296616,0.0 80.3365809932694,13.339406595296616,0.0 80.33573619813703,13.33982315985831,0.0 80.33573619813703,13.33982315985831,0.0 80.3346827090423,13.340136697850681,0.0 80.3346827090423,13.340136697850681,0.0 80.33362921994755,13.340450235843052,0.0 80.33362921994755,13.340450235843052,0.0 80.33253521204148,13.340775832988976,0.0 80.33253521204148,13.340775832988976,0.0 80.33251982551883,13.34078041230493,0.0 80.33251982551883,13.34078041230493,0.0 80.3068563181006,13.340780907897337,0.0 80.3068563181006,13.340780907897337,0.0 80.30604039085627,13.340356046087216,0.0 80.30604039085627,13.340356046087216,0.0 80.30522036391919,13.33993303344077,0.0 80.30522036391919,13.33993303344077,0.0 80.30432930977744,13.339516316031277,0.0 80.30432930977744,13.339516316031277,0.0 80.30321999265365,13.339578895075045,0.0 80.30321999265365,13.339578895075045,0.0 80.30288719772678,13.340131159521679,0.0 80.30288719772678,13.340131159521679,0.0 80.30371114091045,13.340527228142275,0.0 80.30371114091045,13.340527228142275,0.0 80.3047699991728,13.34083623044208,0.0 80.3047699991728,13.34083623044208,0.0 80.30578813211737,13.341133348038044,0.0 80.30578813211737,13.341133348038044,0.0 80.30684699037973,13.341442350337848,0.0 80.30684699037973,13.341442350337848,0.0 80.3068563181006,13.341445072408689,0.0 80.3068563181006,13.341445072408689,0.0 80.33251992127154,13.341444576781619,0.0 80.33251992127154,13.341444576781619,0.0 80.33349868166377,13.341121890981185,0.0 80.33349868166377,13.341121890981185,0.0 80.33423828070795,13.340633596165032,0.0 80.33423828070795,13.340633596165032,0.0 80.33502146669119,13.340166032446641,0.0 80.33502146669119,13.340166032446641,0.0 80.33617712674042,13.340174027829732,0.0 80.33617712674042,13.340174027829732,0.0 80.33658119043366,13.340734933481949,0.0 80.33658119043366,13.340734933481949,0.0 80.33573639103908,13.341151496044702,0.0 80.33573639103908,13.341151496044702,0.0 80.33468289972232,13.341465032178291,0.0 80.33468289972232,13.341465032178291,0.0 80.33362940840556,13.34177856831188,0.0 80.33362940840556,13.34177856831188,0.0 80.33253539819201,13.342104163527532,0.0 80.33253539819201,13.342104163527532,0.0 80.33252001703126,13.342108741210891,0.0 80.33252001703126,13.342108741210891,0.0 80.3068563181006,13.342109236872625,0.0 80.3068563181006,13.342109236872625,0.0 80.3060403878098,13.341684376532825,0.0 80.3060403878098,13.341684376532825,0.0 80.30522035756134,13.341261365484554,0.0 80.30522035756134,13.341261365484554,0.0 80.30432930015749,13.340844649811661,0.0 80.30432930015749,13.340844649811661,0.0 80.30321998352358,13.340907231017406,0.0 80.30321998352358,13.340907231017406,0.0 80.3028871929199,13.341459496112627,0.0 80.3028871929199,13.341459496112627,0.0 80.303711139056,13.3418555632537,0.0 80.303711139056,13.3418555632537,0.0 80.30476999930963,13.342164563854686,0.0 80.30476999930963,13.342164563854686,0.0 80.30578813416888,13.342461679817173,0.0 80.30578813416888,13.342461679817173,0.0 80.30684699442251,13.342770680418159,0.0 80.30684699442251,13.342770680418159,0.0 80.3068563181006,13.342773401289138,0.0 80.3068563181006,13.342773401289138,0.0 80.33252011279808,13.342772905592742,0.0 80.33252011279808,13.342772905592742,0.0 80.33349887446832,13.34245022027424,0.0 80.33349887446832,13.34245022027424,0.0 80.33423847905048,13.341961927546455,0.0 80.33423847905048,13.341961927546455,0.0 80.33502167033659,13.341494366039507,0.0 80.33502167033659,13.341494366039507,0.0 80.33617733029511,13.341502364685766,0.0 80.33617733029511,13.341502364685766,0.0 80.33658138762684,13.342063271478905,0.0 80.33658138762684,13.342063271478905,0.0 80.33573658396946,13.342479832042425,0.0 80.33573658396946,13.342479832042425,0.0 80.33468309043039,13.342793366316972,0.0 80.33468309043039,13.342793366316972,0.0 80.33362959689133,13.34310690059152,0.0 80.33362959689133,13.34310690059152,0.0 80.33253558436998,13.343432493876627,0.0 80.33253558436998,13.343432493876627,0.0 80.33252020857195,13.343437069927168,0.0 80.33252020857195,13.343437069927168,0.0 80.3068563181006,13.34343756565823,0.0 80.3068563181006,13.34343756565823,0.0 80.30604038476291,13.343012706788961,0.0 80.30604038476291,13.343012706788961,0.0 80.30522035120262,13.342589697339095,0.0 80.30522035120262,13.342589697339095,0.0 80.30432929053623,13.342172983403055,0.0 80.30432929053623,13.342172983403055,0.0 80.30321997439229,13.342235566771075,0.0 80.30321997439229,13.342235566771075,0.0 80.3028871881124,13.342787832514968,0.0 80.3028871881124,13.342787832514968,0.0 80.30371113720135,13.343183898176306,0.0 80.30371113720135,13.343183898176306,0.0 80.3047699994465,13.343492897078232,0.0 80.3047699994465,13.343492897078232,0.0 80.30578813622071,13.343790011407007,0.0 80.30578813622071,13.343790011407007,0.0 80.30684699846587,13.344099010308934,0.0 80.30684699846587,13.344099010308934,0.0 80.3068563181006,13.344101729979892,0.0 80.3068563181006,13.344101729979892,0.0 80.33252030435287,13.344101234214168,0.0 80.33252030435287,13.344101234214168,0.0 80.33349906730128,13.343778549377667,0.0 80.33349906730128,13.343778549377667,0.0 80.33423867742216,13.343290258738556,0.0 80.33423867742216,13.343290258738556,0.0 80.33502187401183,13.342822699443367,0.0 80.33502187401183,13.342822699443367,0.0 80.33617753387962,13.342830701353243,0.0 80.33617753387962,13.342830701353243,0.0 80.33658158484893,13.34339160928744,0.0 80.33658158484893,13.34339160928744,0.0 80.3357367769282,13.343808167851444,0.0 80.3357367769282,13.343808167851444,0.0 80.33468328116652,13.344121700266687,0.0 80.33468328116652,13.344121700266687,0.0 80.33362978540484,13.34443523268193,0.0 80.33362978540484,13.34443523268193,0.0 80.3325357705754,13.344760824036221,0.0 80.3325357705754,13.344760824036221,0.0 80.33252040014087,13.344765398453736,0.0 80.33252040014087,13.344765398453736,0.0 80.3068563181006,13.344765894254127,0.0 80.3068563181006,13.344765894254127,0.0 80.30604038171562,13.344341036855607,0.0 80.30604038171562,13.344341036855607,0.0 80.30522034484304,13.343918029004376,0.0 80.30522034484304,13.343918029004376,0.0 80.30432928091366,13.343501316805437,0.0 80.30432928091366,13.343501316805437,0.0 80.30321996525977,13.34356390233604,0.0 80.30321996525977,13.34356390233604,0.0 80.30288718330429,13.344116168728686,0.0 80.30288718330429,13.344116168728686,0.0 80.30371113534648,13.344512232910072,0.0 80.30371113534648,13.344512232910072,0.0 80.30476999958346,13.344821230112695,0.0 80.30476999958346,13.344821230112695,0.0 80.30578813827286,13.345118342807526,0.0 80.30578813827286,13.345118342807526,0.0 80.30684700250984,13.345427340010147,0.0 80.30684700250984,13.345427340010147,0.0 80.3068563181006,13.345430058480927,0.0 80.3068563181006,13.345430058480927,0.0 80.33252049593592,13.345429562645876,0.0 80.33252049593592,13.345429562645876,0.0 80.33349926016267,13.345106878291446,0.0 80.33349926016267,13.345106878291446,0.0 80.33423887582305,13.344618589741316,0.0 80.33423887582305,13.344618589741316,0.0 80.335022077717,13.344151032658218,0.0 80.335022077717,13.344151032658218,0.0 80.33617773749398,13.344159037832169,0.0 80.33617773749398,13.344159037832169,0.0 80.33658178209997,13.34471994690757,0.0 80.33658178209997,13.34471994690757,0.0 80.33573696991532,13.34513650347176,0.0 80.33573696991532,13.34513650347176,0.0 80.33468347193073,13.345450034027433,0.0 80.33468347193073,13.345450034027433,0.0 80.33362997394615,13.345763564583105,0.0 80.33362997394615,13.345763564583105,0.0 80.3325359568083,13.346089154006304,0.0 80.3325359568083,13.346089154006304,0.0 80.33252059173805,13.346093726790574,0.0 80.33252059173805,13.346093726790574,0.0 80.3068563181006,13.346094222660293,0.0 80.3068563181006,13.346094222660293,0.0 80.30458791032497,13.344920131266669,0.0</coordinates>
            </LineString>
        </Placemark>
        <Placemark id="895">
            <name>0</name>
            <Point id="894">
                <coordinates>80.3068563181006,13.340116743338571,0.0</coordinates>
            </Point>
        </Placemark>
        <Placemark id="897">
            <name>1</name>
            <Point id="896">
                <coordinates>80.33251972977321,13.340116247780823,0.0</coordinates>
            </Point>
        </Placemark>
        <Placemark id="899">
            <name>2</name>
            <Point id="898">
                <coordinates>80.33349848888763,13.33979356149853,0.0</coordinates>
            </Point>
        </Placemark>
        <Placemark id="901">
            <name>3</name>
            <Point id="900">
                <coordinates>80.33423808239458,13.339305264594312,0.0</coordinates>
            </Point>
        </Placemark>
        <Placemark id="903">
            <name>4</name>
            <Point id="902">
                <coordinates>80.33502126307566,13.338837698664802,0.0</coordinates>
            </Point>
        </Placemark>
        <Placemark id="905">
            <name>5</name>
            <Point id="904">
                <coordinates>80.33617692321553,13.33884569078518,0.0</coordinates>
            </Point>
        </Placemark>
        <Placemark id="907">
            <name>6</name>
            <Point id="906">
                <coordinates>80.3365809932694,13.339406595296616,0.0</coordinates>
            </Point>
        </Placemark>
        <Placemark id="909">
            <name>7</name>
            <Point id="908">
                <coordinates>80.33573619813703,13.33982315985831,0.0</coordinates>
            </Point>
        </Placemark>
        <Placemark id="911">
            <name>8</name>
            <Point id="910">
                <coordinates>80.3346827090423,13.340136697850681,0.0</coordinates>
            </Point>
        </Placemark>
        <Placemark id="913">
            <name>9</name>
            <Point id="912">
                <coordinates>80.33362921994755,13.340450235843052,0.0</coordinates>
            </Point>
        </Placemark>
        <Placemark id="915">
            <name>10</name>
            <Point id="914">
                <coordinates>80.33253521204148,13.340775832988976,0.0</coordinates>
            </Point>
        </Placemark>
        <Placemark id="917">
            <name>11</name>
            <Point id="916">
                <coordinates>80.33251982551883,13.34078041230493,0.0</coordinates>
            </Point>
        </Placemark>
        <Placemark id="919">
            <name>12</name>
            <Point id="918">
                <coordinates>80.3068563181006,13.340780907897337,0.0</coordinates>
            </Point>
        </Placemark>
        <Placemark id="921">
            <name>13</name>
            <Point id="920">
                <coordinates>80.30604039085627,13.340356046087216,0.0</coordinates>
            </Point>
        </Placemark>
        <Placemark id="923">
            <name>14</name>
            <Point id="922">
                <coordinates>80.30522036391919,13.33993303344077,0.0</coordinates>
            </Point>
        </Placemark>
        <Placemark id="925">
            <name>15</name>
            <Point id="924">
                <coordinates>80.30432930977744,13.339516316031277,0.0</coordinates>
            </Point>
        </Placemark>
        <Placemark id="927">
            <name>16</name>
            <Point id="926">
                <coordinates>80.30321999265365,13.339578895075045,0.0</coordinates>
            </Point>
        </Placemark>
        <Placemark id="929">
            <name>17</name>
            <Point id="928">
                <coordinates>80.30288719772678,13.340131159521679,0.0</coordinates>
            </Point>
        </Placemark>
        <Placemark id="931">
            <name>18</name>
            <Point id="930">
                <coordinates>80.30371114091045,13.340527228142275,0.0</coordinates>
            </Point>
        </Placemark>
        <Placemark id="933">
            <name>19</name>
            <Point id="932">
                <coordinates>80.3047699991728,13.34083623044208,0.0</coordinates>
            </Point>
        </Placemark>
        <Placemark id="935">
            <name>20</name>
            <Point id="934">
                <coordinates>80.30578813211737,13.341133348038044,0.0</coordinates>
            </Point>
        </Placemark>
        <Placemark id="937">
            <name>21</name>
            <Point id="936">
                <coordinates>80.30684699037973,13.341442350337848,0.0</coordinates>
            </Point>
        </Placemark>
        <Placemark id="939">
            <name>22</name>
            <Point id="938">
                <coordinates>80.3068563181006,13.341445072408689,0.0</coordinates>
            </Point>
        </Placemark>
        <Placemark id="941">
            <name>23</name>
            <Point id="940">
                <coordinates>80.33251992127154,13.341444576781619,0.0</coordinates>
            </Point>
        </Placemark>
        <Placemark id="943">
            <name>24</name>
            <Point id="942">
                <coordinates>80.33349868166377,13.341121890981185,0.0</coordinates>
            </Point>
        </Placemark>
        <Placemark id="945">
            <name>25</name>
            <Point id="944">
                <coordinates>80.33423828070795,13.340633596165032,0.0</coordinates>
            </Point>
        </Placemark>
        <Placemark id="947">
            <name>26</name>
            <Point id="946">
                <coordinates>80.33502146669119,13.340166032446641,0.0</coordinates>
            </Point>
        </Placemark>
        <Placemark id="949">
            <name>27</name>
            <Point id="948">
                <coordinates>80.33617712674042,13.340174027829732,0.0</coordinates>
            </Point>
        </Placemark>
        <Placemark id="951">
            <name>28</name>
            <Point id="950">
                <coordinates>80.33658119043366,13.340734933481949,0.0</coordinates>
            </Point>
        </Placemark>
        <Placemark id="953">
            <name>29</name>
            <Point id="952">
                <coordinates>80.33573639103908,13.341151496044702,0.0</coordinates>
            </Point>
        </Placemark>
        <Placemark id="955">
            <name>30</name>
            <Point id="954">
                <coordinates>80.33468289972232,13.341465032178291,0.0</coordinates>
            </Point>
        </Placemark>
        <Placemark id="957">
            <name>31</name>
            <Point id="956">
                <coordinates>80.33362940840556,13.34177856831188,0.0</coordinates>
            </Point>
        </Placemark>
        <Placemark id="959">
            <name>32</name>
            <Point id="958">
                <coordinates>80.33253539819201,13.342104163527532,0.0</coordinates>
            </Point>
        </Placemark>
        <Placemark id="961">
            <name>33</name>
            <Point id="960">
                <coordinates>80.33252001703126,13.342108741210891,0.0</coordinates>
            </Point>
        </Placemark>
        <Placemark id="963">
            <name>34</name>
            <Point id="962">
                <coordinates>80.3068563181006,13.342109236872625,0.0</coordinates>
            </Point>
        </Placemark>
        <Placemark id="965">
            <name>35</name>
            <Point id="964">
                <coordinates>80.3060403878098,13.341684376532825,0.0</coordinates>
            </Point>
        </Placemark>
        <Placemark id="967">
            <name>36</name>
            <Point id="966">
                <coordinates>80.30522035756134,13.341261365484554,0.0</coordinates>
            </Point>
        </Placemark>
        <Placemark id="969">
            <name>37</name>
            <Point id="968">
                <coordinates>80.30432930015749,13.340844649811661,0.0</coordinates>
            </Point>
        </Placemark>
        <Placemark id="971">
            <name>38</name>
            <Point id="970">
                <coordinates>80.30321998352358,13.340907231017406,0.0</coordinates>
            </Point>
        </Placemark>
        <Placemark id="973">
            <name>39</name>
            <Point id="972">
                <coordinates>80.3028871929199,13.341459496112627,0.0</coordinates>
            </Point>
        </Placemark>
        <Placemark id="975">
            <name>40</name>
            <Point id="974">
                <coordinates>80.303711139056,13.3418555632537,0.0</coordinates>
            </Point>
        </Placemark>
        <Placemark id="977">
            <name>41</name>
            <Point id="976">
                <coordinates>80.30476999930963,13.342164563854686,0.0</coordinates>
            </Point>
        </Placemark>
        <Placemark id="979">
            <name>42</name>
            <Point id="978">
                <coordinates>80.30578813416888,13.342461679817173,0.0</coordinates>
            </Point>
        </Placemark>
        <Placemark id="981">
            <name>43</name>
            <Point id="980">
                <coordinates>80.30684699442251,13.342770680418159,0.0</coordinates>
            </Point>
        </Placemark>
        <Placemark id="983">
            <name>44</name>
            <Point id="982">
                <coordinates>80.3068563181006,13.342773401289138,0.0</coordinates>
            </Point>
        </Placemark>
        <Placemark id="985">
            <name>45</name>
            <Point id="984">
                <coordinates>80.33252011279808,13.342772905592742,0.0</coordinates>
            </Point>
        </Placemark>
        <Placemark id="987">
            <name>46</name>
            <Point id="986">
                <coordinates>80.33349887446832,13.34245022027424,0.0</coordinates>
            </Point>
        </Placemark>
        <Placemark id="989">
            <name>47</name>
            <Point id="988">
                <coordinates>80.33423847905048,13.341961927546455,0.0</coordinates>
            </Point>
        </Placemark>
        <Placemark id="991">
            <name>48</name>
            <Point id="990">
                <coordinates>80.33502167033659,13.341494366039507,0.0</coordinates>
            </Point>
        </Placemark>
        <Placemark id="993">
            <name>49</name>
            <Point id="992">
                <coordinates>80.33617733029511,13.341502364685766,0.0</coordinates>
            </Point>
        </Placemark>
        <Placemark id="995">
            <name>50</name>
            <Point id="994">
                <coordinates>80.33658138762684,13.342063271478905,0.0</coordinates>
            </Point>
        </Placemark>
        <Placemark id="997">
            <name>51</name>
            <Point id="996">
                <coordinates>80.33573658396946,13.342479832042425,0.0</coordinates>
            </Point>
        </Placemark>
        <Placemark id="999">
            <name>52</name>
            <Point id="998">
                <coordinates>80.33468309043039,13.342793366316972,0.0</coordinates>
            </Point>
        </Placemark>
        <Placemark id="1001">
            <name>53</name>
            <Point id="1000">
                <coordinates>80.33362959689133,13.34310690059152,0.0</coordinates>
            </Point>
        </Placemark>
        <Placemark id="1003">
            <name>54</name>
            <Point id="1002">
                <coordinates>80.33253558436998,13.343432493876627,0.0</coordinates>
            </Point>
        </Placemark>
        <Placemark id="1005">
            <name>55</name>
            <Point id="1004">
                <coordinates>80.33252020857195,13.343437069927168,0.0</coordinates>
            </Point>
        </Placemark>
        <Placemark id="1007">
            <name>56</name>
            <Point id="1006">
                <coordinates>80.3068563181006,13.34343756565823,0.0</coordinates>
            </Point>
        </Placemark>
        <Placemark id="1009">
            <name>57</name>
            <Point id="1008">
                <coordinates>80.30604038476291,13.343012706788961,0.0</coordinates>
            </Point>
        </Placemark>
        <Placemark id="1011">
            <name>58</name>
            <Point id="1010">
                <coordinates>80.30522035120262,13.342589697339095,0.0</coordinates>
            </Point>
        </Placemark>
        <Placemark id="1013">
            <name>59</name>
            <Point id="1012">
                <coordinates>80.30432929053623,13.342172983403055,0.0</coordinates>
            </Point>
        </Placemark>
        <Placemark id="1015">
            <name>60</name>
            <Point id="1014">
                <coordinates>80.30321997439229,13.342235566771075,0.0</coordinates>
            </Point>
        </Placemark>
        <Placemark id="1017">
            <name>61</name>
            <Point id="1016">
                <coordinates>80.3028871881124,13.342787832514968,0.0</coordinates>
            </Point>
        </Placemark>
        <Placemark id="1019">
            <name>62</name>
            <Point id="1018">
                <coordinates>80.30371113720135,13.343183898176306,0.0</coordinates>
            </Point>
        </Placemark>
        <Placemark id="1021">
            <name>63</name>
            <Point id="1020">
                <coordinates>80.3047699994465,13.343492897078232,0.0</coordinates>
            </Point>
        </Placemark>
        <Placemark id="1023">
            <name>64</name>
            <Point id="1022">
                <coordinates>80.30578813622071,13.343790011407007,0.0</coordinates>
            </Point>
        </Placemark>
        <Placemark id="1025">
            <name>65</name>
            <Point id="1024">
                <coordinates>80.30684699846587,13.344099010308934,0.0</coordinates>
            </Point>
        </Placemark>
        <Placemark id="1027">
            <name>66</name>
            <Point id="1026">
                <coordinates>80.3068563181006,13.344101729979892,0.0</coordinates>
            </Point>
        </Placemark>
        <Placemark id="1029">
            <name>67</name>
            <Point id="1028">
                <coordinates>80.33252030435287,13.344101234214168,0.0</coordinates>
            </Point>
        </Placemark>
        <Placemark id="1031">
            <name>68</name>
            <Point id="1030">
                <coordinates>80.33349906730128,13.343778549377667,0.0</coordinates>
            </Point>
        </Placemark>
        <Placemark id="1033">
            <name>69</name>
            <Point id="1032">
                <coordinates>80.33423867742216,13.343290258738556,0.0</coordinates>
            </Point>
        </Placemark>
        <Placemark id="1035">
            <name>70</name>
            <Point id="1034">
                <coordinates>80.33502187401183,13.342822699443367,0.0</coordinates>
            </Point>
        </Placemark>
        <Placemark id="1037">
            <name>71</name>
            <Point id="1036">
                <coordinates>80.33617753387962,13.342830701353243,0.0</coordinates>
            </Point>
        </Placemark>
        <Placemark id="1039">
            <name>72</name>
            <Point id="1038">
                <coordinates>80.33658158484893,13.34339160928744,0.0</coordinates>
            </Point>
        </Placemark>
        <Placemark id="1041">
            <name>73</name>
            <Point id="1040">
                <coordinates>80.3357367769282,13.343808167851444,0.0</coordinates>
            </Point>
        </Placemark>
        <Placemark id="1043">
            <name>74</name>
            <Point id="1042">
                <coordinates>80.33468328116652,13.344121700266687,0.0</coordinates>
            </Point>
        </Placemark>
        <Placemark id="1045">
            <name>75</name>
            <Point id="1044">
                <coordinates>80.33362978540484,13.34443523268193,0.0</coordinates>
            </Point>
        </Placemark>
        <Placemark id="1047">
            <name>76</name>
            <Point id="1046">
                <coordinates>80.3325357705754,13.344760824036221,0.0</coordinates>
            </Point>
        </Placemark>
        <Placemark id="1049">
            <name>77</name>
            <Point id="1048">
                <coordinates>80.33252040014087,13.344765398453736,0.0</coordinates>
            </Point>
        </Placemark>
        <Placemark id="1051">
            <name>78</name>
            <Point id="1050">
                <coordinates>80.3068563181006,13.344765894254127,0.0</coordinates>
            </Point>
        </Placemark>
        <Placemark id="1053">
            <name>79</name>
            <Point id="1052">
                <coordinates>80.30604038171562,13.344341036855607,0.0</coordinates>
            </Point>
        </Placemark>
        <Placemark id="1055">
            <name>80</name>
            <Point id="1054">
                <coordinates>80.30522034484304,13.343918029004376,0.0</coordinates>
            </Point>
        </Placemark>
        <Placemark id="1057">
            <name>81</name>
            <Point id="1056">
                <coordinates>80.30432928091366,13.343501316805437,0.0</coordinates>
            </Point>
        </Placemark>
        <Placemark id="1059">
            <name>82</name>
            <Point id="1058">
                <coordinates>80.30321996525977,13.34356390233604,0.0</coordinates>
            </Point>
        </Placemark>
        <Placemark id="1061">
            <name>83</name>
            <Point id="1060">
                <coordinates>80.30288718330429,13.344116168728686,0.0</coordinates>
            </Point>
        </Placemark>
        <Placemark id="1063">
            <name>84</name>
            <Point id="1062">
                <coordinates>80.30371113534648,13.344512232910072,0.0</coordinates>
            </Point>
        </Placemark>
        <Placemark id="1065">
            <name>85</name>
            <Point id="1064">
                <coordinates>80.30476999958346,13.344821230112695,0.0</coordinates>
            </Point>
        </Placemark>
        <Placemark id="1067">
            <name>86</name>
            <Point id="1066">
                <coordinates>80.30578813827286,13.345118342807526,0.0</coordinates>
            </Point>
        </Placemark>
        <Placemark id="1069">
            <name>87</name>
            <Point id="1068">
                <coordinates>80.30684700250984,13.345427340010147,0.0</coordinates>
            </Point>
        </Placemark>
        <Placemark id="1071">
            <name>88</name>
            <Point id="1070">
                <coordinates>80.3068563181006,13.345430058480927,0.0</coordinates>
            </Point>
        </Placemark>
        <Placemark id="1073">
            <name>89</name>
            <Point id="1072">
                <coordinates>80.33252049593592,13.345429562645876,0.0</coordinates>
            </Point>
        </Placemark>
        <Placemark id="1075">
            <name>90</name>
            <Point id="1074">
                <coordinates>80.33349926016267,13.345106878291446,0.0</coordinates>
            </Point>
        </Placemark>
        <Placemark id="1077">
            <name>91</name>
            <Point id="1076">
                <coordinates>80.33423887582305,13.344618589741316,0.0</coordinates>
            </Point>
        </Placemark>
        <Placemark id="1079">
            <name>92</name>
            <Point id="1078">
                <coordinates>80.335022077717,13.344151032658218,0.0</coordinates>
            </Point>
        </Placemark>
        <Placemark id="1081">
            <name>93</name>
            <Point id="1080">
                <coordinates>80.33617773749398,13.344159037832169,0.0</coordinates>
            </Point>
        </Placemark>
        <Placemark id="1083">
            <name>94</name>
            <Point id="1082">
                <coordinates>80.33658178209997,13.34471994690757,0.0</coordinates>
            </Point>
        </Placemark>
        <Placemark id="1085">
            <name>95</name>
            <Point id="1084">
                <coordinates>80.33573696991532,13.34513650347176,0.0</coordinates>
            </Point>
        </Placemark>
        <Placemark id="1087">
            <name>96</name>
            <Point id="1086">
                <coordinates>80.33468347193073,13.345450034027433,0.0</coordinates>
            </Point>
        </Placemark>
        <Placemark id="1089">
            <name>97</name>
            <Point id="1088">
                <coordinates>80.33362997394615,13.345763564583105,0.0</coordinates>
            </Point>
        </Placemark>
        <Placemark id="1091">
            <name>98</name>
            <Point id="1090">
                <coordinates>80.3325359568083,13.346089154006304,0.0</coordinates>
            </Point>
        </Placemark>
        <Placemark id="1093">
            <name>99</name>
            <Point id="1092">
                <coordinates>80.33252059173805,13.346093726790574,0.0</coordinates>
            </Point>
        </Placemark>
        <Placemark id="1095">
            <name>100</name>
            <Point id="1094">
                <coordinates>80.3068563181006,13.346094222660293,0.0</coordinates>
            </Point>
        </Placemark>
    </Document>
</kml>
