<?xml version="1.0" encoding="UTF-8"?>
<kml xmlns="http://www.opengis.net/kml/2.2" xmlns:gx="http://www.google.com/kml/ext/2.2">
    <Document id="2277">
        <Style id="2280">
            <LineStyle id="2281">
                <color>ffff0000</color>
                <colorMode>normal</colorMode>
                <width>2</width>
            </LineStyle>
        </Style>
        <Placemark id="2279">
            <styleUrl>#2280</styleUrl>
            <LineString id="2278">
                <altitudeMode>clampToGround</altitudeMode>
                <coordinates>80.28378226313237,13.334692213442654,0.0 80.29661357812006,13.334692089623994,0.0 80.29661357812006,13.334692089623994,0.0 80.29759233201834,13.33436940137478,0.0 80.29759233201834,13.33436940137478,0.0 80.29833190292203,13.333881095947248,0.0 80.29833190292203,13.333881095947248,0.0 80.29911506195947,13.333413520992094,0.0 80.29911506195947,13.333413520992094,0.0 80.300270722469,13.333421499794063,0.0 80.300270722469,13.333421499794063,0.0 80.30067481848678,13.333982399648644,0.0 80.30067481848678,13.333982399648644,0.0 80.29983003947676,13.334398971302344,0.0 80.29983003947676,13.334398971302344,0.0 80.29877655576556,13.334712513798129,0.0 80.29877655576556,13.334712513798129,0.0 80.29772307205435,13.335026056293916,0.0 80.29772307205435,13.335026056293916,0.0 80.29662906973887,13.335351658116464,0.0 80.29662906973887,13.335351658116464,0.0 80.29661362596406,13.33535625456124,0.0 80.29661362596406,13.33535625456124,0.0 80.28378226313237,13.33535637838857,0.0 80.28378226313237,13.33535637838857,0.0 80.28296634832468,13.33493151057626,0.0 80.28296634832468,13.33493151057626,0.0 80.28214633490568,13.334508491405694,0.0 80.28214633490568,13.334508491405694,0.0 80.28125529408086,13.334091766906985,0.0 80.28125529408086,13.334091766906985,0.0 80.2801459749574,13.334154337124966,0.0 80.2801459749574,13.334154337124966,0.0 80.27981316238215,13.334706598923797,0.0 80.27981316238215,13.334706598923797,0.0 80.28063709351308,13.335102673584148,0.0 80.28063709351308,13.335102673584148,0.0 80.28169594364643,13.335411682818943,0.0 80.28169594364643,13.335411682818943,0.0 80.28271406877464,13.335708807083169,0.0 80.28271406877464,13.335708807083169,0.0 80.28377291890799,13.336017816317964,0.0 80.28377291890799,13.336017816317964,0.0 80.28378226313237,13.336020543287093,0.0 80.28378226313237,13.336020543287093,0.0 80.29661367381158,13.3360204194511,0.0 80.29661367381158,13.3360204194511,0.0 80.29759242898697,13.335697731683458,0.0 80.29759242898697,13.335697731683458,0.0 80.29833200542485,13.335209428342743,0.0 80.29833200542485,13.335209428342743,0.0 80.29911516976155,13.334741855597397,0.0 80.29911516976155,13.334741855597397,0.0 80.30027083018062,13.334749837660231,0.0 80.30027083018062,13.334749837660231,0.0 80.30067491984144,13.33531073865502,0.0 80.30067491984144,13.33531073865502,0.0 80.29983013657137,13.335727308310801,0.0 80.29983013657137,13.335727308310801,0.0 80.29877665063886,13.336040848948432,0.0 80.29877665063886,13.336040848948432,0.0 80.29772316470634,13.336354389586063,0.0 80.29772316470634,13.336354389586063,0.0 80.29662916008411,13.336679989478988,0.0 80.29662916008411,13.336679989478988,0.0 80.29661372166261,13.336684584293565,0.0 80.29661372166261,13.336684584293565,0.0 80.28378226313237,13.336684708138222,0.0 80.28378226313237,13.336684708138222,0.0 80.2829663452799,13.33625984179537,0.0 80.2829663452799,13.33625984179537,0.0 80.28214632855136,13.335836824222039,0.0 80.28214632855136,13.335836824222039,0.0 80.28125528446625,13.335420101458913,0.0 80.28125528446625,13.335420101458913,0.0 80.28014596583233,13.335482673837639,0.0 80.28014596583233,13.335482673837639,0.0 80.27981315757778,13.336034936284722,0.0 80.27981315757778,13.336034936284722,0.0 80.28063709165949,13.33643100946642,0.0 80.28063709165949,13.33643100946642,0.0 80.281695943783,13.336740017003386,0.0 80.281695943783,13.336740017003386,0.0 80.28271407082485,13.337037139635084,0.0 80.28271407082485,13.337037139635084,0.0 80.28377292294837,13.337346147172049,0.0 80.28377292294837,13.337346147172049,0.0 80.28378226313237,13.337348872941954,0.0 80.28378226313237,13.337348872941954,0.0 80.29661376951718,13.337348749088632,0.0 80.29661376951718,13.337348749088632,0.0 80.29759252596988,13.337026061802634,0.0 80.29759252596988,13.337026061802634,0.0 80.2983321079427,13.336537760549037,0.0 80.2983321079427,13.336537760549037,0.0 80.29911527757933,13.336070190013816,0.0 80.29911527757933,13.336070190013816,0.0 80.30027093790791,13.336078175337967,0.0 80.30027093790791,13.336078175337967,0.0 80.30067502121089,13.336639077473102,0.0 80.30067502121089,13.336639077473102,0.0 80.2998302336802,13.337055645130677,0.0 80.2998302336802,13.337055645130677,0.0 80.29877674552607,13.337369183909892,0.0 80.29877674552607,13.337369183909892,0.0 80.29772325737194,13.337682722689108,0.0 80.29772325737194,13.337682722689108,0.0 80.29662925044265,13.33800832065214,0.0 80.29662925044265,13.33800832065214,0.0 80.29661381737529,13.338012913836298,0.0 80.29661381737529,13.338012913836298,0.0 80.28378226313237,13.338013037698287,0.0 80.28378226313237,13.338013037698287,0.0 80.28296634223472,13.337588172825104,0.0 80.28296634223472,13.337588172825104,0.0 80.28214632219618,13.33716515684924,0.0 80.28214632219618,13.33716515684924,0.0 80.28125527485034,13.33674843582195,0.0 80.28125527485034,13.33674843582195,0.0 80.28014595670602,13.336811010361723,0.0 80.28014595670602,13.336811010361723,0.0 80.27981315277279,13.337363273457141,0.0 80.27981315277279,13.337363273457141,0.0 80.2806370898057,13.337759345159972,0.0 80.2806370898057,13.337759345159972,0.0 80.28169594391966,13.338068350998865,0.0 80.28169594391966,13.338068350998865,0.0 80.28271407287538,13.338365471997802,0.0 80.28271407287538,13.338365471997802,0.0 80.28377292698934,13.338674477836696,0.0 80.28377292698934,13.338674477836696,0.0 80.28378226313237,13.338677202407219,0.0 80.28378226313237,13.338677202407219,0.0 80.29661386523692,13.338677078536564,0.0 80.29661386523692,13.338677078536564,0.0 80.29759262296707,13.33835439173228,0.0 80.29759262296707,13.33835439173228,0.0 80.29833221047558,13.33786609256611,0.0 80.29833221047558,13.33786609256611,0.0 80.29911538541288,13.337398524241337,0.0 80.29911538541288,13.337398524241337,0.0 80.30027104565092,13.337406512827258,0.0 80.30027104565092,13.337406512827258,0.0 80.30067512259514,13.33796741610288,0.0 80.30067512259514,13.33796741610288,0.0 80.29983033080325,13.338383981761961,0.0 80.29983033080325,13.338383981761961,0.0 80.29877684042721,13.338697518682496,0.0 80.29877684042721,13.338697518682496,0.0 80.29772335005119,13.33901105560303,0.0 80.29772335005119,13.33901105560303,0.0 80.29662934081453,13.339336651635893,0.0 80.29662934081453,13.339336651635893,0.0 80.29661391310208,13.339341243189423,0.0 80.29661391310208,13.339341243189423,0.0 80.28378226313237,13.339341367068744,0.0 80.28378226313237,13.339341367068744,0.0 80.2829663391891,13.338916503665441,0.0 80.2829663391891,13.338916503665441,0.0 80.28214631584014,13.338493489287274,0.0 80.28214631584014,13.338493489287274,0.0 80.2812552652331,13.338076769996066,0.0 80.2812552652331,13.338076769996066,0.0 80.2801459475785,13.338139346697188,0.0 80.2801459475785,13.338139346697188,0.0 80.27981314796718,13.338691610441023,0.0 80.27981314796718,13.338691610441023,0.0 80.28063708795167,13.339087680664774,0.0 80.28063708795167,13.339087680664774,0.0 80.28169594405635,13.339396684805354,0.0 80.28169594405635,13.339396684805354,0.0 80.28271407492623,13.339693804171295,0.0 80.28271407492623,13.339693804171295,0.0 80.28377293103091,13.340002808311876,0.0 80.28377293103091,13.340002808311876,0.0 80.28378226313237,13.340005531682861,0.0 80.28378226313237,13.340005531682861,0.0 80.29661396097077,13.340005407794873,0.0 80.29661396097077,13.340005407794873,0.0 80.29759271997857,13.339682721472373,0.0 80.29759271997857,13.339682721472373,0.0 80.29833231302351,13.339194424393936,0.0 80.29833231302351,13.339194424393936,0.0 80.29911549326219,13.338726858279935,0.0 80.29911549326219,13.338726858279935,0.0 80.30027115340962,13.338734850128082,0.0 80.30027115340962,13.338734850128082,0.0 80.30067522399419,13.339295754544333,0.0 80.30067522399419,13.339295754544333,0.0 80.29983042794053,13.33971231820463,0.0 80.29983042794053,13.33971231820463,0.0 80.2987769353423,13.340025853266221,0.0 80.2987769353423,13.340025853266221,0.0 80.29772344274406,13.340339388327813,0.0 80.29772344274406,13.340339388327813,0.0 80.29662943119975,13.340664982430233,0.0 80.29662943119975,13.340664982430233,0.0 80.29661400884301,13.340669572352915,0.0 80.29661400884301,13.340669572352915,0.0 80.28378226313237,13.340669696249563,0.0 80.28378226313237,13.340669696249563,0.0 80.28151392448967,13.339495604173441,0.0</coordinates>
            </LineString>
        </Placemark>
        <Placemark id="2283">
            <name>0</name>
            <Point id="2282">
                <coordinates>80.28378226313237,13.334692213442654,0.0</coordinates>
            </Point>
        </Placemark>
        <Placemark id="2285">
            <name>1</name>
            <Point id="2284">
                <coordinates>80.29661357812006,13.334692089623994,0.0</coordinates>
            </Point>
        </Placemark>
        <Placemark id="2287">
            <name>2</name>
            <Point id="2286">
                <coordinates>80.29759233201834,13.33436940137478,0.0</coordinates>
            </Point>
        </Placemark>
        <Placemark id="2289">
            <name>3</name>
            <Point id="2288">
                <coordinates>80.29833190292203,13.333881095947248,0.0</coordinates>
            </Point>
        </Placemark>
        <Placemark id="2291">
            <name>4</name>
            <Point id="2290">
                <coordinates>80.29911506195947,13.333413520992094,0.0</coordinates>
            </Point>
        </Placemark>
        <Placemark id="2293">
            <name>5</name>
            <Point id="2292">
                <coordinates>80.300270722469,13.333421499794063,0.0</coordinates>
            </Point>
        </Placemark>
        <Placemark id="2295">
            <name>6</name>
            <Point id="2294">
                <coordinates>80.30067481848678,13.333982399648644,0.0</coordinates>
            </Point>
        </Placemark>
        <Placemark id="2297">
            <name>7</name>
            <Point id="2296">
                <coordinates>80.29983003947676,13.334398971302344,0.0</coordinates>
            </Point>
        </Placemark>
        <Placemark id="2299">
            <name>8</name>
            <Point id="2298">
                <coordinates>80.29877655576556,13.334712513798129,0.0</coordinates>
            </Point>
        </Placemark>
        <Placemark id="2301">
            <name>9</name>
            <Point id="2300">
                <coordinates>80.29772307205435,13.335026056293916,0.0</coordinates>
            </Point>
        </Placemark>
        <Placemark id="2303">
            <name>10</name>
            <Point id="2302">
                <coordinates>80.29662906973887,13.335351658116464,0.0</coordinates>
            </Point>
        </Placemark>
        <Placemark id="2305">
            <name>11</name>
            <Point id="2304">
                <coordinates>80.29661362596406,13.33535625456124,0.0</coordinates>
            </Point>
        </Placemark>
        <Placemark id="2307">
            <name>12</name>
            <Point id="2306">
                <coordinates>80.28378226313237,13.33535637838857,0.0</coordinates>
            </Point>
        </Placemark>
        <Placemark id="2309">
            <name>13</name>
            <Point id="2308">
                <coordinates>80.28296634832468,13.33493151057626,0.0</coordinates>
            </Point>
        </Placemark>
        <Placemark id="2311">
            <name>14</name>
            <Point id="2310">
                <coordinates>80.28214633490568,13.334508491405694,0.0</coordinates>
            </Point>
        </Placemark>
        <Placemark id="2313">
            <name>15</name>
            <Point id="2312">
                <coordinates>80.28125529408086,13.334091766906985,0.0</coordinates>
            </Point>
        </Placemark>
        <Placemark id="2315">
            <name>16</name>
            <Point id="2314">
                <coordinates>80.2801459749574,13.334154337124966,0.0</coordinates>
            </Point>
        </Placemark>
        <Placemark id="2317">
            <name>17</name>
            <Point id="2316">
                <coordinates>80.27981316238215,13.334706598923797,0.0</coordinates>
            </Point>
        </Placemark>
        <Placemark id="2319">
            <name>18</name>
            <Point id="2318">
                <coordinates>80.28063709351308,13.335102673584148,0.0</coordinates>
            </Point>
        </Placemark>
        <Placemark id="2321">
            <name>19</name>
            <Point id="2320">
                <coordinates>80.28169594364643,13.335411682818943,0.0</coordinates>
            </Point>
        </Placemark>
        <Placemark id="2323">
            <name>20</name>
            <Point id="2322">
                <coordinates>80.28271406877464,13.335708807083169,0.0</coordinates>
            </Point>
        </Placemark>
        <Placemark id="2325">
            <name>21</name>
            <Point id="2324">
                <coordinates>80.28377291890799,13.336017816317964,0.0</coordinates>
            </Point>
        </Placemark>
        <Placemark id="2327">
            <name>22</name>
            <Point id="2326">
                <coordinates>80.28378226313237,13.336020543287093,0.0</coordinates>
            </Point>
        </Placemark>
        <Placemark id="2329">
            <name>23</name>
            <Point id="2328">
                <coordinates>80.29661367381158,13.3360204194511,0.0</coordinates>
            </Point>
        </Placemark>
        <Placemark id="2331">
            <name>24</name>
            <Point id="2330">
                <coordinates>80.29759242898697,13.335697731683458,0.0</coordinates>
            </Point>
        </Placemark>
        <Placemark id="2333">
            <name>25</name>
            <Point id="2332">
                <coordinates>80.29833200542485,13.335209428342743,0.0</coordinates>
            </Point>
        </Placemark>
        <Placemark id="2335">
            <name>26</name>
            <Point id="2334">
                <coordinates>80.29911516976155,13.334741855597397,0.0</coordinates>
            </Point>
        </Placemark>
        <Placemark id="2337">
            <name>27</name>
            <Point id="2336">
                <coordinates>80.30027083018062,13.334749837660231,0.0</coordinates>
            </Point>
        </Placemark>
        <Placemark id="2339">
            <name>28</name>
            <Point id="2338">
                <coordinates>80.30067491984144,13.33531073865502,0.0</coordinates>
            </Point>
        </Placemark>
        <Placemark id="2341">
            <name>29</name>
            <Point id="2340">
                <coordinates>80.29983013657137,13.335727308310801,0.0</coordinates>
            </Point>
        </Placemark>
        <Placemark id="2343">
            <name>30</name>
            <Point id="2342">
                <coordinates>80.29877665063886,13.336040848948432,0.0</coordinates>
            </Point>
        </Placemark>
        <Placemark id="2345">
            <name>31</name>
            <Point id="2344">
                <coordinates>80.29772316470634,13.336354389586063,0.0</coordinates>
            </Point>
        </Placemark>
        <Placemark id="2347">
            <name>32</name>
            <Point id="2346">
                <coordinates>80.29662916008411,13.336679989478988,0.0</coordinates>
            </Point>
        </Placemark>
        <Placemark id="2349">
            <name>33</name>
            <Point id="2348">
                <coordinates>80.29661372166261,13.336684584293565,0.0</coordinates>
            </Point>
        </Placemark>
        <Placemark id="2351">
            <name>34</name>
            <Point id="2350">
                <coordinates>80.28378226313237,13.336684708138222,0.0</coordinates>
            </Point>
        </Placemark>
        <Placemark id="2353">
            <name>35</name>
            <Point id="2352">
                <coordinates>80.2829663452799,13.33625984179537,0.0</coordinates>
            </Point>
        </Placemark>
        <Placemark id="2355">
            <name>36</name>
            <Point id="2354">
                <coordinates>80.28214632855136,13.335836824222039,0.0</coordinates>
            </Point>
        </Placemark>
        <Placemark id="2357">
            <name>37</name>
            <Point id="2356">
                <coordinates>80.28125528446625,13.335420101458913,0.0</coordinates>
            </Point>
        </Placemark>
        <Placemark id="2359">
            <name>38</name>
            <Point id="2358">
                <coordinates>80.28014596583233,13.335482673837639,0.0</coordinates>
            </Point>
        </Placemark>
        <Placemark id="2361">
            <name>39</name>
            <Point id="2360">
                <coordinates>80.27981315757778,13.336034936284722,0.0</coordinates>
            </Point>
        </Placemark>
        <Placemark id="2363">
            <name>40</name>
            <Point id="2362">
                <coordinates>80.28063709165949,13.33643100946642,0.0</coordinates>
            </Point>
        </Placemark>
        <Placemark id="2365">
            <name>41</name>
            <Point id="2364">
                <coordinates>80.281695943783,13.336740017003386,0.0</coordinates>
            </Point>
        </Placemark>
        <Placemark id="2367">
            <name>42</name>
            <Point id="2366">
                <coordinates>80.28271407082485,13.337037139635084,0.0</coordinates>
            </Point>
        </Placemark>
        <Placemark id="2369">
            <name>43</name>
            <Point id="2368">
                <coordinates>80.28377292294837,13.337346147172049,0.0</coordinates>
            </Point>
        </Placemark>
        <Placemark id="2371">
            <name>44</name>
            <Point id="2370">
                <coordinates>80.28378226313237,13.337348872941954,0.0</coordinates>
            </Point>
        </Placemark>
        <Placemark id="2373">
            <name>45</name>
            <Point id="2372">
                <coordinates>80.29661376951718,13.337348749088632,0.0</coordinates>
            </Point>
        </Placemark>
        <Placemark id="2375">
            <name>46</name>
            <Point id="2374">
                <coordinates>80.29759252596988,13.337026061802634,0.0</coordinates>
            </Point>
        </Placemark>
        <Placemark id="2377">
            <name>47</name>
            <Point id="2376">
                <coordinates>80.2983321079427,13.336537760549037,0.0</coordinates>
            </Point>
        </Placemark>
        <Placemark id="2379">
            <name>48</name>
            <Point id="2378">
                <coordinates>80.29911527757933,13.336070190013816,0.0</coordinates>
            </Point>
        </Placemark>
        <Placemark id="2381">
            <name>49</name>
            <Point id="2380">
                <coordinates>80.30027093790791,13.336078175337967,0.0</coordinates>
            </Point>
        </Placemark>
        <Placemark id="2383">
            <name>50</name>
            <Point id="2382">
                <coordinates>80.30067502121089,13.336639077473102,0.0</coordinates>
            </Point>
        </Placemark>
        <Placemark id="2385">
            <name>51</name>
            <Point id="2384">
                <coordinates>80.2998302336802,13.337055645130677,0.0</coordinates>
            </Point>
        </Placemark>
        <Placemark id="2387">
            <name>52</name>
            <Point id="2386">
                <coordinates>80.29877674552607,13.337369183909892,0.0</coordinates>
            </Point>
        </Placemark>
        <Placemark id="2389">
            <name>53</name>
            <Point id="2388">
                <coordinates>80.29772325737194,13.337682722689108,0.0</coordinates>
            </Point>
        </Placemark>
        <Placemark id="2391">
            <name>54</name>
            <Point id="2390">
                <coordinates>80.29662925044265,13.33800832065214,0.0</coordinates>
            </Point>
        </Placemark>
        <Placemark id="2393">
            <name>55</name>
            <Point id="2392">
                <coordinates>80.29661381737529,13.338012913836298,0.0</coordinates>
            </Point>
        </Placemark>
        <Placemark id="2395">
            <name>56</name>
            <Point id="2394">
                <coordinates>80.28378226313237,13.338013037698287,0.0</coordinates>
            </Point>
        </Placemark>
        <Placemark id="2397">
            <name>57</name>
            <Point id="2396">
                <coordinates>80.28296634223472,13.337588172825104,0.0</coordinates>
            </Point>
        </Placemark>
        <Placemark id="2399">
            <name>58</name>
            <Point id="2398">
                <coordinates>80.28214632219618,13.33716515684924,0.0</coordinates>
            </Point>
        </Placemark>
        <Placemark id="2401">
            <name>59</name>
            <Point id="2400">
                <coordinates>80.28125527485034,13.33674843582195,0.0</coordinates>
            </Point>
        </Placemark>
        <Placemark id="2403">
            <name>60</name>
            <Point id="2402">
                <coordinates>80.28014595670602,13.336811010361723,0.0</coordinates>
            </Point>
        </Placemark>
        <Placemark id="2405">
            <name>61</name>
            <Point id="2404">
                <coordinates>80.27981315277279,13.337363273457141,0.0</coordinates>
            </Point>
        </Placemark>
        <Placemark id="2407">
            <name>62</name>
            <Point id="2406">
                <coordinates>80.2806370898057,13.337759345159972,0.0</coordinates>
            </Point>
        </Placemark>
        <Placemark id="2409">
            <name>63</name>
            <Point id="2408">
                <coordinates>80.28169594391966,13.338068350998865,0.0</coordinates>
            </Point>
        </Placemark>
        <Placemark id="2411">
            <name>64</name>
            <Point id="2410">
                <coordinates>80.28271407287538,13.338365471997802,0.0</coordinates>
            </Point>
        </Placemark>
        <Placemark id="2413">
            <name>65</name>
            <Point id="2412">
                <coordinates>80.28377292698934,13.338674477836696,0.0</coordinates>
            </Point>
        </Placemark>
        <Placemark id="2415">
            <name>66</name>
            <Point id="2414">
                <coordinates>80.28378226313237,13.338677202407219,0.0</coordinates>
            </Point>
        </Placemark>
        <Placemark id="2417">
            <name>67</name>
            <Point id="2416">
                <coordinates>80.29661386523692,13.338677078536564,0.0</coordinates>
            </Point>
        </Placemark>
        <Placemark id="2419">
            <name>68</name>
            <Point id="2418">
                <coordinates>80.29759262296707,13.33835439173228,0.0</coordinates>
            </Point>
        </Placemark>
        <Placemark id="2421">
            <name>69</name>
            <Point id="2420">
                <coordinates>80.29833221047558,13.33786609256611,0.0</coordinates>
            </Point>
        </Placemark>
        <Placemark id="2423">
            <name>70</name>
            <Point id="2422">
                <coordinates>80.29911538541288,13.337398524241337,0.0</coordinates>
            </Point>
        </Placemark>
        <Placemark id="2425">
            <name>71</name>
            <Point id="2424">
                <coordinates>80.30027104565092,13.337406512827258,0.0</coordinates>
            </Point>
        </Placemark>
        <Placemark id="2427">
            <name>72</name>
            <Point id="2426">
                <coordinates>80.30067512259514,13.33796741610288,0.0</coordinates>
            </Point>
        </Placemark>
        <Placemark id="2429">
            <name>73</name>
            <Point id="2428">
                <coordinates>80.29983033080325,13.338383981761961,0.0</coordinates>
            </Point>
        </Placemark>
        <Placemark id="2431">
            <name>74</name>
            <Point id="2430">
                <coordinates>80.29877684042721,13.338697518682496,0.0</coordinates>
            </Point>
        </Placemark>
        <Placemark id="2433">
            <name>75</name>
            <Point id="2432">
                <coordinates>80.29772335005119,13.33901105560303,0.0</coordinates>
            </Point>
        </Placemark>
        <Placemark id="2435">
            <name>76</name>
            <Point id="2434">
                <coordinates>80.29662934081453,13.339336651635893,0.0</coordinates>
            </Point>
        </Placemark>
        <Placemark id="2437">
            <name>77</name>
            <Point id="2436">
                <coordinates>80.29661391310208,13.339341243189423,0.0</coordinates>
            </Point>
        </Placemark>
        <Placemark id="2439">
            <name>78</name>
            <Point id="2438">
                <coordinates>80.28378226313237,13.339341367068744,0.0</coordinates>
            </Point>
        </Placemark>
        <Placemark id="2441">
            <name>79</name>
            <Point id="2440">
                <coordinates>80.2829663391891,13.338916503665441,0.0</coordinates>
            </Point>
        </Placemark>
        <Placemark id="2443">
            <name>80</name>
            <Point id="2442">
                <coordinates>80.28214631584014,13.338493489287274,0.0</coordinates>
            </Point>
        </Placemark>
        <Placemark id="2445">
            <name>81</name>
            <Point id="2444">
                <coordinates>80.2812552652331,13.338076769996066,0.0</coordinates>
            </Point>
        </Placemark>
        <Placemark id="2447">
            <name>82</name>
            <Point id="2446">
                <coordinates>80.2801459475785,13.338139346697188,0.0</coordinates>
            </Point>
        </Placemark>
        <Placemark id="2449">
            <name>83</name>
            <Point id="2448">
                <coordinates>80.27981314796718,13.338691610441023,0.0</coordinates>
            </Point>
        </Placemark>
        <Placemark id="2451">
            <name>84</name>
            <Point id="2450">
                <coordinates>80.28063708795167,13.339087680664774,0.0</coordinates>
            </Point>
        </Placemark>
        <Placemark id="2453">
            <name>85</name>
            <Point id="2452">
                <coordinates>80.28169594405635,13.339396684805354,0.0</coordinates>
            </Point>
        </Placemark>
        <Placemark id="2455">
            <name>86</name>
            <Point id="2454">
                <coordinates>80.28271407492623,13.339693804171295,0.0</coordinates>
            </Point>
        </Placemark>
        <Placemark id="2457">
            <name>87</name>
            <Point id="2456">
                <coordinates>80.28377293103091,13.340002808311876,0.0</coordinates>
            </Point>
        </Placemark>
        <Placemark id="2459">
            <name>88</name>
            <Point id="2458">
                <coordinates>80.28378226313237,13.340005531682861,0.0</coordinates>
            </Point>
        </Placemark>
        <Placemark id="2461">
            <name>89</name>
            <Point id="2460">
                <coordinates>80.29661396097077,13.340005407794873,0.0</coordinates>
            </Point>
        </Placemark>
        <Placemark id="2463">
            <name>90</name>
            <Point id="2462">
                <coordinates>80.29759271997857,13.339682721472373,0.0</coordinates>
            </Point>
        </Placemark>
        <Placemark id="2465">
            <name>91</name>
            <Point id="2464">
                <coordinates>80.29833231302351,13.339194424393936,0.0</coordinates>
            </Point>
        </Placemark>
        <Placemark id="2467">
            <name>92</name>
            <Point id="2466">
                <coordinates>80.29911549326219,13.338726858279935,0.0</coordinates>
            </Point>
        </Placemark>
        <Placemark id="2469">
            <name>93</name>
            <Point id="2468">
                <coordinates>80.30027115340962,13.338734850128082,0.0</coordinates>
            </Point>
        </Placemark>
        <Placemark id="2471">
            <name>94</name>
            <Point id="2470">
                <coordinates>80.30067522399419,13.339295754544333,0.0</coordinates>
            </Point>
        </Placemark>
        <Placemark id="2473">
            <name>95</name>
            <Point id="2472">
                <coordinates>80.29983042794053,13.33971231820463,0.0</coordinates>
            </Point>
        </Placemark>
        <Placemark id="2475">
            <name>96</name>
            <Point id="2474">
                <coordinates>80.2987769353423,13.340025853266221,0.0</coordinates>
            </Point>
        </Placemark>
        <Placemark id="2477">
            <name>97</name>
            <Point id="2476">
                <coordinates>80.29772344274406,13.340339388327813,0.0</coordinates>
            </Point>
        </Placemark>
        <Placemark id="2479">
            <name>98</name>
            <Point id="2478">
                <coordinates>80.29662943119975,13.340664982430233,0.0</coordinates>
            </Point>
        </Placemark>
        <Placemark id="2481">
            <name>99</name>
            <Point id="2480">
                <coordinates>80.29661400884301,13.340669572352915,0.0</coordinates>
            </Point>
        </Placemark>
        <Placemark id="2483">
            <name>100</name>
            <Point id="2482">
                <coordinates>80.28378226313237,13.340669696249563,0.0</coordinates>
            </Point>
        </Placemark>
    </Document>
</kml>
