<?xml version="1.0" encoding="UTF-8"?>
<kml xmlns="http://www.opengis.net/kml/2.2" xmlns:gx="http://www.google.com/kml/ext/2.2">
    <Document id="615">
        <Style id="618">
            <LineStyle id="619">
                <color>ffff0000</color>
                <colorMode>normal</colorMode>
                <width>2</width>
            </LineStyle>
        </Style>
        <Placemark id="617">
            <styleUrl>#618</styleUrl>
            <LineString id="616">
                <altitudeMode>clampToGround</altitudeMode>
                <coordinates>80.3068563181006,13.33347509514376,0.0 80.33251877270528,13.333474599932625,0.0 80.33251877270528,13.333474599932625,0.0 80.33349752543316,13.333151911242085,0.0 80.33349752543316,13.333151911242085,0.0 80.33423709126511,13.332663603902141,0.0 80.33423709126511,13.332663603902141,0.0 80.33502024544613,13.332196026921862,0.0 80.33502024544613,13.332196026921862,0.0 80.3361759060385,13.332204002735464,0.0 80.3361759060385,13.332204002735464,0.0 80.336580007882,13.332764901545106,0.0 80.336580007882,13.332764901545106,0.0 80.33573523405212,13.333181476097176,0.0 80.33573523405212,13.333181476097176,0.0 80.33468175606302,13.333495023379495,0.0 80.33468175606302,13.333495023379495,0.0 80.33362827807392,13.333808570661816,0.0 80.33362827807392,13.333808570661816,0.0 80.33253428170062,13.334134177454995,0.0 80.33253428170062,13.334134177454995,0.0 80.3325188683803,13.334138764930714,0.0 80.3325188683803,13.334138764930714,0.0 80.3068563181006,13.33413926017651,0.0 80.3068563181006,13.33413926017651,0.0 80.3060404060824,13.333714391017955,0.0 80.3060404060824,13.333714391017955,0.0 80.30522039569547,13.33329137038408,0.0 80.30522039569547,13.33329137038408,0.0 80.3043293578576,13.332874644295313,0.0 80.3043293578576,13.332874644295313,0.0 80.30322003828567,13.332937212533714,0.0 80.30322003828567,13.332937212533714,0.0 80.302887221752,13.333489473738638,0.0 80.302887221752,13.333489473738638,0.0 80.30371115017952,13.33388554975366,0.0 80.30371115017952,13.33388554975366,0.0 80.30476999848956,13.334194560543926,0.0 80.30476999848956,13.334194560543926,0.0 80.3057881218646,13.334491686303796,0.0 80.3057881218646,13.334491686303796,0.0 80.30684697017462,13.334800697094062,0.0 80.30684697017462,13.334800697094062,0.0 80.3068563181006,13.334803425161875,0.0 80.3068563181006,13.334803425161875,0.0 80.33251896406239,13.33480292988142,0.0 80.33251896406239,13.33480292988142,0.0 80.33349771806724,13.334480241672388,0.0 80.33349771806724,13.334480241672388,0.0 80.33423728943268,13.333991936418975,0.0 80.33423728943268,13.333991936418975,0.0 80.33502044891229,13.333524361648205,0.0 80.33502044891229,13.333524361648205,0.0 80.33617610941427,13.333532340722256,0.0 80.33617610941427,13.333532340722256,0.0 80.33658020490164,13.334093240671974,0.0 80.33658020490164,13.334093240671974,0.0 80.3357354268124,13.334509813226548,0.0 80.3357354268124,13.334509813226548,0.0 80.33468194660277,13.334823358651407,0.0 80.33468194660277,13.334823358651407,0.0 80.33362846639314,13.335136904076267,0.0 80.33362846639314,13.335136904076267,0.0 80.3325344677139,13.335462508940543,0.0 80.3325344677139,13.335462508940543,0.0 80.33251905975153,13.33546709478474,0.0 80.33251905975153,13.33546709478474,0.0 80.3068563181006,13.335467590099853,0.0 80.3068563181006,13.335467590099853,0.0 80.30604040303801,13.335042722410561,0.0 80.30604040303801,13.335042722410561,0.0 80.30522038934195,13.334619703373711,0.0 80.30522038934195,13.334619703373711,0.0 80.30432934824418,13.3342029790203,0.0 80.30432934824418,13.3342029790203,0.0 80.30322002916171,13.334265549419172,0.0 80.30322002916171,13.334265549419172,0.0 80.30288721694818,13.334817811272272,0.0 80.30288721694818,13.334817811272272,0.0 80.30371114832613,13.335213885808836,0.0 80.30371114832613,13.335213885808836,0.0 80.30476999862609,13.335522894901493,0.0 80.30476999862609,13.335522894901493,0.0 80.30578812391451,13.335820019029049,0.0 80.30578812391451,13.335820019029049,0.0 80.30684697421447,13.336129028121707,0.0 80.30684697421447,13.336129028121707,0.0 80.3068563181006,13.33613175499044,0.0 80.3068563181006,13.33613175499044,0.0 80.33251915544774,13.336131259640664,0.0 80.33251915544774,13.336131259640664,0.0 80.33349791072972,13.33580857191321,0.0 80.33349791072972,13.33580857191321,0.0 80.33423748762942,13.335320268746639,0.0 80.33423748762942,13.335320268746639,0.0 80.33502065240833,13.334852696185699,0.0 80.33502065240833,13.334852696185699,0.0 80.33617631281986,13.334860678520652,0.0 80.33617631281986,13.334860678520652,0.0 80.3365804019502,13.335421579610589,0.0 80.3365804019502,13.335421579610589,0.0 80.33573561960104,13.335838150167378,0.0 80.33573561960104,13.335838150167378,0.0 80.33468213717057,13.336151693734509,0.0 80.33468213717057,13.336151693734509,0.0 80.33362865474011,13.33646523730164,0.0 80.33362865474011,13.33646523730164,0.0 80.33253465375462,13.336790840236738,0.0 80.33253465375462,13.336790840236738,0.0 80.332519251151,13.336795424449194,0.0 80.332519251151,13.336795424449194,0.0 80.3068563181006,13.33679591983363,0.0 80.3068563181006,13.33679591983363,0.0 80.3060403999932,13.336371053613814,0.0 80.3060403999932,13.336371053613814,0.0 80.30522038298756,13.33594803617422,0.0 80.30522038298756,13.33594803617422,0.0 80.30432933862947,13.335531313556414,0.0 80.30432933862947,13.335531313556414,0.0 80.30322002003653,13.335593886116056,0.0 80.30322002003653,13.335593886116056,0.0 80.30288721214374,13.336146148617416,0.0 80.30288721214374,13.336146148617416,0.0 80.30371114647252,13.336542221675307,0.0 80.30371114647252,13.336542221675307,0.0 80.30476999876268,13.336851229070115,0.0 80.30476999876268,13.336851229070115,0.0 80.30578812596475,13.337148351565123,0.0 80.30578812596475,13.337148351565123,0.0 80.30684697825491,13.33745735895993,0.0 80.30684697825491,13.33745735895993,0.0 80.3068563181006,13.337460084629427,0.0 80.3068563181006,13.337460084629427,0.0 80.33251934686132,13.337459589210328,0.0 80.33251934686132,13.337459589210328,0.0 80.3334981034206,13.337136901964524,0.0 80.3334981034206,13.337136901964524,0.0 80.3342376858553,13.336648600885097,0.0 80.3342376858553,13.336648600885097,0.0 80.33502085593422,13.336181030534311,0.0 80.33502085593422,13.336181030534311,0.0 80.33617651625525,13.336189016130618,0.0 80.33617651625525,13.336189016130618,0.0 80.33658059902766,13.336749918360914,0.0 80.33658059902766,13.336749918360914,0.0 80.33573581241801,13.337166486919628,0.0 80.33573581241801,13.337166486919628,0.0 80.33468232776642,13.33748002862877,0.0 80.33468232776642,13.33748002862877,0.0 80.33362884311482,13.337793570337912,0.0 80.33362884311482,13.337793570337912,0.0 80.33253483982278,13.338119171343559,0.0 80.33253483982278,13.338119171343559,0.0 80.3325194425787,13.338123753924064,0.0 80.3325194425787,13.338123753924064,0.0 80.3068563181006,13.338124249377824,0.0 80.3068563181006,13.338124249377824,0.0 80.30604039694796,13.337699384627694,0.0 80.30604039694796,13.337699384627694,0.0 80.3052203766323,13.337276368785586,0.0 80.3052203766323,13.337276368785586,0.0 80.30432932901343,13.336859647903635,0.0 80.30432932901343,13.336859647903635,0.0 80.30322001091012,13.336922222624352,0.0 80.30322001091012,13.336922222624352,0.0 80.3028872073387,13.337474485774054,0.0 80.3028872073387,13.337474485774054,0.0 80.3037111446187,13.33787055735306,0.0 80.3037111446187,13.33787055735306,0.0 80.30476999889933,13.338179563049774,0.0 80.30476999889933,13.338179563049774,0.0 80.30578812801531,13.338476683912,0.0 80.30578812801531,13.338476683912,0.0 80.30684698229592,13.338785689608716,0.0 80.30684698229592,13.338785689608716,0.0 80.3068563181006,13.338788414078817,0.0 80.3068563181006,13.338788414078817,0.0 80.33251953830315,13.338787918590395,0.0 80.33251953830315,13.338787918590395,0.0 80.33349829613991,13.33846523182631,0.0 80.33349829613991,13.33846523182631,0.0 80.33423788411037,13.337976932834337,0.0 80.33423788411037,13.337976932834337,0.0 80.33502105949002,13.337509364694027,0.0 80.33502105949002,13.337509364694027,0.0 80.3361767197205,13.337517353552144,0.0 80.3361767197205,13.337517353552144,0.0 80.33658079613407,13.33807825692294,0.0 80.33658079613407,13.33807825692294,0.0 80.33573600526334,13.33849482348329,0.0 80.33573600526334,13.33849482348329,0.0 80.33468251839032,13.338808363334175,0.0 80.33468251839032,13.338808363334175,0.0 80.3336290315173,13.339121903185061,0.0 80.3336290315173,13.339121903185061,0.0 80.3325350259184,13.339447502260983,0.0 80.3325350259184,13.339447502260983,0.0 80.33251963403465,13.339452083209316,0.0 80.33251963403465,13.339452083209316,0.0 80.3068563181006,13.3394525787324,0.0 80.3068563181006,13.3394525787324,0.0 80.30458799496375,13.33827848650319,0.0</coordinates>
            </LineString>
        </Placemark>
        <Placemark id="621">
            <name>0</name>
            <Point id="620">
                <coordinates>80.3068563181006,13.33347509514376,0.0</coordinates>
            </Point>
        </Placemark>
        <Placemark id="623">
            <name>1</name>
            <Point id="622">
                <coordinates>80.33251877270528,13.333474599932625,0.0</coordinates>
            </Point>
        </Placemark>
        <Placemark id="625">
            <name>2</name>
            <Point id="624">
                <coordinates>80.33349752543316,13.333151911242085,0.0</coordinates>
            </Point>
        </Placemark>
        <Placemark id="627">
            <name>3</name>
            <Point id="626">
                <coordinates>80.33423709126511,13.332663603902141,0.0</coordinates>
            </Point>
        </Placemark>
        <Placemark id="629">
            <name>4</name>
            <Point id="628">
                <coordinates>80.33502024544613,13.332196026921862,0.0</coordinates>
            </Point>
        </Placemark>
        <Placemark id="631">
            <name>5</name>
            <Point id="630">
                <coordinates>80.3361759060385,13.332204002735464,0.0</coordinates>
            </Point>
        </Placemark>
        <Placemark id="633">
            <name>6</name>
            <Point id="632">
                <coordinates>80.336580007882,13.332764901545106,0.0</coordinates>
            </Point>
        </Placemark>
        <Placemark id="635">
            <name>7</name>
            <Point id="634">
                <coordinates>80.33573523405212,13.333181476097176,0.0</coordinates>
            </Point>
        </Placemark>
        <Placemark id="637">
            <name>8</name>
            <Point id="636">
                <coordinates>80.33468175606302,13.333495023379495,0.0</coordinates>
            </Point>
        </Placemark>
        <Placemark id="639">
            <name>9</name>
            <Point id="638">
                <coordinates>80.33362827807392,13.333808570661816,0.0</coordinates>
            </Point>
        </Placemark>
        <Placemark id="641">
            <name>10</name>
            <Point id="640">
                <coordinates>80.33253428170062,13.334134177454995,0.0</coordinates>
            </Point>
        </Placemark>
        <Placemark id="643">
            <name>11</name>
            <Point id="642">
                <coordinates>80.3325188683803,13.334138764930714,0.0</coordinates>
            </Point>
        </Placemark>
        <Placemark id="645">
            <name>12</name>
            <Point id="644">
                <coordinates>80.3068563181006,13.33413926017651,0.0</coordinates>
            </Point>
        </Placemark>
        <Placemark id="647">
            <name>13</name>
            <Point id="646">
                <coordinates>80.3060404060824,13.333714391017955,0.0</coordinates>
            </Point>
        </Placemark>
        <Placemark id="649">
            <name>14</name>
            <Point id="648">
                <coordinates>80.30522039569547,13.33329137038408,0.0</coordinates>
            </Point>
        </Placemark>
        <Placemark id="651">
            <name>15</name>
            <Point id="650">
                <coordinates>80.3043293578576,13.332874644295313,0.0</coordinates>
            </Point>
        </Placemark>
        <Placemark id="653">
            <name>16</name>
            <Point id="652">
                <coordinates>80.30322003828567,13.332937212533714,0.0</coordinates>
            </Point>
        </Placemark>
        <Placemark id="655">
            <name>17</name>
            <Point id="654">
                <coordinates>80.302887221752,13.333489473738638,0.0</coordinates>
            </Point>
        </Placemark>
        <Placemark id="657">
            <name>18</name>
            <Point id="656">
                <coordinates>80.30371115017952,13.33388554975366,0.0</coordinates>
            </Point>
        </Placemark>
        <Placemark id="659">
            <name>19</name>
            <Point id="658">
                <coordinates>80.30476999848956,13.334194560543926,0.0</coordinates>
            </Point>
        </Placemark>
        <Placemark id="661">
            <name>20</name>
            <Point id="660">
                <coordinates>80.3057881218646,13.334491686303796,0.0</coordinates>
            </Point>
        </Placemark>
        <Placemark id="663">
            <name>21</name>
            <Point id="662">
                <coordinates>80.30684697017462,13.334800697094062,0.0</coordinates>
            </Point>
        </Placemark>
        <Placemark id="665">
            <name>22</name>
            <Point id="664">
                <coordinates>80.3068563181006,13.334803425161875,0.0</coordinates>
            </Point>
        </Placemark>
        <Placemark id="667">
            <name>23</name>
            <Point id="666">
                <coordinates>80.33251896406239,13.33480292988142,0.0</coordinates>
            </Point>
        </Placemark>
        <Placemark id="669">
            <name>24</name>
            <Point id="668">
                <coordinates>80.33349771806724,13.334480241672388,0.0</coordinates>
            </Point>
        </Placemark>
        <Placemark id="671">
            <name>25</name>
            <Point id="670">
                <coordinates>80.33423728943268,13.333991936418975,0.0</coordinates>
            </Point>
        </Placemark>
        <Placemark id="673">
            <name>26</name>
            <Point id="672">
                <coordinates>80.33502044891229,13.333524361648205,0.0</coordinates>
            </Point>
        </Placemark>
        <Placemark id="675">
            <name>27</name>
            <Point id="674">
                <coordinates>80.33617610941427,13.333532340722256,0.0</coordinates>
            </Point>
        </Placemark>
        <Placemark id="677">
            <name>28</name>
            <Point id="676">
                <coordinates>80.33658020490164,13.334093240671974,0.0</coordinates>
            </Point>
        </Placemark>
        <Placemark id="679">
            <name>29</name>
            <Point id="678">
                <coordinates>80.3357354268124,13.334509813226548,0.0</coordinates>
            </Point>
        </Placemark>
        <Placemark id="681">
            <name>30</name>
            <Point id="680">
                <coordinates>80.33468194660277,13.334823358651407,0.0</coordinates>
            </Point>
        </Placemark>
        <Placemark id="683">
            <name>31</name>
            <Point id="682">
                <coordinates>80.33362846639314,13.335136904076267,0.0</coordinates>
            </Point>
        </Placemark>
        <Placemark id="685">
            <name>32</name>
            <Point id="684">
                <coordinates>80.3325344677139,13.335462508940543,0.0</coordinates>
            </Point>
        </Placemark>
        <Placemark id="687">
            <name>33</name>
            <Point id="686">
                <coordinates>80.33251905975153,13.33546709478474,0.0</coordinates>
            </Point>
        </Placemark>
        <Placemark id="689">
            <name>34</name>
            <Point id="688">
                <coordinates>80.3068563181006,13.335467590099853,0.0</coordinates>
            </Point>
        </Placemark>
        <Placemark id="691">
            <name>35</name>
            <Point id="690">
                <coordinates>80.30604040303801,13.335042722410561,0.0</coordinates>
            </Point>
        </Placemark>
        <Placemark id="693">
            <name>36</name>
            <Point id="692">
                <coordinates>80.30522038934195,13.334619703373711,0.0</coordinates>
            </Point>
        </Placemark>
        <Placemark id="695">
            <name>37</name>
            <Point id="694">
                <coordinates>80.30432934824418,13.3342029790203,0.0</coordinates>
            </Point>
        </Placemark>
        <Placemark id="697">
            <name>38</name>
            <Point id="696">
                <coordinates>80.30322002916171,13.334265549419172,0.0</coordinates>
            </Point>
        </Placemark>
        <Placemark id="699">
            <name>39</name>
            <Point id="698">
                <coordinates>80.30288721694818,13.334817811272272,0.0</coordinates>
            </Point>
        </Placemark>
        <Placemark id="701">
            <name>40</name>
            <Point id="700">
                <coordinates>80.30371114832613,13.335213885808836,0.0</coordinates>
            </Point>
        </Placemark>
        <Placemark id="703">
            <name>41</name>
            <Point id="702">
                <coordinates>80.30476999862609,13.335522894901493,0.0</coordinates>
            </Point>
        </Placemark>
        <Placemark id="705">
            <name>42</name>
            <Point id="704">
                <coordinates>80.30578812391451,13.335820019029049,0.0</coordinates>
            </Point>
        </Placemark>
        <Placemark id="707">
            <name>43</name>
            <Point id="706">
                <coordinates>80.30684697421447,13.336129028121707,0.0</coordinates>
            </Point>
        </Placemark>
        <Placemark id="709">
            <name>44</name>
            <Point id="708">
                <coordinates>80.3068563181006,13.33613175499044,0.0</coordinates>
            </Point>
        </Placemark>
        <Placemark id="711">
            <name>45</name>
            <Point id="710">
                <coordinates>80.33251915544774,13.336131259640664,0.0</coordinates>
            </Point>
        </Placemark>
        <Placemark id="713">
            <name>46</name>
            <Point id="712">
                <coordinates>80.33349791072972,13.33580857191321,0.0</coordinates>
            </Point>
        </Placemark>
        <Placemark id="715">
            <name>47</name>
            <Point id="714">
                <coordinates>80.33423748762942,13.335320268746639,0.0</coordinates>
            </Point>
        </Placemark>
        <Placemark id="717">
            <name>48</name>
            <Point id="716">
                <coordinates>80.33502065240833,13.334852696185699,0.0</coordinates>
            </Point>
        </Placemark>
        <Placemark id="719">
            <name>49</name>
            <Point id="718">
                <coordinates>80.33617631281986,13.334860678520652,0.0</coordinates>
            </Point>
        </Placemark>
        <Placemark id="721">
            <name>50</name>
            <Point id="720">
                <coordinates>80.3365804019502,13.335421579610589,0.0</coordinates>
            </Point>
        </Placemark>
        <Placemark id="723">
            <name>51</name>
            <Point id="722">
                <coordinates>80.33573561960104,13.335838150167378,0.0</coordinates>
            </Point>
        </Placemark>
        <Placemark id="725">
            <name>52</name>
            <Point id="724">
                <coordinates>80.33468213717057,13.336151693734509,0.0</coordinates>
            </Point>
        </Placemark>
        <Placemark id="727">
            <name>53</name>
            <Point id="726">
                <coordinates>80.33362865474011,13.33646523730164,0.0</coordinates>
            </Point>
        </Placemark>
        <Placemark id="729">
            <name>54</name>
            <Point id="728">
                <coordinates>80.33253465375462,13.336790840236738,0.0</coordinates>
            </Point>
        </Placemark>
        <Placemark id="731">
            <name>55</name>
            <Point id="730">
                <coordinates>80.332519251151,13.336795424449194,0.0</coordinates>
            </Point>
        </Placemark>
        <Placemark id="733">
            <name>56</name>
            <Point id="732">
                <coordinates>80.3068563181006,13.33679591983363,0.0</coordinates>
            </Point>
        </Placemark>
        <Placemark id="735">
            <name>57</name>
            <Point id="734">
                <coordinates>80.3060403999932,13.336371053613814,0.0</coordinates>
            </Point>
        </Placemark>
        <Placemark id="737">
            <name>58</name>
            <Point id="736">
                <coordinates>80.30522038298756,13.33594803617422,0.0</coordinates>
            </Point>
        </Placemark>
        <Placemark id="739">
            <name>59</name>
            <Point id="738">
                <coordinates>80.30432933862947,13.335531313556414,0.0</coordinates>
            </Point>
        </Placemark>
        <Placemark id="741">
            <name>60</name>
            <Point id="740">
                <coordinates>80.30322002003653,13.335593886116056,0.0</coordinates>
            </Point>
        </Placemark>
        <Placemark id="743">
            <name>61</name>
            <Point id="742">
                <coordinates>80.30288721214374,13.336146148617416,0.0</coordinates>
            </Point>
        </Placemark>
        <Placemark id="745">
            <name>62</name>
            <Point id="744">
                <coordinates>80.30371114647252,13.336542221675307,0.0</coordinates>
            </Point>
        </Placemark>
        <Placemark id="747">
            <name>63</name>
            <Point id="746">
                <coordinates>80.30476999876268,13.336851229070115,0.0</coordinates>
            </Point>
        </Placemark>
        <Placemark id="749">
            <name>64</name>
            <Point id="748">
                <coordinates>80.30578812596475,13.337148351565123,0.0</coordinates>
            </Point>
        </Placemark>
        <Placemark id="751">
            <name>65</name>
            <Point id="750">
                <coordinates>80.30684697825491,13.33745735895993,0.0</coordinates>
            </Point>
        </Placemark>
        <Placemark id="753">
            <name>66</name>
            <Point id="752">
                <coordinates>80.3068563181006,13.337460084629427,0.0</coordinates>
            </Point>
        </Placemark>
        <Placemark id="755">
            <name>67</name>
            <Point id="754">
                <coordinates>80.33251934686132,13.337459589210328,0.0</coordinates>
            </Point>
        </Placemark>
        <Placemark id="757">
            <name>68</name>
            <Point id="756">
                <coordinates>80.3334981034206,13.337136901964524,0.0</coordinates>
            </Point>
        </Placemark>
        <Placemark id="759">
            <name>69</name>
            <Point id="758">
                <coordinates>80.3342376858553,13.336648600885097,0.0</coordinates>
            </Point>
        </Placemark>
        <Placemark id="761">
            <name>70</name>
            <Point id="760">
                <coordinates>80.33502085593422,13.336181030534311,0.0</coordinates>
            </Point>
        </Placemark>
        <Placemark id="763">
            <name>71</name>
            <Point id="762">
                <coordinates>80.33617651625525,13.336189016130618,0.0</coordinates>
            </Point>
        </Placemark>
        <Placemark id="765">
            <name>72</name>
            <Point id="764">
                <coordinates>80.33658059902766,13.336749918360914,0.0</coordinates>
            </Point>
        </Placemark>
        <Placemark id="767">
            <name>73</name>
            <Point id="766">
                <coordinates>80.33573581241801,13.337166486919628,0.0</coordinates>
            </Point>
        </Placemark>
        <Placemark id="769">
            <name>74</name>
            <Point id="768">
                <coordinates>80.33468232776642,13.33748002862877,0.0</coordinates>
            </Point>
        </Placemark>
        <Placemark id="771">
            <name>75</name>
            <Point id="770">
                <coordinates>80.33362884311482,13.337793570337912,0.0</coordinates>
            </Point>
        </Placemark>
        <Placemark id="773">
            <name>76</name>
            <Point id="772">
                <coordinates>80.33253483982278,13.338119171343559,0.0</coordinates>
            </Point>
        </Placemark>
        <Placemark id="775">
            <name>77</name>
            <Point id="774">
                <coordinates>80.3325194425787,13.338123753924064,0.0</coordinates>
            </Point>
        </Placemark>
        <Placemark id="777">
            <name>78</name>
            <Point id="776">
                <coordinates>80.3068563181006,13.338124249377824,0.0</coordinates>
            </Point>
        </Placemark>
        <Placemark id="779">
            <name>79</name>
            <Point id="778">
                <coordinates>80.30604039694796,13.337699384627694,0.0</coordinates>
            </Point>
        </Placemark>
        <Placemark id="781">
            <name>80</name>
            <Point id="780">
                <coordinates>80.3052203766323,13.337276368785586,0.0</coordinates>
            </Point>
        </Placemark>
        <Placemark id="783">
            <name>81</name>
            <Point id="782">
                <coordinates>80.30432932901343,13.336859647903635,0.0</coordinates>
            </Point>
        </Placemark>
        <Placemark id="785">
            <name>82</name>
            <Point id="784">
                <coordinates>80.30322001091012,13.336922222624352,0.0</coordinates>
            </Point>
        </Placemark>
        <Placemark id="787">
            <name>83</name>
            <Point id="786">
                <coordinates>80.3028872073387,13.337474485774054,0.0</coordinates>
            </Point>
        </Placemark>
        <Placemark id="789">
            <name>84</name>
            <Point id="788">
                <coordinates>80.3037111446187,13.33787055735306,0.0</coordinates>
            </Point>
        </Placemark>
        <Placemark id="791">
            <name>85</name>
            <Point id="790">
                <coordinates>80.30476999889933,13.338179563049774,0.0</coordinates>
            </Point>
        </Placemark>
        <Placemark id="793">
            <name>86</name>
            <Point id="792">
                <coordinates>80.30578812801531,13.338476683912,0.0</coordinates>
            </Point>
        </Placemark>
        <Placemark id="795">
            <name>87</name>
            <Point id="794">
                <coordinates>80.30684698229592,13.338785689608716,0.0</coordinates>
            </Point>
        </Placemark>
        <Placemark id="797">
            <name>88</name>
            <Point id="796">
                <coordinates>80.3068563181006,13.338788414078817,0.0</coordinates>
            </Point>
        </Placemark>
        <Placemark id="799">
            <name>89</name>
            <Point id="798">
                <coordinates>80.33251953830315,13.338787918590395,0.0</coordinates>
            </Point>
        </Placemark>
        <Placemark id="801">
            <name>90</name>
            <Point id="800">
                <coordinates>80.33349829613991,13.33846523182631,0.0</coordinates>
            </Point>
        </Placemark>
        <Placemark id="803">
            <name>91</name>
            <Point id="802">
                <coordinates>80.33423788411037,13.337976932834337,0.0</coordinates>
            </Point>
        </Placemark>
        <Placemark id="805">
            <name>92</name>
            <Point id="804">
                <coordinates>80.33502105949002,13.337509364694027,0.0</coordinates>
            </Point>
        </Placemark>
        <Placemark id="807">
            <name>93</name>
            <Point id="806">
                <coordinates>80.3361767197205,13.337517353552144,0.0</coordinates>
            </Point>
        </Placemark>
        <Placemark id="809">
            <name>94</name>
            <Point id="808">
                <coordinates>80.33658079613407,13.33807825692294,0.0</coordinates>
            </Point>
        </Placemark>
        <Placemark id="811">
            <name>95</name>
            <Point id="810">
                <coordinates>80.33573600526334,13.33849482348329,0.0</coordinates>
            </Point>
        </Placemark>
        <Placemark id="813">
            <name>96</name>
            <Point id="812">
                <coordinates>80.33468251839032,13.338808363334175,0.0</coordinates>
            </Point>
        </Placemark>
        <Placemark id="815">
            <name>97</name>
            <Point id="814">
                <coordinates>80.3336290315173,13.339121903185061,0.0</coordinates>
            </Point>
        </Placemark>
        <Placemark id="817">
            <name>98</name>
            <Point id="816">
                <coordinates>80.3325350259184,13.339447502260983,0.0</coordinates>
            </Point>
        </Placemark>
        <Placemark id="819">
            <name>99</name>
            <Point id="818">
                <coordinates>80.33251963403465,13.339452083209316,0.0</coordinates>
            </Point>
        </Placemark>
        <Placemark id="821">
            <name>100</name>
            <Point id="820">
                <coordinates>80.3068563181006,13.3394525787324,0.0</coordinates>
            </Point>
        </Placemark>
    </Document>
</kml>
