<?xml version="1.0" encoding="UTF-8"?>
<kml xmlns="http://www.opengis.net/kml/2.2" xmlns:gx="http://www.google.com/kml/ext/2.2">
    <Document id="1647">
        <Style id="1650">
            <LineStyle id="1651">
                <color>ffff0000</color>
                <colorMode>normal</colorMode>
                <width>2</width>
            </LineStyle>
        </Style>
        <Placemark id="1649">
            <styleUrl>#1650</styleUrl>
            <LineString id="1648">
                <altitudeMode>clampToGround</altitudeMode>
                <coordinates>80.2892164883118,13.344581200856211,0.0 80.3020485160309,13.344581076908524,0.0 80.3020485160309,13.344581076908524,0.0 80.30302727944107,13.344258392246157,0.0 80.30302727944107,13.344258392246157,0.0 80.30376689156294,13.343770102361631,0.0 80.30376689156294,13.343770102361631,0.0 80.30455009006864,13.3433025438655,0.0 80.30455009006864,13.3433025438655,0.0 80.30570574990364,13.343310546954434,0.0 80.30570574990364,13.343310546954434,0.0 80.30610979857437,13.343871455300864,0.0 80.30610979857437,13.343871455300864,0.0 80.30526498783588,13.344288012073768,0.0 80.30526498783588,13.344288012073768,0.0 80.3042114875806,13.344601540729876,0.0 80.3042114875806,13.344601540729876,0.0 80.3031579873253,13.344915069385985,0.0 80.3031579873253,13.344915069385985,0.0 80.30206396782943,13.345240656836559,0.0 80.30206396782943,13.345240656836559,0.0 80.30204856392744,13.34524524113985,0.0 80.30204856392744,13.34524524113985,0.0 80.2892164883118,13.345245365096204,0.0 80.2892164883118,13.345245365096204,0.0 80.28694809135719,13.34407127359576,0.0</coordinates>
            </LineString>
        </Placemark>
        <Placemark id="1653">
            <name>0</name>
            <Point id="1652">
                <coordinates>80.2892164883118,13.344581200856211,0.0</coordinates>
            </Point>
        </Placemark>
        <Placemark id="1655">
            <name>1</name>
            <Point id="1654">
                <coordinates>80.3020485160309,13.344581076908524,0.0</coordinates>
            </Point>
        </Placemark>
        <Placemark id="1657">
            <name>2</name>
            <Point id="1656">
                <coordinates>80.30302727944107,13.344258392246157,0.0</coordinates>
            </Point>
        </Placemark>
        <Placemark id="1659">
            <name>3</name>
            <Point id="1658">
                <coordinates>80.30376689156294,13.343770102361631,0.0</coordinates>
            </Point>
        </Placemark>
        <Placemark id="1661">
            <name>4</name>
            <Point id="1660">
                <coordinates>80.30455009006864,13.3433025438655,0.0</coordinates>
            </Point>
        </Placemark>
        <Placemark id="1663">
            <name>5</name>
            <Point id="1662">
                <coordinates>80.30570574990364,13.343310546954434,0.0</coordinates>
            </Point>
        </Placemark>
        <Placemark id="1665">
            <name>6</name>
            <Point id="1664">
                <coordinates>80.30610979857437,13.343871455300864,0.0</coordinates>
            </Point>
        </Placemark>
        <Placemark id="1667">
            <name>7</name>
            <Point id="1666">
                <coordinates>80.30526498783588,13.344288012073768,0.0</coordinates>
            </Point>
        </Placemark>
        <Placemark id="1669">
            <name>8</name>
            <Point id="1668">
                <coordinates>80.3042114875806,13.344601540729876,0.0</coordinates>
            </Point>
        </Placemark>
        <Placemark id="1671">
            <name>9</name>
            <Point id="1670">
                <coordinates>80.3031579873253,13.344915069385985,0.0</coordinates>
            </Point>
        </Placemark>
        <Placemark id="1673">
            <name>10</name>
            <Point id="1672">
                <coordinates>80.30206396782943,13.345240656836559,0.0</coordinates>
            </Point>
        </Placemark>
        <Placemark id="1675">
            <name>11</name>
            <Point id="1674">
                <coordinates>80.30204856392744,13.34524524113985,0.0</coordinates>
            </Point>
        </Placemark>
        <Placemark id="1677">
            <name>12</name>
            <Point id="1676">
                <coordinates>80.2892164883118,13.345245365096204,0.0</coordinates>
            </Point>
        </Placemark>
    </Document>
</kml>
