<?xml version="1.0" encoding="UTF-8"?>
<kml xmlns="http://www.opengis.net/kml/2.2" xmlns:gx="http://www.google.com/kml/ext/2.2">
    <Document id="2853">
        <Style id="2856">
            <LineStyle id="2857">
                <color>ffff0000</color>
                <colorMode>normal</colorMode>
                <width>2</width>
            </LineStyle>
        </Style>
        <Placemark id="2855">
            <styleUrl>#2856</styleUrl>
            <LineString id="2854">
                <altitudeMode>clampToGround</altitudeMode>
                <coordinates>80.28404940537139,13.329968549626363,0.0 80.29688038018577,13.329968425869323,0.0 80.29688038018577,13.329968425869323,0.0 80.29783068526582,13.329664517171473,0.0 80.29783068526582,13.329664517171473,0.0 80.29857023649546,13.329176204325517,0.0 80.29857023649546,13.329176204325517,0.0 80.29930539795879,13.328717434398918,0.0 80.29930539795879,13.328717434398918,0.0 80.30045768683149,13.32867270184609,0.0 80.30045768683149,13.32867270184609,0.0 80.30097548960308,13.329166195962763,0.0 80.30097548960308,13.329166195962763,0.0 80.30024692733227,13.329615383439728,0.0 80.30024692733227,13.329615383439728,0.0 80.2991547936531,13.32983764483924,0.0 80.2991547936531,13.32983764483924,0.0 80.29801897462677,13.33006879669473,0.0 80.29801897462677,13.33006879669473,0.0 80.29688315560045,13.330299948550222,0.0 80.29688315560045,13.330299948550222,0.0 80.29688040409478,13.330300508512353,0.0 80.29688040409478,13.330300508512353,0.0 80.28404940537139,13.330300632273723,0.0 80.28404940537139,13.330300632273723,0.0 80.28326630218169,13.329892679880363,0.0 80.28326630218169,13.329892679880363,0.0 80.282446301355,13.329469654632671,0.0 80.282446301355,13.329469654632671,0.0 80.28160503983342,13.329058767458946,0.0 80.28160503983342,13.329058767458946,0.0 80.28048890365176,13.3290705133291,0.0 80.28048890365176,13.3290705133291,0.0 80.28004086249655,13.329558868090714,0.0 80.28004086249655,13.329558868090714,0.0 80.28075175276825,13.32998901470484,0.0 80.28075175276825,13.32998901470484,0.0 80.28185017220767,13.330203425651884,0.0 80.28185017220767,13.330203425651884,0.0 80.28294859164707,13.33041783659893,0.0 80.28294859164707,13.33041783659893,0.0 80.28404701108649,13.330632247545973,0.0 80.28404701108649,13.330632247545973,0.0 80.28404940537139,13.330632714909239,0.0 80.28404940537139,13.330632714909239,0.0 80.29688042800466,13.330632591143537,0.0 80.29688042800466,13.330632591143537,0.0 80.29783073361656,13.330328682646229,0.0 80.29783073361656,13.330328682646229,0.0 80.29857028761187,13.329840370843096,0.0 80.29857028761187,13.329840370843096,0.0 80.29930545167356,13.32938160195313,0.0 80.29930545167356,13.32938160195313,0.0 80.3004577407996,13.329336871025115,0.0 80.3004577407996,13.329336871025115,0.0 80.30097554077616,13.329830365871926,0.0 80.30097554077616,13.329830365871926,0.0 80.30024697599214,13.330279552359322,0.0 80.30024697599214,13.330279552359322,0.0 80.29915484143996,13.330501812690812,0.0 80.29915484143996,13.330501812690812,0.0 80.29801902150568,13.330732963435565,0.0 80.29801902150568,13.330732963435565,0.0 80.2968832015714,13.330964114180317,0.0 80.2968832015714,13.330964114180317,0.0 80.29688045191541,13.33096467376288,0.0 80.29688045191541,13.33096467376288,0.0 80.28404940537139,13.330964797532912,0.0 80.28404940537139,13.330964797532912,0.0 80.2832663007263,13.330556845841928,0.0 80.2832663007263,13.330556845841928,0.0 80.28244629824574,13.330133821392385,0.0 80.28244629824574,13.330133821392385,0.0 80.28160503511776,13.329722935037505,0.0 80.28160503511776,13.329722935037505,0.0 80.28048889898204,13.329734681994054,0.0 80.28048889898204,13.329734681994054,0.0 80.28004085973609,13.330223037191772,0.0 80.28004085973609,13.330223037191772,0.0 80.28075175168667,13.330653183117562,0.0 80.28075175168667,13.330653183117562,0.0 80.28185017189351,13.330867593085783,0.0 80.28185017189351,13.330867593085783,0.0 80.28294859210035,13.331082003054002,0.0 80.28294859210035,13.331082003054002,0.0 80.2840470123072,13.331296413022223,0.0 80.2840470123072,13.331296413022223,0.0 80.28404940537139,13.331296880144745,0.0 80.28404940537139,13.331296880144745,0.0 80.29688047582705,13.331296756370376,0.0 80.29688047582705,13.331296756370376,0.0 80.29783078197086,13.330992848073627,0.0 80.29783078197086,13.330992848073627,0.0 80.29857033873203,13.330504537313399,0.0 80.29857033873203,13.330504537313399,0.0 80.29930550539225,13.330045769460147,0.0 80.29930550539225,13.330045769460147,0.0 80.30045779477166,13.330001040157063,0.0 80.30045779477166,13.330001040157063,0.0 80.30097559195299,13.330494535734061,0.0 80.30097559195299,13.330494535734061,0.0 80.30024702465558,13.33094372123181,0.0 80.30024702465558,13.33094372123181,0.0 80.2991548892303,13.331165980495205,0.0 80.2991548892303,13.331165980495205,0.0 80.29801906838802,13.331397130129137,0.0 80.29801906838802,13.331397130129137,0.0 80.29688324754574,13.331628279763068,0.0 80.29688324754574,13.331628279763068,0.0 80.29688049973959,13.331628838966035,0.0 80.29688049973959,13.331628838966035,0.0 80.28404940537139,13.331628962744734,0.0 80.28404940537139,13.331628962744734,0.0 80.28326629927079,13.331221011756174,0.0 80.28326629927079,13.331221011756174,0.0 80.28244629513628,13.330797988104843,0.0 80.28244629513628,13.330797988104843,0.0 80.28160503040179,13.330387102568869,0.0 80.28160503040179,13.330387102568869,0.0 80.28048889431199,13.33039885061189,0.0 80.28048889431199,13.33039885061189,0.0 80.28004085697546,13.330887206245736,0.0 80.28004085697546,13.330887206245736,0.0 80.280751750605,13.33131735148314,0.0 80.280751750605,13.33131735148314,0.0 80.28185017157934,13.331531760472467,0.0 80.28185017157934,13.331531760472467,0.0 80.28294859255368,13.331746169461793,0.0 80.28294859255368,13.331746169461793,0.0 80.28404701352801,13.33196057845112,0.0 80.28404701352801,13.33196057845112,0.0 80.28404940537139,13.331961045332882,0.0 80.28404940537139,13.331961045332882,0.0 80.296880523653,13.331960921549852,0.0 80.296880523653,13.331960921549852,0.0 80.29783083032873,13.331657013453675,0.0 80.29783083032873,13.331657013453675,0.0 80.29857038985597,13.331168703736424,0.0 80.29857038985597,13.331168703736424,0.0 80.29930555911488,13.330709936919957,0.0 80.29930555911488,13.330709936919957,0.0 80.30045784874766,13.330665209241912,0.0 80.30045784874766,13.330665209241912,0.0 80.30097564313357,13.331158705549143,0.0 80.30097564313357,13.331158705549143,0.0 80.3002470733226,13.331607890057175,0.0 80.3002470733226,13.331607890057175,0.0 80.29915493702418,13.3318301482524,0.0 80.29915493702418,13.3318301482524,0.0 80.29801911527383,13.332061296775434,0.0 80.29801911527383,13.332061296775434,0.0 80.29688329352349,13.332292445298469,0.0 80.29688329352349,13.332292445298469,0.0 80.29688054756728,13.332293004121825,0.0 80.29688054756728,13.332293004121825,0.0 80.28404940537139,13.332293127909185,0.0 80.28404940537139,13.332293127909185,0.0 80.2832662978152,13.3318851776231,0.0 80.2832662978152,13.3318851776231,0.0 80.2824462920266,13.331462154770037,0.0 80.2824462920266,13.331462154770037,0.0 80.2816050256855,13.331051270053027,0.0 80.2816050256855,13.331051270053027,0.0 80.28048888964163,13.331063019182595,0.0 80.28048888964163,13.331063019182595,0.0 80.28004085421463,13.331551375252602,0.0 80.28004085421463,13.331551375252602,0.0 80.28075174952329,13.331981519801571,0.0 80.28075174952329,13.331981519801571,0.0 80.28185017126516,13.332195927811933,0.0 80.28185017126516,13.332195927811933,0.0 80.28294859300703,13.332410335822294,0.0 80.28294859300703,13.332410335822294,0.0 80.28404701474892,13.332624743832653,0.0 80.28404701474892,13.332624743832653,0.0 80.28404940537139,13.332625210473644,0.0 80.28404940537139,13.332625210473644,0.0 80.29688057148248,13.332625086681949,0.0 80.29688057148248,13.332625086681949,0.0 80.29783087869018,13.332321178786358,0.0 80.29783087869018,13.332321178786358,0.0 80.29857044098365,13.331832870112164,0.0 80.29857044098365,13.331832870112164,0.0 80.29930561284145,13.33137410433256,0.0 80.29930561284145,13.33137410433256,0.0 80.30045790272759,13.331329378279673,0.0 80.30045790272759,13.331329378279673,0.0 80.30097569431787,13.331822875317183,0.0 80.30097569431787,13.331822875317183,0.0 80.30024712199318,13.332272058835427,0.0 80.30024712199318,13.332272058835427,0.0 80.29915498482157,13.332494315962405,0.0 80.29915498482157,13.332494315962405,0.0 80.2980191621631,13.332725463374462,0.0 80.2980191621631,13.332725463374462,0.0 80.29688333950462,13.33295661078652,0.0 80.29688333950462,13.33295661078652,0.0 80.29688059539853,13.332957169230232,0.0 80.29688059539853,13.332957169230232,0.0 80.28404940537139,13.33295729302626,0.0 80.28404940537139,13.33295729302626,0.0 80.28178116494779,13.331783199980388,0.0</coordinates>
            </LineString>
        </Placemark>
        <Placemark id="2859">
            <name>0</name>
            <Point id="2858">
                <coordinates>80.28404940537139,13.329968549626363,0.0</coordinates>
            </Point>
        </Placemark>
        <Placemark id="2861">
            <name>1</name>
            <Point id="2860">
                <coordinates>80.29688038018577,13.329968425869323,0.0</coordinates>
            </Point>
        </Placemark>
        <Placemark id="2863">
            <name>2</name>
            <Point id="2862">
                <coordinates>80.29783068526582,13.329664517171473,0.0</coordinates>
            </Point>
        </Placemark>
        <Placemark id="2865">
            <name>3</name>
            <Point id="2864">
                <coordinates>80.29857023649546,13.329176204325517,0.0</coordinates>
            </Point>
        </Placemark>
        <Placemark id="2867">
            <name>4</name>
            <Point id="2866">
                <coordinates>80.29930539795879,13.328717434398918,0.0</coordinates>
            </Point>
        </Placemark>
        <Placemark id="2869">
            <name>5</name>
            <Point id="2868">
                <coordinates>80.30045768683149,13.32867270184609,0.0</coordinates>
            </Point>
        </Placemark>
        <Placemark id="2871">
            <name>6</name>
            <Point id="2870">
                <coordinates>80.30097548960308,13.329166195962763,0.0</coordinates>
            </Point>
        </Placemark>
        <Placemark id="2873">
            <name>7</name>
            <Point id="2872">
                <coordinates>80.30024692733227,13.329615383439728,0.0</coordinates>
            </Point>
        </Placemark>
        <Placemark id="2875">
            <name>8</name>
            <Point id="2874">
                <coordinates>80.2991547936531,13.32983764483924,0.0</coordinates>
            </Point>
        </Placemark>
        <Placemark id="2877">
            <name>9</name>
            <Point id="2876">
                <coordinates>80.29801897462677,13.33006879669473,0.0</coordinates>
            </Point>
        </Placemark>
        <Placemark id="2879">
            <name>10</name>
            <Point id="2878">
                <coordinates>80.29688315560045,13.330299948550222,0.0</coordinates>
            </Point>
        </Placemark>
        <Placemark id="2881">
            <name>11</name>
            <Point id="2880">
                <coordinates>80.29688040409478,13.330300508512353,0.0</coordinates>
            </Point>
        </Placemark>
        <Placemark id="2883">
            <name>12</name>
            <Point id="2882">
                <coordinates>80.28404940537139,13.330300632273723,0.0</coordinates>
            </Point>
        </Placemark>
        <Placemark id="2885">
            <name>13</name>
            <Point id="2884">
                <coordinates>80.28326630218169,13.329892679880363,0.0</coordinates>
            </Point>
        </Placemark>
        <Placemark id="2887">
            <name>14</name>
            <Point id="2886">
                <coordinates>80.282446301355,13.329469654632671,0.0</coordinates>
            </Point>
        </Placemark>
        <Placemark id="2889">
            <name>15</name>
            <Point id="2888">
                <coordinates>80.28160503983342,13.329058767458946,0.0</coordinates>
            </Point>
        </Placemark>
        <Placemark id="2891">
            <name>16</name>
            <Point id="2890">
                <coordinates>80.28048890365176,13.3290705133291,0.0</coordinates>
            </Point>
        </Placemark>
        <Placemark id="2893">
            <name>17</name>
            <Point id="2892">
                <coordinates>80.28004086249655,13.329558868090714,0.0</coordinates>
            </Point>
        </Placemark>
        <Placemark id="2895">
            <name>18</name>
            <Point id="2894">
                <coordinates>80.28075175276825,13.32998901470484,0.0</coordinates>
            </Point>
        </Placemark>
        <Placemark id="2897">
            <name>19</name>
            <Point id="2896">
                <coordinates>80.28185017220767,13.330203425651884,0.0</coordinates>
            </Point>
        </Placemark>
        <Placemark id="2899">
            <name>20</name>
            <Point id="2898">
                <coordinates>80.28294859164707,13.33041783659893,0.0</coordinates>
            </Point>
        </Placemark>
        <Placemark id="2901">
            <name>21</name>
            <Point id="2900">
                <coordinates>80.28404701108649,13.330632247545973,0.0</coordinates>
            </Point>
        </Placemark>
        <Placemark id="2903">
            <name>22</name>
            <Point id="2902">
                <coordinates>80.28404940537139,13.330632714909239,0.0</coordinates>
            </Point>
        </Placemark>
        <Placemark id="2905">
            <name>23</name>
            <Point id="2904">
                <coordinates>80.29688042800466,13.330632591143537,0.0</coordinates>
            </Point>
        </Placemark>
        <Placemark id="2907">
            <name>24</name>
            <Point id="2906">
                <coordinates>80.29783073361656,13.330328682646229,0.0</coordinates>
            </Point>
        </Placemark>
        <Placemark id="2909">
            <name>25</name>
            <Point id="2908">
                <coordinates>80.29857028761187,13.329840370843096,0.0</coordinates>
            </Point>
        </Placemark>
        <Placemark id="2911">
            <name>26</name>
            <Point id="2910">
                <coordinates>80.29930545167356,13.32938160195313,0.0</coordinates>
            </Point>
        </Placemark>
        <Placemark id="2913">
            <name>27</name>
            <Point id="2912">
                <coordinates>80.3004577407996,13.329336871025115,0.0</coordinates>
            </Point>
        </Placemark>
        <Placemark id="2915">
            <name>28</name>
            <Point id="2914">
                <coordinates>80.30097554077616,13.329830365871926,0.0</coordinates>
            </Point>
        </Placemark>
        <Placemark id="2917">
            <name>29</name>
            <Point id="2916">
                <coordinates>80.30024697599214,13.330279552359322,0.0</coordinates>
            </Point>
        </Placemark>
        <Placemark id="2919">
            <name>30</name>
            <Point id="2918">
                <coordinates>80.29915484143996,13.330501812690812,0.0</coordinates>
            </Point>
        </Placemark>
        <Placemark id="2921">
            <name>31</name>
            <Point id="2920">
                <coordinates>80.29801902150568,13.330732963435565,0.0</coordinates>
            </Point>
        </Placemark>
        <Placemark id="2923">
            <name>32</name>
            <Point id="2922">
                <coordinates>80.2968832015714,13.330964114180317,0.0</coordinates>
            </Point>
        </Placemark>
        <Placemark id="2925">
            <name>33</name>
            <Point id="2924">
                <coordinates>80.29688045191541,13.33096467376288,0.0</coordinates>
            </Point>
        </Placemark>
        <Placemark id="2927">
            <name>34</name>
            <Point id="2926">
                <coordinates>80.28404940537139,13.330964797532912,0.0</coordinates>
            </Point>
        </Placemark>
        <Placemark id="2929">
            <name>35</name>
            <Point id="2928">
                <coordinates>80.2832663007263,13.330556845841928,0.0</coordinates>
            </Point>
        </Placemark>
        <Placemark id="2931">
            <name>36</name>
            <Point id="2930">
                <coordinates>80.28244629824574,13.330133821392385,0.0</coordinates>
            </Point>
        </Placemark>
        <Placemark id="2933">
            <name>37</name>
            <Point id="2932">
                <coordinates>80.28160503511776,13.329722935037505,0.0</coordinates>
            </Point>
        </Placemark>
        <Placemark id="2935">
            <name>38</name>
            <Point id="2934">
                <coordinates>80.28048889898204,13.329734681994054,0.0</coordinates>
            </Point>
        </Placemark>
        <Placemark id="2937">
            <name>39</name>
            <Point id="2936">
                <coordinates>80.28004085973609,13.330223037191772,0.0</coordinates>
            </Point>
        </Placemark>
        <Placemark id="2939">
            <name>40</name>
            <Point id="2938">
                <coordinates>80.28075175168667,13.330653183117562,0.0</coordinates>
            </Point>
        </Placemark>
        <Placemark id="2941">
            <name>41</name>
            <Point id="2940">
                <coordinates>80.28185017189351,13.330867593085783,0.0</coordinates>
            </Point>
        </Placemark>
        <Placemark id="2943">
            <name>42</name>
            <Point id="2942">
                <coordinates>80.28294859210035,13.331082003054002,0.0</coordinates>
            </Point>
        </Placemark>
        <Placemark id="2945">
            <name>43</name>
            <Point id="2944">
                <coordinates>80.2840470123072,13.331296413022223,0.0</coordinates>
            </Point>
        </Placemark>
        <Placemark id="2947">
            <name>44</name>
            <Point id="2946">
                <coordinates>80.28404940537139,13.331296880144745,0.0</coordinates>
            </Point>
        </Placemark>
        <Placemark id="2949">
            <name>45</name>
            <Point id="2948">
                <coordinates>80.29688047582705,13.331296756370376,0.0</coordinates>
            </Point>
        </Placemark>
        <Placemark id="2951">
            <name>46</name>
            <Point id="2950">
                <coordinates>80.29783078197086,13.330992848073627,0.0</coordinates>
            </Point>
        </Placemark>
        <Placemark id="2953">
            <name>47</name>
            <Point id="2952">
                <coordinates>80.29857033873203,13.330504537313399,0.0</coordinates>
            </Point>
        </Placemark>
        <Placemark id="2955">
            <name>48</name>
            <Point id="2954">
                <coordinates>80.29930550539225,13.330045769460147,0.0</coordinates>
            </Point>
        </Placemark>
        <Placemark id="2957">
            <name>49</name>
            <Point id="2956">
                <coordinates>80.30045779477166,13.330001040157063,0.0</coordinates>
            </Point>
        </Placemark>
        <Placemark id="2959">
            <name>50</name>
            <Point id="2958">
                <coordinates>80.30097559195299,13.330494535734061,0.0</coordinates>
            </Point>
        </Placemark>
        <Placemark id="2961">
            <name>51</name>
            <Point id="2960">
                <coordinates>80.30024702465558,13.33094372123181,0.0</coordinates>
            </Point>
        </Placemark>
        <Placemark id="2963">
            <name>52</name>
            <Point id="2962">
                <coordinates>80.2991548892303,13.331165980495205,0.0</coordinates>
            </Point>
        </Placemark>
        <Placemark id="2965">
            <name>53</name>
            <Point id="2964">
                <coordinates>80.29801906838802,13.331397130129137,0.0</coordinates>
            </Point>
        </Placemark>
        <Placemark id="2967">
            <name>54</name>
            <Point id="2966">
                <coordinates>80.29688324754574,13.331628279763068,0.0</coordinates>
            </Point>
        </Placemark>
        <Placemark id="2969">
            <name>55</name>
            <Point id="2968">
                <coordinates>80.29688049973959,13.331628838966035,0.0</coordinates>
            </Point>
        </Placemark>
        <Placemark id="2971">
            <name>56</name>
            <Point id="2970">
                <coordinates>80.28404940537139,13.331628962744734,0.0</coordinates>
            </Point>
        </Placemark>
        <Placemark id="2973">
            <name>57</name>
            <Point id="2972">
                <coordinates>80.28326629927079,13.331221011756174,0.0</coordinates>
            </Point>
        </Placemark>
        <Placemark id="2975">
            <name>58</name>
            <Point id="2974">
                <coordinates>80.28244629513628,13.330797988104843,0.0</coordinates>
            </Point>
        </Placemark>
        <Placemark id="2977">
            <name>59</name>
            <Point id="2976">
                <coordinates>80.28160503040179,13.330387102568869,0.0</coordinates>
            </Point>
        </Placemark>
        <Placemark id="2979">
            <name>60</name>
            <Point id="2978">
                <coordinates>80.28048889431199,13.33039885061189,0.0</coordinates>
            </Point>
        </Placemark>
        <Placemark id="2981">
            <name>61</name>
            <Point id="2980">
                <coordinates>80.28004085697546,13.330887206245736,0.0</coordinates>
            </Point>
        </Placemark>
        <Placemark id="2983">
            <name>62</name>
            <Point id="2982">
                <coordinates>80.280751750605,13.33131735148314,0.0</coordinates>
            </Point>
        </Placemark>
        <Placemark id="2985">
            <name>63</name>
            <Point id="2984">
                <coordinates>80.28185017157934,13.331531760472467,0.0</coordinates>
            </Point>
        </Placemark>
        <Placemark id="2987">
            <name>64</name>
            <Point id="2986">
                <coordinates>80.28294859255368,13.331746169461793,0.0</coordinates>
            </Point>
        </Placemark>
        <Placemark id="2989">
            <name>65</name>
            <Point id="2988">
                <coordinates>80.28404701352801,13.33196057845112,0.0</coordinates>
            </Point>
        </Placemark>
        <Placemark id="2991">
            <name>66</name>
            <Point id="2990">
                <coordinates>80.28404940537139,13.331961045332882,0.0</coordinates>
            </Point>
        </Placemark>
        <Placemark id="2993">
            <name>67</name>
            <Point id="2992">
                <coordinates>80.296880523653,13.331960921549852,0.0</coordinates>
            </Point>
        </Placemark>
        <Placemark id="2995">
            <name>68</name>
            <Point id="2994">
                <coordinates>80.29783083032873,13.331657013453675,0.0</coordinates>
            </Point>
        </Placemark>
        <Placemark id="2997">
            <name>69</name>
            <Point id="2996">
                <coordinates>80.29857038985597,13.331168703736424,0.0</coordinates>
            </Point>
        </Placemark>
        <Placemark id="2999">
            <name>70</name>
            <Point id="2998">
                <coordinates>80.29930555911488,13.330709936919957,0.0</coordinates>
            </Point>
        </Placemark>
        <Placemark id="3001">
            <name>71</name>
            <Point id="3000">
                <coordinates>80.30045784874766,13.330665209241912,0.0</coordinates>
            </Point>
        </Placemark>
        <Placemark id="3003">
            <name>72</name>
            <Point id="3002">
                <coordinates>80.30097564313357,13.331158705549143,0.0</coordinates>
            </Point>
        </Placemark>
        <Placemark id="3005">
            <name>73</name>
            <Point id="3004">
                <coordinates>80.3002470733226,13.331607890057175,0.0</coordinates>
            </Point>
        </Placemark>
        <Placemark id="3007">
            <name>74</name>
            <Point id="3006">
                <coordinates>80.29915493702418,13.3318301482524,0.0</coordinates>
            </Point>
        </Placemark>
        <Placemark id="3009">
            <name>75</name>
            <Point id="3008">
                <coordinates>80.29801911527383,13.332061296775434,0.0</coordinates>
            </Point>
        </Placemark>
        <Placemark id="3011">
            <name>76</name>
            <Point id="3010">
                <coordinates>80.29688329352349,13.332292445298469,0.0</coordinates>
            </Point>
        </Placemark>
        <Placemark id="3013">
            <name>77</name>
            <Point id="3012">
                <coordinates>80.29688054756728,13.332293004121825,0.0</coordinates>
            </Point>
        </Placemark>
        <Placemark id="3015">
            <name>78</name>
            <Point id="3014">
                <coordinates>80.28404940537139,13.332293127909185,0.0</coordinates>
            </Point>
        </Placemark>
        <Placemark id="3017">
            <name>79</name>
            <Point id="3016">
                <coordinates>80.2832662978152,13.3318851776231,0.0</coordinates>
            </Point>
        </Placemark>
        <Placemark id="3019">
            <name>80</name>
            <Point id="3018">
                <coordinates>80.2824462920266,13.331462154770037,0.0</coordinates>
            </Point>
        </Placemark>
        <Placemark id="3021">
            <name>81</name>
            <Point id="3020">
                <coordinates>80.2816050256855,13.331051270053027,0.0</coordinates>
            </Point>
        </Placemark>
        <Placemark id="3023">
            <name>82</name>
            <Point id="3022">
                <coordinates>80.28048888964163,13.331063019182595,0.0</coordinates>
            </Point>
        </Placemark>
        <Placemark id="3025">
            <name>83</name>
            <Point id="3024">
                <coordinates>80.28004085421463,13.331551375252602,0.0</coordinates>
            </Point>
        </Placemark>
        <Placemark id="3027">
            <name>84</name>
            <Point id="3026">
                <coordinates>80.28075174952329,13.331981519801571,0.0</coordinates>
            </Point>
        </Placemark>
        <Placemark id="3029">
            <name>85</name>
            <Point id="3028">
                <coordinates>80.28185017126516,13.332195927811933,0.0</coordinates>
            </Point>
        </Placemark>
        <Placemark id="3031">
            <name>86</name>
            <Point id="3030">
                <coordinates>80.28294859300703,13.332410335822294,0.0</coordinates>
            </Point>
        </Placemark>
        <Placemark id="3033">
            <name>87</name>
            <Point id="3032">
                <coordinates>80.28404701474892,13.332624743832653,0.0</coordinates>
            </Point>
        </Placemark>
        <Placemark id="3035">
            <name>88</name>
            <Point id="3034">
                <coordinates>80.28404940537139,13.332625210473644,0.0</coordinates>
            </Point>
        </Placemark>
        <Placemark id="3037">
            <name>89</name>
            <Point id="3036">
                <coordinates>80.29688057148248,13.332625086681949,0.0</coordinates>
            </Point>
        </Placemark>
        <Placemark id="3039">
            <name>90</name>
            <Point id="3038">
                <coordinates>80.29783087869018,13.332321178786358,0.0</coordinates>
            </Point>
        </Placemark>
        <Placemark id="3041">
            <name>91</name>
            <Point id="3040">
                <coordinates>80.29857044098365,13.331832870112164,0.0</coordinates>
            </Point>
        </Placemark>
        <Placemark id="3043">
            <name>92</name>
            <Point id="3042">
                <coordinates>80.29930561284145,13.33137410433256,0.0</coordinates>
            </Point>
        </Placemark>
        <Placemark id="3045">
            <name>93</name>
            <Point id="3044">
                <coordinates>80.30045790272759,13.331329378279673,0.0</coordinates>
            </Point>
        </Placemark>
        <Placemark id="3047">
            <name>94</name>
            <Point id="3046">
                <coordinates>80.30097569431787,13.331822875317183,0.0</coordinates>
            </Point>
        </Placemark>
        <Placemark id="3049">
            <name>95</name>
            <Point id="3048">
                <coordinates>80.30024712199318,13.332272058835427,0.0</coordinates>
            </Point>
        </Placemark>
        <Placemark id="3051">
            <name>96</name>
            <Point id="3050">
                <coordinates>80.29915498482157,13.332494315962405,0.0</coordinates>
            </Point>
        </Placemark>
        <Placemark id="3053">
            <name>97</name>
            <Point id="3052">
                <coordinates>80.2980191621631,13.332725463374462,0.0</coordinates>
            </Point>
        </Placemark>
        <Placemark id="3055">
            <name>98</name>
            <Point id="3054">
                <coordinates>80.29688333950462,13.33295661078652,0.0</coordinates>
            </Point>
        </Placemark>
        <Placemark id="3057">
            <name>99</name>
            <Point id="3056">
                <coordinates>80.29688059539853,13.332957169230232,0.0</coordinates>
            </Point>
        </Placemark>
        <Placemark id="3059">
            <name>100</name>
            <Point id="3058">
                <coordinates>80.28404940537139,13.33295729302626,0.0</coordinates>
            </Point>
        </Placemark>
    </Document>
</kml>
