<?xml version="1.0" encoding="UTF-8"?>
<kml xmlns="http://www.opengis.net/kml/2.2" xmlns:gx="http://www.google.com/kml/ext/2.2">
    <Document id="13991">
        <Style id="13994">
            <LineStyle id="13995">
                <color>ffff0000</color>
                <colorMode>normal</colorMode>
                <width>2</width>
            </LineStyle>
        </Style>
        <Placemark id="13993">
            <styleUrl>#13994</styleUrl>
            <LineString id="13992">
                <altitudeMode>clampToGround</altitudeMode>
                <coordinates>80.10356406053302,12.916396912913044,0.0 80.12199368100295,12.916396262999308,0.0 80.12199368100295,12.916396262999308,0.0 80.12267779714276,12.915976091847895,0.0 80.12267779714276,12.915976091847895,0.0 80.12319571961805,12.915330497720326,0.0 80.12319571961805,12.915330497720326,0.0 80.12373075757779,12.914699994676328,0.0 80.12373075757779,12.914699994676328,0.0 80.12452947505666,12.914630619275904,0.0 80.12452947505666,12.914630619275904,0.0 80.12492360337198,12.915334154525356,0.0 80.12492360337198,12.915334154525356,0.0 80.12442488780346,12.915939228677171,0.0 80.12442488780346,12.915939228677171,0.0 80.12363506786284,12.916234534665751,0.0 80.12363506786284,12.916234534665751,0.0 80.12284524792221,12.91652984065433,0.0 80.12284524792221,12.91652984065433,0.0 80.12202383518397,12.916836958882453,0.0 80.12202383518397,12.916836958882453,0.0 80.12199371413074,12.916848220851088,0.0 80.12199371413074,12.916848220851088,0.0 80.10356406053302,12.916848870788327,0.0 80.10356406053302,12.916848870788327,0.0 80.10299655540969,12.916288072742905,0.0 80.10299655540969,12.916288072742905,0.0 80.10242565599388,12.9157302600639,0.0 80.10242565599388,12.9157302600639,0.0 80.10181585941694,12.91516616556247,0.0 80.10181585941694,12.91516616556247,0.0 80.1010426328595,12.91517176078122,0.0 80.1010426328595,12.91517176078122,0.0 80.10069896296112,12.915869373041168,0.0 80.10069896296112,12.915869373041168,0.0 80.10118369267225,12.916449394828462,0.0 80.10118369267225,12.916449394828462,0.0 80.10197793719173,12.916733488163793,0.0 80.10197793719173,12.916733488163793,0.0 80.10274041193044,12.91700621776571,0.0 80.10274041193044,12.91700621776571,0.0 80.10353465644994,12.917290311101038,0.0 80.10353465644994,12.917290311101038,0.0 80.10356406053302,12.917300828648003,0.0 80.10356406053302,12.917300828648003,0.0 80.12199374725978,12.917300178687263,0.0 80.12199374725978,12.917300178687263,0.0 80.12267786383242,12.916880007857708,0.0 80.12267786383242,12.916880007857708,0.0 80.12319578811118,12.91623441507122,0.0 80.12319578811118,12.91623441507122,0.0 80.12373082783222,12.915603913412617,0.0 80.12373082783222,12.915603913412617,0.0 80.12452954550488,12.915534540080344,0.0 80.12452954550488,12.915534540080344,0.0 80.12492367185487,12.916238076350323,0.0 80.12492367185487,12.916238076350323,0.0 80.12442495460584,12.916843149234964,0.0 80.12442495460584,12.916843149234964,0.0 80.12363513408401,12.917138453782673,0.0 80.12363513408401,12.917138453782673,0.0 80.1228453135622,12.917433758330382,0.0 80.1228453135622,12.917433758330382,0.0 80.12202390021949,12.917740875059998,0.0 80.12202390021949,12.917740875059998,0.0 80.12199378039007,12.917752136507834,0.0 80.12199378039007,12.917752136507834,0.0 80.10356406053302,12.917752786492075,0.0 80.10356406053302,12.917752786492075,0.0 80.10299655440971,12.917191989395288,0.0 80.10299655440971,12.917191989395288,0.0 80.10242565390304,12.916634177751156,0.0 80.10242565390304,12.916634177751156,0.0 80.10181585622296,12.916070084355109,0.0 80.10181585622296,12.916070084355109,0.0 80.10104262967644,12.916075680975492,0.0 80.10104262967644,12.916075680975492,0.0 80.10069896114234,12.916773293858412,0.0 80.10069896114234,12.916773293858412,0.0 80.10118369198777,12.91735331476703,0.0 80.10118369198777,12.91735331476703,0.0 80.10197793701762,12.917637406779798,0.0 80.10197793701762,12.917637406779798,0.0 80.10274041224628,12.917910135112052,0.0 80.10274041224628,12.917910135112052,0.0 80.10353465727614,12.91819422712482,0.0 80.10353465727614,12.91819422712482,0.0 80.10356406053302,12.91820474432054,0.0 80.10356406053302,12.91820474432054,0.0 80.12199381352164,12.9182040943128,0.0 80.12199381352164,12.9182040943128,0.0 80.12267793052715,12.917783923805128,0.0 80.12267793052715,12.917783923805128,0.0 80.12319585660948,12.917138332359823,0.0 80.12319585660948,12.917138332359823,0.0 80.12373089809195,12.916507832086722,0.0 80.12373089809195,12.916507832086722,0.0 80.12452961595842,12.916438460822752,0.0 80.12452961595842,12.916438460822752,0.0 80.12492374034295,12.917141998113332,0.0 80.12492374034295,12.917141998113332,0.0 80.12442502141327,12.917747069730698,0.0 80.12442502141327,12.917747069730698,0.0 80.12363520031022,12.91804237283743,0.0 80.12363520031022,12.91804237283743,0.0 80.12284537920715,12.918337675944162,0.0 80.12284537920715,12.918337675944162,0.0 80.12202396525996,12.918644791175161,0.0 80.12202396525996,12.918644791175161,0.0 80.12199384665445,12.918656052102156,0.0 80.12199384665445,12.918656052102156,0.0 80.10356406053302,12.918656702133397,0.0 80.10356406053302,12.918656702133397,0.0 80.10299655340968,12.918095905985314,0.0 80.10299655340968,12.918095905985314,0.0 80.10242565181206,12.91753809537613,0.0 80.10242565181206,12.91753809537613,0.0 80.10181585302874,12.916974003085548,0.0 80.10181585302874,12.916974003085548,0.0 80.10104262649318,12.916979601107663,0.0 80.10104262649318,12.916979601107663,0.0 80.10069895932344,12.917677214613594,0.0 80.10069895932344,12.917677214613594,0.0 80.10118369130325,12.918257234643477,0.0 80.10118369130325,12.918257234643477,0.0 80.10197793684351,12.918541325333583,0.0 80.10197793684351,12.918541325333583,0.0 80.10274041256214,12.918814052396087,0.0 80.10274041256214,12.918814052396087,0.0 80.1035346581024,12.919098143086192,0.0 80.1035346581024,12.919098143086192,0.0 80.10356406053302,12.919108659930647,0.0 80.10356406053302,12.919108659930647,0.0 80.12199387978853,12.919108009875906,0.0 80.12199387978853,12.919108009875906,0.0 80.12267799722693,12.918687839690143,0.0 80.12267799722693,12.918687839690143,0.0 80.12319592511298,12.918042249586119,0.0 80.12319592511298,12.918042249586119,0.0 80.12373096835701,12.917411750698626,0.0 80.12373096835701,12.917411750698626,0.0 80.12452968641729,12.917342381503108,0.0 80.12452968641729,12.917342381503108,0.0 80.1249238088362,12.918045919814356,0.0 80.1249238088362,12.918045919814356,0.0 80.12442508822578,12.918650990164352,0.0 80.12442508822578,12.918650990164352,0.0 80.12363526654143,12.918946291830004,0.0 80.12363526654143,12.918946291830004,0.0 80.12284544485709,12.919241593495656,0.0 80.12284544485709,12.919241593495656,0.0 80.12202403030537,12.919548707227936,0.0 80.12202403030537,12.919548707227936,0.0 80.12199391292387,12.919559967634047,0.0 80.12199391292387,12.919559967634047,0.0 80.10356406053302,12.919560617712289,0.0 80.10356406053302,12.919560617712289,0.0 80.10299655240958,12.918999822512982,0.0 80.10299655240958,12.918999822512982,0.0 80.10242564972093,12.918442012938826,0.0 80.10242564972093,12.918442012938826,0.0 80.1018158498343,12.917877921753792,0.0 80.1018158498343,12.917877921753792,0.0 80.10104262330968,12.917883521177743,0.0 80.10104262330968,12.917883521177743,0.0 80.10069895750442,12.918581135306733,0.0 80.10069895750442,12.918581135306733,0.0 80.1011836906187,12.919161154457809,0.0 80.1011836906187,12.919161154457809,0.0 80.10197793666939,12.919445243825157,0.0 80.10197793666939,12.919445243825157,0.0 80.10274041287803,12.91971796961781,0.0 80.10274041287803,12.91971796961781,0.0 80.10353465892872,12.920002058985158,0.0 80.10353465892872,12.920002058985158,0.0 80.10356406053302,12.920012575478323,0.0 80.10356406053302,12.920012575478323,0.0 80.12199394606046,12.920011925376578,0.0 80.12199394606046,12.920011925376578,0.0 80.12362292283325,12.918414008221989,0.0</coordinates>
            </LineString>
        </Placemark>
        <Placemark id="13997">
            <name>0</name>
            <Point id="13996">
                <coordinates>80.10356406053302,12.916396912913044,0.0</coordinates>
            </Point>
        </Placemark>
        <Placemark id="13999">
            <name>1</name>
            <Point id="13998">
                <coordinates>80.12199368100295,12.916396262999308,0.0</coordinates>
            </Point>
        </Placemark>
        <Placemark id="14001">
            <name>2</name>
            <Point id="14000">
                <coordinates>80.12267779714276,12.915976091847895,0.0</coordinates>
            </Point>
        </Placemark>
        <Placemark id="14003">
            <name>3</name>
            <Point id="14002">
                <coordinates>80.12319571961805,12.915330497720326,0.0</coordinates>
            </Point>
        </Placemark>
        <Placemark id="14005">
            <name>4</name>
            <Point id="14004">
                <coordinates>80.12373075757779,12.914699994676328,0.0</coordinates>
            </Point>
        </Placemark>
        <Placemark id="14007">
            <name>5</name>
            <Point id="14006">
                <coordinates>80.12452947505666,12.914630619275904,0.0</coordinates>
            </Point>
        </Placemark>
        <Placemark id="14009">
            <name>6</name>
            <Point id="14008">
                <coordinates>80.12492360337198,12.915334154525356,0.0</coordinates>
            </Point>
        </Placemark>
        <Placemark id="14011">
            <name>7</name>
            <Point id="14010">
                <coordinates>80.12442488780346,12.915939228677171,0.0</coordinates>
            </Point>
        </Placemark>
        <Placemark id="14013">
            <name>8</name>
            <Point id="14012">
                <coordinates>80.12363506786284,12.916234534665751,0.0</coordinates>
            </Point>
        </Placemark>
        <Placemark id="14015">
            <name>9</name>
            <Point id="14014">
                <coordinates>80.12284524792221,12.91652984065433,0.0</coordinates>
            </Point>
        </Placemark>
        <Placemark id="14017">
            <name>10</name>
            <Point id="14016">
                <coordinates>80.12202383518397,12.916836958882453,0.0</coordinates>
            </Point>
        </Placemark>
        <Placemark id="14019">
            <name>11</name>
            <Point id="14018">
                <coordinates>80.12199371413074,12.916848220851088,0.0</coordinates>
            </Point>
        </Placemark>
        <Placemark id="14021">
            <name>12</name>
            <Point id="14020">
                <coordinates>80.10356406053302,12.916848870788327,0.0</coordinates>
            </Point>
        </Placemark>
        <Placemark id="14023">
            <name>13</name>
            <Point id="14022">
                <coordinates>80.10299655540969,12.916288072742905,0.0</coordinates>
            </Point>
        </Placemark>
        <Placemark id="14025">
            <name>14</name>
            <Point id="14024">
                <coordinates>80.10242565599388,12.9157302600639,0.0</coordinates>
            </Point>
        </Placemark>
        <Placemark id="14027">
            <name>15</name>
            <Point id="14026">
                <coordinates>80.10181585941694,12.91516616556247,0.0</coordinates>
            </Point>
        </Placemark>
        <Placemark id="14029">
            <name>16</name>
            <Point id="14028">
                <coordinates>80.1010426328595,12.91517176078122,0.0</coordinates>
            </Point>
        </Placemark>
        <Placemark id="14031">
            <name>17</name>
            <Point id="14030">
                <coordinates>80.10069896296112,12.915869373041168,0.0</coordinates>
            </Point>
        </Placemark>
        <Placemark id="14033">
            <name>18</name>
            <Point id="14032">
                <coordinates>80.10118369267225,12.916449394828462,0.0</coordinates>
            </Point>
        </Placemark>
        <Placemark id="14035">
            <name>19</name>
            <Point id="14034">
                <coordinates>80.10197793719173,12.916733488163793,0.0</coordinates>
            </Point>
        </Placemark>
        <Placemark id="14037">
            <name>20</name>
            <Point id="14036">
                <coordinates>80.10274041193044,12.91700621776571,0.0</coordinates>
            </Point>
        </Placemark>
        <Placemark id="14039">
            <name>21</name>
            <Point id="14038">
                <coordinates>80.10353465644994,12.917290311101038,0.0</coordinates>
            </Point>
        </Placemark>
        <Placemark id="14041">
            <name>22</name>
            <Point id="14040">
                <coordinates>80.10356406053302,12.917300828648003,0.0</coordinates>
            </Point>
        </Placemark>
        <Placemark id="14043">
            <name>23</name>
            <Point id="14042">
                <coordinates>80.12199374725978,12.917300178687263,0.0</coordinates>
            </Point>
        </Placemark>
        <Placemark id="14045">
            <name>24</name>
            <Point id="14044">
                <coordinates>80.12267786383242,12.916880007857708,0.0</coordinates>
            </Point>
        </Placemark>
        <Placemark id="14047">
            <name>25</name>
            <Point id="14046">
                <coordinates>80.12319578811118,12.91623441507122,0.0</coordinates>
            </Point>
        </Placemark>
        <Placemark id="14049">
            <name>26</name>
            <Point id="14048">
                <coordinates>80.12373082783222,12.915603913412617,0.0</coordinates>
            </Point>
        </Placemark>
        <Placemark id="14051">
            <name>27</name>
            <Point id="14050">
                <coordinates>80.12452954550488,12.915534540080344,0.0</coordinates>
            </Point>
        </Placemark>
        <Placemark id="14053">
            <name>28</name>
            <Point id="14052">
                <coordinates>80.12492367185487,12.916238076350323,0.0</coordinates>
            </Point>
        </Placemark>
        <Placemark id="14055">
            <name>29</name>
            <Point id="14054">
                <coordinates>80.12442495460584,12.916843149234964,0.0</coordinates>
            </Point>
        </Placemark>
        <Placemark id="14057">
            <name>30</name>
            <Point id="14056">
                <coordinates>80.12363513408401,12.917138453782673,0.0</coordinates>
            </Point>
        </Placemark>
        <Placemark id="14059">
            <name>31</name>
            <Point id="14058">
                <coordinates>80.1228453135622,12.917433758330382,0.0</coordinates>
            </Point>
        </Placemark>
        <Placemark id="14061">
            <name>32</name>
            <Point id="14060">
                <coordinates>80.12202390021949,12.917740875059998,0.0</coordinates>
            </Point>
        </Placemark>
        <Placemark id="14063">
            <name>33</name>
            <Point id="14062">
                <coordinates>80.12199378039007,12.917752136507834,0.0</coordinates>
            </Point>
        </Placemark>
        <Placemark id="14065">
            <name>34</name>
            <Point id="14064">
                <coordinates>80.10356406053302,12.917752786492075,0.0</coordinates>
            </Point>
        </Placemark>
        <Placemark id="14067">
            <name>35</name>
            <Point id="14066">
                <coordinates>80.10299655440971,12.917191989395288,0.0</coordinates>
            </Point>
        </Placemark>
        <Placemark id="14069">
            <name>36</name>
            <Point id="14068">
                <coordinates>80.10242565390304,12.916634177751156,0.0</coordinates>
            </Point>
        </Placemark>
        <Placemark id="14071">
            <name>37</name>
            <Point id="14070">
                <coordinates>80.10181585622296,12.916070084355109,0.0</coordinates>
            </Point>
        </Placemark>
        <Placemark id="14073">
            <name>38</name>
            <Point id="14072">
                <coordinates>80.10104262967644,12.916075680975492,0.0</coordinates>
            </Point>
        </Placemark>
        <Placemark id="14075">
            <name>39</name>
            <Point id="14074">
                <coordinates>80.10069896114234,12.916773293858412,0.0</coordinates>
            </Point>
        </Placemark>
        <Placemark id="14077">
            <name>40</name>
            <Point id="14076">
                <coordinates>80.10118369198777,12.91735331476703,0.0</coordinates>
            </Point>
        </Placemark>
        <Placemark id="14079">
            <name>41</name>
            <Point id="14078">
                <coordinates>80.10197793701762,12.917637406779798,0.0</coordinates>
            </Point>
        </Placemark>
        <Placemark id="14081">
            <name>42</name>
            <Point id="14080">
                <coordinates>80.10274041224628,12.917910135112052,0.0</coordinates>
            </Point>
        </Placemark>
        <Placemark id="14083">
            <name>43</name>
            <Point id="14082">
                <coordinates>80.10353465727614,12.91819422712482,0.0</coordinates>
            </Point>
        </Placemark>
        <Placemark id="14085">
            <name>44</name>
            <Point id="14084">
                <coordinates>80.10356406053302,12.91820474432054,0.0</coordinates>
            </Point>
        </Placemark>
        <Placemark id="14087">
            <name>45</name>
            <Point id="14086">
                <coordinates>80.12199381352164,12.9182040943128,0.0</coordinates>
            </Point>
        </Placemark>
        <Placemark id="14089">
            <name>46</name>
            <Point id="14088">
                <coordinates>80.12267793052715,12.917783923805128,0.0</coordinates>
            </Point>
        </Placemark>
        <Placemark id="14091">
            <name>47</name>
            <Point id="14090">
                <coordinates>80.12319585660948,12.917138332359823,0.0</coordinates>
            </Point>
        </Placemark>
        <Placemark id="14093">
            <name>48</name>
            <Point id="14092">
                <coordinates>80.12373089809195,12.916507832086722,0.0</coordinates>
            </Point>
        </Placemark>
        <Placemark id="14095">
            <name>49</name>
            <Point id="14094">
                <coordinates>80.12452961595842,12.916438460822752,0.0</coordinates>
            </Point>
        </Placemark>
        <Placemark id="14097">
            <name>50</name>
            <Point id="14096">
                <coordinates>80.12492374034295,12.917141998113332,0.0</coordinates>
            </Point>
        </Placemark>
        <Placemark id="14099">
            <name>51</name>
            <Point id="14098">
                <coordinates>80.12442502141327,12.917747069730698,0.0</coordinates>
            </Point>
        </Placemark>
        <Placemark id="14101">
            <name>52</name>
            <Point id="14100">
                <coordinates>80.12363520031022,12.91804237283743,0.0</coordinates>
            </Point>
        </Placemark>
        <Placemark id="14103">
            <name>53</name>
            <Point id="14102">
                <coordinates>80.12284537920715,12.918337675944162,0.0</coordinates>
            </Point>
        </Placemark>
        <Placemark id="14105">
            <name>54</name>
            <Point id="14104">
                <coordinates>80.12202396525996,12.918644791175161,0.0</coordinates>
            </Point>
        </Placemark>
        <Placemark id="14107">
            <name>55</name>
            <Point id="14106">
                <coordinates>80.12199384665445,12.918656052102156,0.0</coordinates>
            </Point>
        </Placemark>
        <Placemark id="14109">
            <name>56</name>
            <Point id="14108">
                <coordinates>80.10356406053302,12.918656702133397,0.0</coordinates>
            </Point>
        </Placemark>
        <Placemark id="14111">
            <name>57</name>
            <Point id="14110">
                <coordinates>80.10299655340968,12.918095905985314,0.0</coordinates>
            </Point>
        </Placemark>
        <Placemark id="14113">
            <name>58</name>
            <Point id="14112">
                <coordinates>80.10242565181206,12.91753809537613,0.0</coordinates>
            </Point>
        </Placemark>
        <Placemark id="14115">
            <name>59</name>
            <Point id="14114">
                <coordinates>80.10181585302874,12.916974003085548,0.0</coordinates>
            </Point>
        </Placemark>
        <Placemark id="14117">
            <name>60</name>
            <Point id="14116">
                <coordinates>80.10104262649318,12.916979601107663,0.0</coordinates>
            </Point>
        </Placemark>
        <Placemark id="14119">
            <name>61</name>
            <Point id="14118">
                <coordinates>80.10069895932344,12.917677214613594,0.0</coordinates>
            </Point>
        </Placemark>
        <Placemark id="14121">
            <name>62</name>
            <Point id="14120">
                <coordinates>80.10118369130325,12.918257234643477,0.0</coordinates>
            </Point>
        </Placemark>
        <Placemark id="14123">
            <name>63</name>
            <Point id="14122">
                <coordinates>80.10197793684351,12.918541325333583,0.0</coordinates>
            </Point>
        </Placemark>
        <Placemark id="14125">
            <name>64</name>
            <Point id="14124">
                <coordinates>80.10274041256214,12.918814052396087,0.0</coordinates>
            </Point>
        </Placemark>
        <Placemark id="14127">
            <name>65</name>
            <Point id="14126">
                <coordinates>80.1035346581024,12.919098143086192,0.0</coordinates>
            </Point>
        </Placemark>
        <Placemark id="14129">
            <name>66</name>
            <Point id="14128">
                <coordinates>80.10356406053302,12.919108659930647,0.0</coordinates>
            </Point>
        </Placemark>
        <Placemark id="14131">
            <name>67</name>
            <Point id="14130">
                <coordinates>80.12199387978853,12.919108009875906,0.0</coordinates>
            </Point>
        </Placemark>
        <Placemark id="14133">
            <name>68</name>
            <Point id="14132">
                <coordinates>80.12267799722693,12.918687839690143,0.0</coordinates>
            </Point>
        </Placemark>
        <Placemark id="14135">
            <name>69</name>
            <Point id="14134">
                <coordinates>80.12319592511298,12.918042249586119,0.0</coordinates>
            </Point>
        </Placemark>
        <Placemark id="14137">
            <name>70</name>
            <Point id="14136">
                <coordinates>80.12373096835701,12.917411750698626,0.0</coordinates>
            </Point>
        </Placemark>
        <Placemark id="14139">
            <name>71</name>
            <Point id="14138">
                <coordinates>80.12452968641729,12.917342381503108,0.0</coordinates>
            </Point>
        </Placemark>
        <Placemark id="14141">
            <name>72</name>
            <Point id="14140">
                <coordinates>80.1249238088362,12.918045919814356,0.0</coordinates>
            </Point>
        </Placemark>
        <Placemark id="14143">
            <name>73</name>
            <Point id="14142">
                <coordinates>80.12442508822578,12.918650990164352,0.0</coordinates>
            </Point>
        </Placemark>
        <Placemark id="14145">
            <name>74</name>
            <Point id="14144">
                <coordinates>80.12363526654143,12.918946291830004,0.0</coordinates>
            </Point>
        </Placemark>
        <Placemark id="14147">
            <name>75</name>
            <Point id="14146">
                <coordinates>80.12284544485709,12.919241593495656,0.0</coordinates>
            </Point>
        </Placemark>
        <Placemark id="14149">
            <name>76</name>
            <Point id="14148">
                <coordinates>80.12202403030537,12.919548707227936,0.0</coordinates>
            </Point>
        </Placemark>
        <Placemark id="14151">
            <name>77</name>
            <Point id="14150">
                <coordinates>80.12199391292387,12.919559967634047,0.0</coordinates>
            </Point>
        </Placemark>
        <Placemark id="14153">
            <name>78</name>
            <Point id="14152">
                <coordinates>80.10356406053302,12.919560617712289,0.0</coordinates>
            </Point>
        </Placemark>
        <Placemark id="14155">
            <name>79</name>
            <Point id="14154">
                <coordinates>80.10299655240958,12.918999822512982,0.0</coordinates>
            </Point>
        </Placemark>
        <Placemark id="14157">
            <name>80</name>
            <Point id="14156">
                <coordinates>80.10242564972093,12.918442012938826,0.0</coordinates>
            </Point>
        </Placemark>
        <Placemark id="14159">
            <name>81</name>
            <Point id="14158">
                <coordinates>80.1018158498343,12.917877921753792,0.0</coordinates>
            </Point>
        </Placemark>
        <Placemark id="14161">
            <name>82</name>
            <Point id="14160">
                <coordinates>80.10104262330968,12.917883521177743,0.0</coordinates>
            </Point>
        </Placemark>
        <Placemark id="14163">
            <name>83</name>
            <Point id="14162">
                <coordinates>80.10069895750442,12.918581135306733,0.0</coordinates>
            </Point>
        </Placemark>
        <Placemark id="14165">
            <name>84</name>
            <Point id="14164">
                <coordinates>80.1011836906187,12.919161154457809,0.0</coordinates>
            </Point>
        </Placemark>
        <Placemark id="14167">
            <name>85</name>
            <Point id="14166">
                <coordinates>80.10197793666939,12.919445243825157,0.0</coordinates>
            </Point>
        </Placemark>
        <Placemark id="14169">
            <name>86</name>
            <Point id="14168">
                <coordinates>80.10274041287803,12.91971796961781,0.0</coordinates>
            </Point>
        </Placemark>
        <Placemark id="14171">
            <name>87</name>
            <Point id="14170">
                <coordinates>80.10353465892872,12.920002058985158,0.0</coordinates>
            </Point>
        </Placemark>
        <Placemark id="14173">
            <name>88</name>
            <Point id="14172">
                <coordinates>80.10356406053302,12.920012575478323,0.0</coordinates>
            </Point>
        </Placemark>
        <Placemark id="14175">
            <name>89</name>
            <Point id="14174">
                <coordinates>80.12199394606046,12.920011925376578,0.0</coordinates>
            </Point>
        </Placemark>
    </Document>
</kml>
