<?xml version="1.0" encoding="UTF-8"?>
<kml xmlns="http://www.opengis.net/kml/2.2" xmlns:gx="http://www.google.com/kml/ext/2.2">
    <Document id="13521">
        <Style id="13524">
            <LineStyle id="13525">
                <color>ffff0000</color>
                <colorMode>normal</colorMode>
                <width>2</width>
            </LineStyle>
        </Style>
        <Placemark id="13523">
            <styleUrl>#13524</styleUrl>
            <LineString id="13522">
                <altitudeMode>clampToGround</altitudeMode>
                <coordinates>80.03476654247599,12.94383345219888,0.0 80.0531981762833,12.943832800858377,0.0 80.0531981762833,12.943832800858377,0.0 80.05388083309703,12.9434191107894,0.0 80.05388083309703,12.9434191107894,0.0 80.05441209160657,12.942754402762068,0.0 80.05441209160657,12.942754402762068,0.0 80.05494019685305,12.942129909462015,0.0 80.05494019685305,12.942129909462015,0.0 80.05576795017573,12.942069015365675,0.0 80.05576795017573,12.942069015365675,0.0 80.05613991940389,12.94274077325067,0.0 80.05613991940389,12.94274077325067,0.0 80.05561655392047,12.9433522208595,0.0 80.05561655392047,12.9433522208595,0.0 80.05483200488885,12.943654750521436,0.0 80.05483200488885,12.943654750521436,0.0 80.05401607389595,12.943969381369847,0.0 80.05401607389595,12.943969381369847,0.0 80.05320014290305,12.94428401221826,0.0 80.05320014290305,12.94428401221826,0.0 80.0531982094875,12.944284757761912,0.0 80.0531982094875,12.944284757761912,0.0 80.03476654247599,12.944285409125918,0.0 80.03476654247599,12.944285409125918,0.0 80.03421454249641,12.943739119599723,0.0 80.03421454249641,12.943739119599723,0.0 80.033635473175,12.94317376426769,0.0 80.033635473175,12.94317376426769,0.0 80.03304661472914,12.942619463190077,0.0 80.03304661472914,12.942619463190077,0.0 80.03227303029965,12.942614909410848,0.0 80.03227303029965,12.942614909410848,0.0 80.03194806042458,12.943303016695566,0.0 80.03194806042458,12.943303016695566,0.0 80.03245159918905,12.943879758891242,0.0 80.03245159918905,12.943879758891242,0.0 80.03321613423277,12.944162992921475,0.0 80.03321613423277,12.944162992921475,0.0 80.0339806692765,12.94444622695171,0.0 80.0339806692765,12.94444622695171,0.0 80.03474520432023,12.944729460981945,0.0 80.03474520432023,12.944729460981945,0.0 80.03476654247599,12.944737366037318,0.0 80.03476654247599,12.944737366037318,0.0 80.05319824269297,12.944736714649805,0.0 80.05319824269297,12.944736714649805,0.0 80.05388089987612,12.944323024844778,0.0 80.05388089987612,12.944323024844778,0.0 80.05441216030664,12.943658318189986,0.0 80.05441216030664,12.943658318189986,0.0 80.05494026735792,12.943033826254325,0.0 80.05494026735792,12.943033826254325,0.0 80.05576802085658,12.942972934296535,0.0 80.05576802085658,12.942972934296535,0.0 80.05613998814336,12.943644693142533,0.0 80.05613998814336,12.943644693142533,0.0 80.05561662091431,12.944256139448918,0.0 80.05561662091431,12.944256139448918,0.0 80.05483207127637,12.9445586677052,0.0 80.05483207127637,12.9445586677052,0.0 80.05401613965289,12.944873297091736,0.0 80.05401613965289,12.944873297091736,0.0 80.05320020802941,12.945187926478269,0.0 80.05320020802941,12.945187926478269,0.0 80.05319827589969,12.945188671522061,0.0 80.05319827589969,12.945188671522061,0.0 80.03476654247599,12.94518932293308,0.0 80.03476654247599,12.94518932293308,0.0 80.03421454156957,12.944643034318938,0.0 80.03421454156957,12.944643034318938,0.0 80.03363547114475,12.944077680072684,0.0 80.03363547114475,12.944077680072684,0.0 80.03304661161707,12.943523380099201,0.0 80.03304661161707,12.943523380099201,0.0 80.03227302717868,12.94351882777047,0.0 80.03227302717868,12.94351882777047,0.0 80.03194805864659,12.94420693566452,0.0 80.03194805864659,12.94420693566452,0.0 80.0324515985326,12.944783676926628,0.0 80.0324515985326,12.944783676926628,0.0 80.03321613407807,12.94506690965568,0.0 80.03321613407807,12.94506690965568,0.0 80.03398066962355,12.945350142384733,0.0 80.03398066962355,12.945350142384733,0.0 80.03474520516902,12.945633375113784,0.0 80.03474520516902,12.945633375113784,0.0 80.03476654247599,12.945641279813206,0.0 80.03476654247599,12.945641279813206,0.0 80.05319830910767,12.945640628378683,0.0 80.05319830910767,12.945640628378683,0.0 80.05388096666026,12.945226938837626,0.0 80.05388096666026,12.945226938837626,0.0 80.05441222901192,12.944562233555473,0.0 80.05441222901192,12.944562233555473,0.0 80.05494033786809,12.943937742984307,0.0 80.05494033786809,12.943937742984307,0.0 80.05576809154273,12.943876853165214,0.0 80.05576809154273,12.943876853165214,0.0 80.056140056888,12.944548612972275,0.0 80.056140056888,12.944548612972275,0.0 80.0556166879132,12.945160057976121,0.0 80.0556166879132,12.945160057976121,0.0 80.0548321376689,12.945462584826657,0.0 80.0548321376689,12.945462584826657,0.0 80.05401620541481,12.945777212751214,0.0 80.05401620541481,12.945777212751214,0.0 80.05320027316073,12.946091840675772,0.0 80.05320027316073,12.946091840675772,0.0 80.05319834231692,12.946092585219668,0.0 80.05319834231692,12.946092585219668,0.0 80.03476654247599,12.946093236677696,0.0 80.03476654247599,12.946093236677696,0.0 80.03421454064264,12.945546948975673,0.0 80.03421454064264,12.945546948975673,0.0 80.03363546911436,12.944981595815277,0.0 80.03363546911436,12.944981595815277,0.0 80.03304660850476,12.944427296946008,0.0 80.03304660850476,12.944427296946008,0.0 80.0322730240575,12.94442274606788,0.0 80.0322730240575,12.94442274606788,0.0 80.03194805686849,12.945110854571299,0.0 80.03194805686849,12.945110854571299,0.0 80.03245159787612,12.945687594899772,0.0 80.03245159787612,12.945687594899772,0.0 80.03321613392337,12.945970826327548,0.0 80.03321613392337,12.945970826327548,0.0 80.03398066997063,12.946254057755326,0.0 80.03398066997063,12.946254057755326,0.0 80.03474520601787,12.946537289183102,0.0 80.03474520601787,12.946537289183102,0.0 80.03476654247599,12.946545193526548,0.0 80.03476654247599,12.946545193526548,0.0 80.05319837552742,12.946544542045011,0.0 80.05319837552742,12.946544542045011,0.0 80.05388103344949,12.946130852767942,0.0 80.05388103344949,12.946130852767942,0.0 80.0544122977224,12.945466148858532,0.0 80.0544122977224,12.945466148858532,0.0 80.05494040838359,12.94484165965196,0.0 80.05494040838359,12.94484165965196,0.0 80.05576816223422,12.94478077197172,0.0 80.05576816223422,12.94478077197172,0.0 80.05614012563784,12.945452532739907,0.0 80.05614012563784,12.945452532739907,0.0 80.05561675491717,12.946063976441115,0.0 80.05561675491717,12.946063976441115,0.0 80.05483220406646,12.9463665018858,0.0 80.05483220406646,12.9463665018858,0.0 80.05401627118172,12.946681128348272,0.0 80.05401627118172,12.946681128348272,0.0 80.05320033829697,12.946995754810745,0.0 80.05320033829697,12.946995754810745,0.0 80.05319840873918,12.946996498854718,0.0 80.05319840873918,12.946996498854718,0.0 80.03476654247599,12.946997150359758,0.0 80.03476654247599,12.946997150359758,0.0 80.0331373906485,12.945399236492182,0.0</coordinates>
            </LineString>
        </Placemark>
        <Placemark id="13527">
            <name>0</name>
            <Point id="13526">
                <coordinates>80.03476654247599,12.94383345219888,0.0</coordinates>
            </Point>
        </Placemark>
        <Placemark id="13529">
            <name>1</name>
            <Point id="13528">
                <coordinates>80.0531981762833,12.943832800858377,0.0</coordinates>
            </Point>
        </Placemark>
        <Placemark id="13531">
            <name>2</name>
            <Point id="13530">
                <coordinates>80.05388083309703,12.9434191107894,0.0</coordinates>
            </Point>
        </Placemark>
        <Placemark id="13533">
            <name>3</name>
            <Point id="13532">
                <coordinates>80.05441209160657,12.942754402762068,0.0</coordinates>
            </Point>
        </Placemark>
        <Placemark id="13535">
            <name>4</name>
            <Point id="13534">
                <coordinates>80.05494019685305,12.942129909462015,0.0</coordinates>
            </Point>
        </Placemark>
        <Placemark id="13537">
            <name>5</name>
            <Point id="13536">
                <coordinates>80.05576795017573,12.942069015365675,0.0</coordinates>
            </Point>
        </Placemark>
        <Placemark id="13539">
            <name>6</name>
            <Point id="13538">
                <coordinates>80.05613991940389,12.94274077325067,0.0</coordinates>
            </Point>
        </Placemark>
        <Placemark id="13541">
            <name>7</name>
            <Point id="13540">
                <coordinates>80.05561655392047,12.9433522208595,0.0</coordinates>
            </Point>
        </Placemark>
        <Placemark id="13543">
            <name>8</name>
            <Point id="13542">
                <coordinates>80.05483200488885,12.943654750521436,0.0</coordinates>
            </Point>
        </Placemark>
        <Placemark id="13545">
            <name>9</name>
            <Point id="13544">
                <coordinates>80.05401607389595,12.943969381369847,0.0</coordinates>
            </Point>
        </Placemark>
        <Placemark id="13547">
            <name>10</name>
            <Point id="13546">
                <coordinates>80.05320014290305,12.94428401221826,0.0</coordinates>
            </Point>
        </Placemark>
        <Placemark id="13549">
            <name>11</name>
            <Point id="13548">
                <coordinates>80.0531982094875,12.944284757761912,0.0</coordinates>
            </Point>
        </Placemark>
        <Placemark id="13551">
            <name>12</name>
            <Point id="13550">
                <coordinates>80.03476654247599,12.944285409125918,0.0</coordinates>
            </Point>
        </Placemark>
        <Placemark id="13553">
            <name>13</name>
            <Point id="13552">
                <coordinates>80.03421454249641,12.943739119599723,0.0</coordinates>
            </Point>
        </Placemark>
        <Placemark id="13555">
            <name>14</name>
            <Point id="13554">
                <coordinates>80.033635473175,12.94317376426769,0.0</coordinates>
            </Point>
        </Placemark>
        <Placemark id="13557">
            <name>15</name>
            <Point id="13556">
                <coordinates>80.03304661472914,12.942619463190077,0.0</coordinates>
            </Point>
        </Placemark>
        <Placemark id="13559">
            <name>16</name>
            <Point id="13558">
                <coordinates>80.03227303029965,12.942614909410848,0.0</coordinates>
            </Point>
        </Placemark>
        <Placemark id="13561">
            <name>17</name>
            <Point id="13560">
                <coordinates>80.03194806042458,12.943303016695566,0.0</coordinates>
            </Point>
        </Placemark>
        <Placemark id="13563">
            <name>18</name>
            <Point id="13562">
                <coordinates>80.03245159918905,12.943879758891242,0.0</coordinates>
            </Point>
        </Placemark>
        <Placemark id="13565">
            <name>19</name>
            <Point id="13564">
                <coordinates>80.03321613423277,12.944162992921475,0.0</coordinates>
            </Point>
        </Placemark>
        <Placemark id="13567">
            <name>20</name>
            <Point id="13566">
                <coordinates>80.0339806692765,12.94444622695171,0.0</coordinates>
            </Point>
        </Placemark>
        <Placemark id="13569">
            <name>21</name>
            <Point id="13568">
                <coordinates>80.03474520432023,12.944729460981945,0.0</coordinates>
            </Point>
        </Placemark>
        <Placemark id="13571">
            <name>22</name>
            <Point id="13570">
                <coordinates>80.03476654247599,12.944737366037318,0.0</coordinates>
            </Point>
        </Placemark>
        <Placemark id="13573">
            <name>23</name>
            <Point id="13572">
                <coordinates>80.05319824269297,12.944736714649805,0.0</coordinates>
            </Point>
        </Placemark>
        <Placemark id="13575">
            <name>24</name>
            <Point id="13574">
                <coordinates>80.05388089987612,12.944323024844778,0.0</coordinates>
            </Point>
        </Placemark>
        <Placemark id="13577">
            <name>25</name>
            <Point id="13576">
                <coordinates>80.05441216030664,12.943658318189986,0.0</coordinates>
            </Point>
        </Placemark>
        <Placemark id="13579">
            <name>26</name>
            <Point id="13578">
                <coordinates>80.05494026735792,12.943033826254325,0.0</coordinates>
            </Point>
        </Placemark>
        <Placemark id="13581">
            <name>27</name>
            <Point id="13580">
                <coordinates>80.05576802085658,12.942972934296535,0.0</coordinates>
            </Point>
        </Placemark>
        <Placemark id="13583">
            <name>28</name>
            <Point id="13582">
                <coordinates>80.05613998814336,12.943644693142533,0.0</coordinates>
            </Point>
        </Placemark>
        <Placemark id="13585">
            <name>29</name>
            <Point id="13584">
                <coordinates>80.05561662091431,12.944256139448918,0.0</coordinates>
            </Point>
        </Placemark>
        <Placemark id="13587">
            <name>30</name>
            <Point id="13586">
                <coordinates>80.05483207127637,12.9445586677052,0.0</coordinates>
            </Point>
        </Placemark>
        <Placemark id="13589">
            <name>31</name>
            <Point id="13588">
                <coordinates>80.05401613965289,12.944873297091736,0.0</coordinates>
            </Point>
        </Placemark>
        <Placemark id="13591">
            <name>32</name>
            <Point id="13590">
                <coordinates>80.05320020802941,12.945187926478269,0.0</coordinates>
            </Point>
        </Placemark>
        <Placemark id="13593">
            <name>33</name>
            <Point id="13592">
                <coordinates>80.05319827589969,12.945188671522061,0.0</coordinates>
            </Point>
        </Placemark>
        <Placemark id="13595">
            <name>34</name>
            <Point id="13594">
                <coordinates>80.03476654247599,12.94518932293308,0.0</coordinates>
            </Point>
        </Placemark>
        <Placemark id="13597">
            <name>35</name>
            <Point id="13596">
                <coordinates>80.03421454156957,12.944643034318938,0.0</coordinates>
            </Point>
        </Placemark>
        <Placemark id="13599">
            <name>36</name>
            <Point id="13598">
                <coordinates>80.03363547114475,12.944077680072684,0.0</coordinates>
            </Point>
        </Placemark>
        <Placemark id="13601">
            <name>37</name>
            <Point id="13600">
                <coordinates>80.03304661161707,12.943523380099201,0.0</coordinates>
            </Point>
        </Placemark>
        <Placemark id="13603">
            <name>38</name>
            <Point id="13602">
                <coordinates>80.03227302717868,12.94351882777047,0.0</coordinates>
            </Point>
        </Placemark>
        <Placemark id="13605">
            <name>39</name>
            <Point id="13604">
                <coordinates>80.03194805864659,12.94420693566452,0.0</coordinates>
            </Point>
        </Placemark>
        <Placemark id="13607">
            <name>40</name>
            <Point id="13606">
                <coordinates>80.0324515985326,12.944783676926628,0.0</coordinates>
            </Point>
        </Placemark>
        <Placemark id="13609">
            <name>41</name>
            <Point id="13608">
                <coordinates>80.03321613407807,12.94506690965568,0.0</coordinates>
            </Point>
        </Placemark>
        <Placemark id="13611">
            <name>42</name>
            <Point id="13610">
                <coordinates>80.03398066962355,12.945350142384733,0.0</coordinates>
            </Point>
        </Placemark>
        <Placemark id="13613">
            <name>43</name>
            <Point id="13612">
                <coordinates>80.03474520516902,12.945633375113784,0.0</coordinates>
            </Point>
        </Placemark>
        <Placemark id="13615">
            <name>44</name>
            <Point id="13614">
                <coordinates>80.03476654247599,12.945641279813206,0.0</coordinates>
            </Point>
        </Placemark>
        <Placemark id="13617">
            <name>45</name>
            <Point id="13616">
                <coordinates>80.05319830910767,12.945640628378683,0.0</coordinates>
            </Point>
        </Placemark>
        <Placemark id="13619">
            <name>46</name>
            <Point id="13618">
                <coordinates>80.05388096666026,12.945226938837626,0.0</coordinates>
            </Point>
        </Placemark>
        <Placemark id="13621">
            <name>47</name>
            <Point id="13620">
                <coordinates>80.05441222901192,12.944562233555473,0.0</coordinates>
            </Point>
        </Placemark>
        <Placemark id="13623">
            <name>48</name>
            <Point id="13622">
                <coordinates>80.05494033786809,12.943937742984307,0.0</coordinates>
            </Point>
        </Placemark>
        <Placemark id="13625">
            <name>49</name>
            <Point id="13624">
                <coordinates>80.05576809154273,12.943876853165214,0.0</coordinates>
            </Point>
        </Placemark>
        <Placemark id="13627">
            <name>50</name>
            <Point id="13626">
                <coordinates>80.056140056888,12.944548612972275,0.0</coordinates>
            </Point>
        </Placemark>
        <Placemark id="13629">
            <name>51</name>
            <Point id="13628">
                <coordinates>80.0556166879132,12.945160057976121,0.0</coordinates>
            </Point>
        </Placemark>
        <Placemark id="13631">
            <name>52</name>
            <Point id="13630">
                <coordinates>80.0548321376689,12.945462584826657,0.0</coordinates>
            </Point>
        </Placemark>
        <Placemark id="13633">
            <name>53</name>
            <Point id="13632">
                <coordinates>80.05401620541481,12.945777212751214,0.0</coordinates>
            </Point>
        </Placemark>
        <Placemark id="13635">
            <name>54</name>
            <Point id="13634">
                <coordinates>80.05320027316073,12.946091840675772,0.0</coordinates>
            </Point>
        </Placemark>
        <Placemark id="13637">
            <name>55</name>
            <Point id="13636">
                <coordinates>80.05319834231692,12.946092585219668,0.0</coordinates>
            </Point>
        </Placemark>
        <Placemark id="13639">
            <name>56</name>
            <Point id="13638">
                <coordinates>80.03476654247599,12.946093236677696,0.0</coordinates>
            </Point>
        </Placemark>
        <Placemark id="13641">
            <name>57</name>
            <Point id="13640">
                <coordinates>80.03421454064264,12.945546948975673,0.0</coordinates>
            </Point>
        </Placemark>
        <Placemark id="13643">
            <name>58</name>
            <Point id="13642">
                <coordinates>80.03363546911436,12.944981595815277,0.0</coordinates>
            </Point>
        </Placemark>
        <Placemark id="13645">
            <name>59</name>
            <Point id="13644">
                <coordinates>80.03304660850476,12.944427296946008,0.0</coordinates>
            </Point>
        </Placemark>
        <Placemark id="13647">
            <name>60</name>
            <Point id="13646">
                <coordinates>80.0322730240575,12.94442274606788,0.0</coordinates>
            </Point>
        </Placemark>
        <Placemark id="13649">
            <name>61</name>
            <Point id="13648">
                <coordinates>80.03194805686849,12.945110854571299,0.0</coordinates>
            </Point>
        </Placemark>
        <Placemark id="13651">
            <name>62</name>
            <Point id="13650">
                <coordinates>80.03245159787612,12.945687594899772,0.0</coordinates>
            </Point>
        </Placemark>
        <Placemark id="13653">
            <name>63</name>
            <Point id="13652">
                <coordinates>80.03321613392337,12.945970826327548,0.0</coordinates>
            </Point>
        </Placemark>
        <Placemark id="13655">
            <name>64</name>
            <Point id="13654">
                <coordinates>80.03398066997063,12.946254057755326,0.0</coordinates>
            </Point>
        </Placemark>
        <Placemark id="13657">
            <name>65</name>
            <Point id="13656">
                <coordinates>80.03474520601787,12.946537289183102,0.0</coordinates>
            </Point>
        </Placemark>
        <Placemark id="13659">
            <name>66</name>
            <Point id="13658">
                <coordinates>80.03476654247599,12.946545193526548,0.0</coordinates>
            </Point>
        </Placemark>
        <Placemark id="13661">
            <name>67</name>
            <Point id="13660">
                <coordinates>80.05319837552742,12.946544542045011,0.0</coordinates>
            </Point>
        </Placemark>
        <Placemark id="13663">
            <name>68</name>
            <Point id="13662">
                <coordinates>80.05388103344949,12.946130852767942,0.0</coordinates>
            </Point>
        </Placemark>
        <Placemark id="13665">
            <name>69</name>
            <Point id="13664">
                <coordinates>80.0544122977224,12.945466148858532,0.0</coordinates>
            </Point>
        </Placemark>
        <Placemark id="13667">
            <name>70</name>
            <Point id="13666">
                <coordinates>80.05494040838359,12.94484165965196,0.0</coordinates>
            </Point>
        </Placemark>
        <Placemark id="13669">
            <name>71</name>
            <Point id="13668">
                <coordinates>80.05576816223422,12.94478077197172,0.0</coordinates>
            </Point>
        </Placemark>
        <Placemark id="13671">
            <name>72</name>
            <Point id="13670">
                <coordinates>80.05614012563784,12.945452532739907,0.0</coordinates>
            </Point>
        </Placemark>
        <Placemark id="13673">
            <name>73</name>
            <Point id="13672">
                <coordinates>80.05561675491717,12.946063976441115,0.0</coordinates>
            </Point>
        </Placemark>
        <Placemark id="13675">
            <name>74</name>
            <Point id="13674">
                <coordinates>80.05483220406646,12.9463665018858,0.0</coordinates>
            </Point>
        </Placemark>
        <Placemark id="13677">
            <name>75</name>
            <Point id="13676">
                <coordinates>80.05401627118172,12.946681128348272,0.0</coordinates>
            </Point>
        </Placemark>
        <Placemark id="13679">
            <name>76</name>
            <Point id="13678">
                <coordinates>80.05320033829697,12.946995754810745,0.0</coordinates>
            </Point>
        </Placemark>
        <Placemark id="13681">
            <name>77</name>
            <Point id="13680">
                <coordinates>80.05319840873918,12.946996498854718,0.0</coordinates>
            </Point>
        </Placemark>
        <Placemark id="13683">
            <name>78</name>
            <Point id="13682">
                <coordinates>80.03476654247599,12.946997150359758,0.0</coordinates>
            </Point>
        </Placemark>
    </Document>
</kml>
