<?xml version="1.0" encoding="UTF-8"?>
<kml xmlns="http://www.opengis.net/kml/2.2" xmlns:gx="http://www.google.com/kml/ext/2.2">
    <Document id="13745">
        <Style id="13748">
            <LineStyle id="13749">
                <color>ffff0000</color>
                <colorMode>normal</colorMode>
                <width>2</width>
            </LineStyle>
        </Style>
        <Placemark id="13747">
            <styleUrl>#13748</styleUrl>
            <LineString id="13746">
                <altitudeMode>clampToGround</altitudeMode>
                <coordinates>80.10356406053302,12.912781249349065,0.0 80.12199341602599,12.912780599623328,0.0 80.12199341602599,12.912780599623328,0.0 80.12267753043477,12.91236042718472,0.0 80.12267753043477,12.91236042718472,0.0 80.12319544569749,12.911714827693839,0.0 80.12319544569749,12.911714827693839,0.0 80.12373047661323,12.911084319109289,0.0 80.12373047661323,12.911084319109289,0.0 80.12452919331699,12.911014935437745,0.0 80.12452919331699,12.911014935437745,0.0 80.12492332949216,12.911718466605757,0.0 80.12492332949216,12.911718466605757,0.0 80.12442462064455,12.912323545825329,0.0 80.12442462064455,12.912323545825329,0.0 80.12363480302834,12.91261885757634,0.0 80.12363480302834,12.91261885757634,0.0 80.12284498541213,12.912914169327351,0.0 80.12284498541213,12.912914169327351,0.0 80.12202357509128,12.913221293548403,0.0 80.12202357509128,12.913221293548403,0.0 80.1219934491437,12.913232557599933,0.0 80.1219934491437,12.913232557599933,0.0 80.10356406053302,12.91323320734917,0.0 80.10356406053302,12.91323320734917,0.0 80.10299655940884,12.912672405509916,0.0 80.10299655940884,12.912672405509916,0.0 80.10242566435576,12.91211458869218,0.0 80.10242566435576,12.91211458869218,0.0 80.10181587219068,12.91155048977004,0.0 80.10181587219068,12.91155048977004,0.0 80.10104264558949,12.91155607938327,0.0 80.10104264558949,12.91155607938327,0.0 80.10069897023504,12.912253689151761,0.0 80.10069897023504,12.912253689151761,0.0 80.10118369540974,12.912833714453093,0.0 80.10118369540974,12.912833714453093,0.0 80.10197793788812,12.913117813077708,0.0 80.10197793788812,12.913117813077708,0.0 80.10274041066737,12.913390547757341,0.0 80.10274041066737,12.913390547757341,0.0 80.10353465314574,12.913674646381958,0.0 80.10353465314574,12.913674646381958,0.0 80.10356406053302,12.913685165333673,0.0 80.10356406053302,12.913685165333673,0.0 80.12199348226268,12.913684515560936,0.0 80.12199348226268,12.913684515560936,0.0 80.12267759710419,12.91326434344409,0.0 80.12267759710419,12.91326434344409,0.0 80.12319551416985,12.912618745293885,0.0 80.12319551416985,12.912618745293885,0.0 80.1237305468464,12.911988238094317,0.0 80.1237305468464,12.911988238094317,0.0 80.12452926374394,12.911918856490328,0.0 80.12452926374394,12.911918856490328,0.0 80.12492339795436,12.9126223886786,0.0 80.12492339795436,12.9126223886786,0.0 80.1244246874267,12.913227466631374,0.0 80.1244246874267,12.913227466631374,0.0 80.12363486922943,12.913522776941935,0.0 80.12363486922943,12.913522776941935,0.0 80.12284505103219,12.913818087252494,0.0 80.12284505103219,12.913818087252494,0.0 80.12202364010705,12.914125209975477,0.0 80.12202364010705,12.914125209975477,0.0 80.12199351538291,12.914136473506336,0.0 80.12199351538291,12.914136473506336,0.0 80.10356406053302,12.914137123302574,0.0 80.10356406053302,12.914137123302574,0.0 80.10299655840916,12.913576322411673,0.0 80.10299655840916,12.913576322411673,0.0 80.1024256622655,12.913018506628507,0.0 80.1024256622655,12.913018506628507,0.0 80.10181586899758,12.91245440881142,0.0 80.10181586899758,12.91245440881142,0.0 80.10104264240732,12.912459999825884,0.0 80.10104264240732,12.912459999825884,0.0 80.10069896841674,12.913157610217175,0.0 80.10069896841674,12.913157610217175,0.0 80.10118369472544,12.913737634640094,0.0 80.10118369472544,12.913737634640094,0.0 80.10197793771404,12.914021731942533,0.0 80.10197793771404,12.914021731942533,0.0 80.10274041098309,12.914294465352873,0.0 80.10274041098309,12.914294465352873,0.0 80.10353465397169,12.914578562655311,0.0 80.10353465397169,12.914578562655311,0.0 80.10356406053302,12.914589081255873,0.0 80.10356406053302,12.914589081255873,0.0 80.1219935485044,12.914588431436137,0.0 80.1219935485044,12.914588431436137,0.0 80.12267766377865,12.914168259641077,0.0 80.12267766377865,12.914168259641077,0.0 80.1231955826474,12.91352266283165,0.0 80.1231955826474,12.91352266283165,0.0 80.12373061708489,12.912892157017165,0.0 80.12373061708489,12.912892157017165,0.0 80.12452933417619,12.91282277748088,0.0 80.12452933417619,12.91282277748088,0.0 80.12492346642172,12.913526310689475,0.0 80.12492346642172,12.913526310689475,0.0 80.12442475421389,12.91413138737536,0.0 80.12442475421389,12.91413138737536,0.0 80.12363493543555,12.914426696245366,0.0 80.12363493543555,12.914426696245366,0.0 80.12284511665722,12.914722005115372,0.0 80.12284511665722,12.914722005115372,0.0 80.12202370512775,12.915029126340176,0.0 80.12202370512775,12.915029126340176,0.0 80.12199358162715,12.915040389350331,0.0 80.12199358162715,12.915040389350331,0.0 80.10356406053302,12.91504103919357,0.0 80.10356406053302,12.91504103919357,0.0 80.1029965574094,12.914480239251091,0.0 80.1029965574094,12.914480239251091,0.0 80.10242566017511,12.91392242450257,0.0 80.10242566017511,12.91392242450257,0.0 80.10181586580426,12.913358327790618,0.0 80.10181586580426,12.913358327790618,0.0 80.10104263922493,12.91336392020641,0.0 80.10104263922493,12.91336392020641,0.0 80.10069896659833,12.914061531220543,0.0 80.10069896659833,12.914061531220543,0.0 80.10118369404108,12.914641554764987,0.0 80.10118369404108,12.914641554764987,0.0 80.10197793753994,12.914925650745154,0.0 80.10197793753994,12.914925650745154,0.0 80.10274041129885,12.915198382886112,0.0 80.10274041129885,12.915198382886112,0.0 80.10353465479771,12.915482478866277,0.0 80.10353465479771,12.915482478866277,0.0 80.10356406053302,12.915492997115663,0.0 80.10356406053302,12.915492997115663,0.0 80.12199361475116,12.915492347248923,0.0 80.12199361475116,12.915492347248923,0.0 80.12267773045818,12.915072175775673,0.0 80.12267773045818,12.915072175775673,0.0 80.12319565113013,12.914426580307126,0.0 80.12319565113013,12.914426580307126,0.0 80.12373068732869,12.913796075877833,0.0 80.12373068732869,12.913796075877833,0.0 80.12452940461377,12.913726698409405,0.0 80.12452940461377,12.913726698409405,0.0 80.12492353489426,12.914430232638395,0.0 80.12492353489426,12.914430232638395,0.0 80.12442482100614,12.915035308057291,0.0 80.12442482100614,12.915035308057291,0.0 80.12363500164669,12.915330615486639,0.0 80.12363500164669,12.915330615486639,0.0 80.12284518228722,12.915625922915982,0.0 80.12284518228722,12.915625922915982,0.0 80.12202377015339,12.915933042642502,0.0 80.12202377015339,12.915933042642502,0.0 80.12199364787642,12.915944305131916,0.0 80.12199364787642,12.915944305131916,0.0 80.10356406053302,12.915944955022155,0.0 80.10356406053302,12.915944955022155,0.0 80.10299655640958,12.915384156028168,0.0 80.10299655640958,12.915384156028168,0.0 80.10242565808457,12.914826342314363,0.0 80.10242565808457,12.914826342314363,0.0 80.10181586261072,12.914262246707633,0.0 80.10181586261072,12.914262246707633,0.0 80.10104263604234,12.91426784052485,0.0 80.10104263604234,12.91426784052485,0.0 80.10069896477978,12.91496545216187,0.0 80.10069896477978,12.91496545216187,0.0 80.10118369335669,12.915545474827772,0.0 80.10118369335669,12.915545474827772,0.0 80.10197793736585,12.91582956948557,0.0 80.10197793736585,12.91582956948557,0.0 80.10274041161463,12.916102300357057,0.0 80.10274041161463,12.916102300357057,0.0 80.10353465562379,12.916386395014854,0.0 80.10353465562379,12.916386395014854,0.0 80.10356406053302,12.916396912913042,0.0 80.10356406053302,12.916396912913042,0.0 80.12199368100295,12.916396262999307,0.0 80.12199368100295,12.916396262999307,0.0 80.1236226343509,12.91479834540479,0.0</coordinates>
            </LineString>
        </Placemark>
        <Placemark id="13751">
            <name>0</name>
            <Point id="13750">
                <coordinates>80.10356406053302,12.912781249349065,0.0</coordinates>
            </Point>
        </Placemark>
        <Placemark id="13753">
            <name>1</name>
            <Point id="13752">
                <coordinates>80.12199341602599,12.912780599623328,0.0</coordinates>
            </Point>
        </Placemark>
        <Placemark id="13755">
            <name>2</name>
            <Point id="13754">
                <coordinates>80.12267753043477,12.91236042718472,0.0</coordinates>
            </Point>
        </Placemark>
        <Placemark id="13757">
            <name>3</name>
            <Point id="13756">
                <coordinates>80.12319544569749,12.911714827693839,0.0</coordinates>
            </Point>
        </Placemark>
        <Placemark id="13759">
            <name>4</name>
            <Point id="13758">
                <coordinates>80.12373047661323,12.911084319109289,0.0</coordinates>
            </Point>
        </Placemark>
        <Placemark id="13761">
            <name>5</name>
            <Point id="13760">
                <coordinates>80.12452919331699,12.911014935437745,0.0</coordinates>
            </Point>
        </Placemark>
        <Placemark id="13763">
            <name>6</name>
            <Point id="13762">
                <coordinates>80.12492332949216,12.911718466605757,0.0</coordinates>
            </Point>
        </Placemark>
        <Placemark id="13765">
            <name>7</name>
            <Point id="13764">
                <coordinates>80.12442462064455,12.912323545825329,0.0</coordinates>
            </Point>
        </Placemark>
        <Placemark id="13767">
            <name>8</name>
            <Point id="13766">
                <coordinates>80.12363480302834,12.91261885757634,0.0</coordinates>
            </Point>
        </Placemark>
        <Placemark id="13769">
            <name>9</name>
            <Point id="13768">
                <coordinates>80.12284498541213,12.912914169327351,0.0</coordinates>
            </Point>
        </Placemark>
        <Placemark id="13771">
            <name>10</name>
            <Point id="13770">
                <coordinates>80.12202357509128,12.913221293548403,0.0</coordinates>
            </Point>
        </Placemark>
        <Placemark id="13773">
            <name>11</name>
            <Point id="13772">
                <coordinates>80.1219934491437,12.913232557599933,0.0</coordinates>
            </Point>
        </Placemark>
        <Placemark id="13775">
            <name>12</name>
            <Point id="13774">
                <coordinates>80.10356406053302,12.91323320734917,0.0</coordinates>
            </Point>
        </Placemark>
        <Placemark id="13777">
            <name>13</name>
            <Point id="13776">
                <coordinates>80.10299655940884,12.912672405509916,0.0</coordinates>
            </Point>
        </Placemark>
        <Placemark id="13779">
            <name>14</name>
            <Point id="13778">
                <coordinates>80.10242566435576,12.91211458869218,0.0</coordinates>
            </Point>
        </Placemark>
        <Placemark id="13781">
            <name>15</name>
            <Point id="13780">
                <coordinates>80.10181587219068,12.91155048977004,0.0</coordinates>
            </Point>
        </Placemark>
        <Placemark id="13783">
            <name>16</name>
            <Point id="13782">
                <coordinates>80.10104264558949,12.91155607938327,0.0</coordinates>
            </Point>
        </Placemark>
        <Placemark id="13785">
            <name>17</name>
            <Point id="13784">
                <coordinates>80.10069897023504,12.912253689151761,0.0</coordinates>
            </Point>
        </Placemark>
        <Placemark id="13787">
            <name>18</name>
            <Point id="13786">
                <coordinates>80.10118369540974,12.912833714453093,0.0</coordinates>
            </Point>
        </Placemark>
        <Placemark id="13789">
            <name>19</name>
            <Point id="13788">
                <coordinates>80.10197793788812,12.913117813077708,0.0</coordinates>
            </Point>
        </Placemark>
        <Placemark id="13791">
            <name>20</name>
            <Point id="13790">
                <coordinates>80.10274041066737,12.913390547757341,0.0</coordinates>
            </Point>
        </Placemark>
        <Placemark id="13793">
            <name>21</name>
            <Point id="13792">
                <coordinates>80.10353465314574,12.913674646381958,0.0</coordinates>
            </Point>
        </Placemark>
        <Placemark id="13795">
            <name>22</name>
            <Point id="13794">
                <coordinates>80.10356406053302,12.913685165333673,0.0</coordinates>
            </Point>
        </Placemark>
        <Placemark id="13797">
            <name>23</name>
            <Point id="13796">
                <coordinates>80.12199348226268,12.913684515560936,0.0</coordinates>
            </Point>
        </Placemark>
        <Placemark id="13799">
            <name>24</name>
            <Point id="13798">
                <coordinates>80.12267759710419,12.91326434344409,0.0</coordinates>
            </Point>
        </Placemark>
        <Placemark id="13801">
            <name>25</name>
            <Point id="13800">
                <coordinates>80.12319551416985,12.912618745293885,0.0</coordinates>
            </Point>
        </Placemark>
        <Placemark id="13803">
            <name>26</name>
            <Point id="13802">
                <coordinates>80.1237305468464,12.911988238094317,0.0</coordinates>
            </Point>
        </Placemark>
        <Placemark id="13805">
            <name>27</name>
            <Point id="13804">
                <coordinates>80.12452926374394,12.911918856490328,0.0</coordinates>
            </Point>
        </Placemark>
        <Placemark id="13807">
            <name>28</name>
            <Point id="13806">
                <coordinates>80.12492339795436,12.9126223886786,0.0</coordinates>
            </Point>
        </Placemark>
        <Placemark id="13809">
            <name>29</name>
            <Point id="13808">
                <coordinates>80.1244246874267,12.913227466631374,0.0</coordinates>
            </Point>
        </Placemark>
        <Placemark id="13811">
            <name>30</name>
            <Point id="13810">
                <coordinates>80.12363486922943,12.913522776941935,0.0</coordinates>
            </Point>
        </Placemark>
        <Placemark id="13813">
            <name>31</name>
            <Point id="13812">
                <coordinates>80.12284505103219,12.913818087252494,0.0</coordinates>
            </Point>
        </Placemark>
        <Placemark id="13815">
            <name>32</name>
            <Point id="13814">
                <coordinates>80.12202364010705,12.914125209975477,0.0</coordinates>
            </Point>
        </Placemark>
        <Placemark id="13817">
            <name>33</name>
            <Point id="13816">
                <coordinates>80.12199351538291,12.914136473506336,0.0</coordinates>
            </Point>
        </Placemark>
        <Placemark id="13819">
            <name>34</name>
            <Point id="13818">
                <coordinates>80.10356406053302,12.914137123302574,0.0</coordinates>
            </Point>
        </Placemark>
        <Placemark id="13821">
            <name>35</name>
            <Point id="13820">
                <coordinates>80.10299655840916,12.913576322411673,0.0</coordinates>
            </Point>
        </Placemark>
        <Placemark id="13823">
            <name>36</name>
            <Point id="13822">
                <coordinates>80.1024256622655,12.913018506628507,0.0</coordinates>
            </Point>
        </Placemark>
        <Placemark id="13825">
            <name>37</name>
            <Point id="13824">
                <coordinates>80.10181586899758,12.91245440881142,0.0</coordinates>
            </Point>
        </Placemark>
        <Placemark id="13827">
            <name>38</name>
            <Point id="13826">
                <coordinates>80.10104264240732,12.912459999825884,0.0</coordinates>
            </Point>
        </Placemark>
        <Placemark id="13829">
            <name>39</name>
            <Point id="13828">
                <coordinates>80.10069896841674,12.913157610217175,0.0</coordinates>
            </Point>
        </Placemark>
        <Placemark id="13831">
            <name>40</name>
            <Point id="13830">
                <coordinates>80.10118369472544,12.913737634640094,0.0</coordinates>
            </Point>
        </Placemark>
        <Placemark id="13833">
            <name>41</name>
            <Point id="13832">
                <coordinates>80.10197793771404,12.914021731942533,0.0</coordinates>
            </Point>
        </Placemark>
        <Placemark id="13835">
            <name>42</name>
            <Point id="13834">
                <coordinates>80.10274041098309,12.914294465352873,0.0</coordinates>
            </Point>
        </Placemark>
        <Placemark id="13837">
            <name>43</name>
            <Point id="13836">
                <coordinates>80.10353465397169,12.914578562655311,0.0</coordinates>
            </Point>
        </Placemark>
        <Placemark id="13839">
            <name>44</name>
            <Point id="13838">
                <coordinates>80.10356406053302,12.914589081255873,0.0</coordinates>
            </Point>
        </Placemark>
        <Placemark id="13841">
            <name>45</name>
            <Point id="13840">
                <coordinates>80.1219935485044,12.914588431436137,0.0</coordinates>
            </Point>
        </Placemark>
        <Placemark id="13843">
            <name>46</name>
            <Point id="13842">
                <coordinates>80.12267766377865,12.914168259641077,0.0</coordinates>
            </Point>
        </Placemark>
        <Placemark id="13845">
            <name>47</name>
            <Point id="13844">
                <coordinates>80.1231955826474,12.91352266283165,0.0</coordinates>
            </Point>
        </Placemark>
        <Placemark id="13847">
            <name>48</name>
            <Point id="13846">
                <coordinates>80.12373061708489,12.912892157017165,0.0</coordinates>
            </Point>
        </Placemark>
        <Placemark id="13849">
            <name>49</name>
            <Point id="13848">
                <coordinates>80.12452933417619,12.91282277748088,0.0</coordinates>
            </Point>
        </Placemark>
        <Placemark id="13851">
            <name>50</name>
            <Point id="13850">
                <coordinates>80.12492346642172,12.913526310689475,0.0</coordinates>
            </Point>
        </Placemark>
        <Placemark id="13853">
            <name>51</name>
            <Point id="13852">
                <coordinates>80.12442475421389,12.91413138737536,0.0</coordinates>
            </Point>
        </Placemark>
        <Placemark id="13855">
            <name>52</name>
            <Point id="13854">
                <coordinates>80.12363493543555,12.914426696245366,0.0</coordinates>
            </Point>
        </Placemark>
        <Placemark id="13857">
            <name>53</name>
            <Point id="13856">
                <coordinates>80.12284511665722,12.914722005115372,0.0</coordinates>
            </Point>
        </Placemark>
        <Placemark id="13859">
            <name>54</name>
            <Point id="13858">
                <coordinates>80.12202370512775,12.915029126340176,0.0</coordinates>
            </Point>
        </Placemark>
        <Placemark id="13861">
            <name>55</name>
            <Point id="13860">
                <coordinates>80.12199358162715,12.915040389350331,0.0</coordinates>
            </Point>
        </Placemark>
        <Placemark id="13863">
            <name>56</name>
            <Point id="13862">
                <coordinates>80.10356406053302,12.91504103919357,0.0</coordinates>
            </Point>
        </Placemark>
        <Placemark id="13865">
            <name>57</name>
            <Point id="13864">
                <coordinates>80.1029965574094,12.914480239251091,0.0</coordinates>
            </Point>
        </Placemark>
        <Placemark id="13867">
            <name>58</name>
            <Point id="13866">
                <coordinates>80.10242566017511,12.91392242450257,0.0</coordinates>
            </Point>
        </Placemark>
        <Placemark id="13869">
            <name>59</name>
            <Point id="13868">
                <coordinates>80.10181586580426,12.913358327790618,0.0</coordinates>
            </Point>
        </Placemark>
        <Placemark id="13871">
            <name>60</name>
            <Point id="13870">
                <coordinates>80.10104263922493,12.91336392020641,0.0</coordinates>
            </Point>
        </Placemark>
        <Placemark id="13873">
            <name>61</name>
            <Point id="13872">
                <coordinates>80.10069896659833,12.914061531220543,0.0</coordinates>
            </Point>
        </Placemark>
        <Placemark id="13875">
            <name>62</name>
            <Point id="13874">
                <coordinates>80.10118369404108,12.914641554764987,0.0</coordinates>
            </Point>
        </Placemark>
        <Placemark id="13877">
            <name>63</name>
            <Point id="13876">
                <coordinates>80.10197793753994,12.914925650745154,0.0</coordinates>
            </Point>
        </Placemark>
        <Placemark id="13879">
            <name>64</name>
            <Point id="13878">
                <coordinates>80.10274041129885,12.915198382886112,0.0</coordinates>
            </Point>
        </Placemark>
        <Placemark id="13881">
            <name>65</name>
            <Point id="13880">
                <coordinates>80.10353465479771,12.915482478866277,0.0</coordinates>
            </Point>
        </Placemark>
        <Placemark id="13883">
            <name>66</name>
            <Point id="13882">
                <coordinates>80.10356406053302,12.915492997115663,0.0</coordinates>
            </Point>
        </Placemark>
        <Placemark id="13885">
            <name>67</name>
            <Point id="13884">
                <coordinates>80.12199361475116,12.915492347248923,0.0</coordinates>
            </Point>
        </Placemark>
        <Placemark id="13887">
            <name>68</name>
            <Point id="13886">
                <coordinates>80.12267773045818,12.915072175775673,0.0</coordinates>
            </Point>
        </Placemark>
        <Placemark id="13889">
            <name>69</name>
            <Point id="13888">
                <coordinates>80.12319565113013,12.914426580307126,0.0</coordinates>
            </Point>
        </Placemark>
        <Placemark id="13891">
            <name>70</name>
            <Point id="13890">
                <coordinates>80.12373068732869,12.913796075877833,0.0</coordinates>
            </Point>
        </Placemark>
        <Placemark id="13893">
            <name>71</name>
            <Point id="13892">
                <coordinates>80.12452940461377,12.913726698409405,0.0</coordinates>
            </Point>
        </Placemark>
        <Placemark id="13895">
            <name>72</name>
            <Point id="13894">
                <coordinates>80.12492353489426,12.914430232638395,0.0</coordinates>
            </Point>
        </Placemark>
        <Placemark id="13897">
            <name>73</name>
            <Point id="13896">
                <coordinates>80.12442482100614,12.915035308057291,0.0</coordinates>
            </Point>
        </Placemark>
        <Placemark id="13899">
            <name>74</name>
            <Point id="13898">
                <coordinates>80.12363500164669,12.915330615486639,0.0</coordinates>
            </Point>
        </Placemark>
        <Placemark id="13901">
            <name>75</name>
            <Point id="13900">
                <coordinates>80.12284518228722,12.915625922915982,0.0</coordinates>
            </Point>
        </Placemark>
        <Placemark id="13903">
            <name>76</name>
            <Point id="13902">
                <coordinates>80.12202377015339,12.915933042642502,0.0</coordinates>
            </Point>
        </Placemark>
        <Placemark id="13905">
            <name>77</name>
            <Point id="13904">
                <coordinates>80.12199364787642,12.915944305131916,0.0</coordinates>
            </Point>
        </Placemark>
        <Placemark id="13907">
            <name>78</name>
            <Point id="13906">
                <coordinates>80.10356406053302,12.915944955022155,0.0</coordinates>
            </Point>
        </Placemark>
        <Placemark id="13909">
            <name>79</name>
            <Point id="13908">
                <coordinates>80.10299655640958,12.915384156028168,0.0</coordinates>
            </Point>
        </Placemark>
        <Placemark id="13911">
            <name>80</name>
            <Point id="13910">
                <coordinates>80.10242565808457,12.914826342314363,0.0</coordinates>
            </Point>
        </Placemark>
        <Placemark id="13913">
            <name>81</name>
            <Point id="13912">
                <coordinates>80.10181586261072,12.914262246707633,0.0</coordinates>
            </Point>
        </Placemark>
        <Placemark id="13915">
            <name>82</name>
            <Point id="13914">
                <coordinates>80.10104263604234,12.91426784052485,0.0</coordinates>
            </Point>
        </Placemark>
        <Placemark id="13917">
            <name>83</name>
            <Point id="13916">
                <coordinates>80.10069896477978,12.91496545216187,0.0</coordinates>
            </Point>
        </Placemark>
        <Placemark id="13919">
            <name>84</name>
            <Point id="13918">
                <coordinates>80.10118369335669,12.915545474827772,0.0</coordinates>
            </Point>
        </Placemark>
        <Placemark id="13921">
            <name>85</name>
            <Point id="13920">
                <coordinates>80.10197793736585,12.91582956948557,0.0</coordinates>
            </Point>
        </Placemark>
        <Placemark id="13923">
            <name>86</name>
            <Point id="13922">
                <coordinates>80.10274041161463,12.916102300357057,0.0</coordinates>
            </Point>
        </Placemark>
        <Placemark id="13925">
            <name>87</name>
            <Point id="13924">
                <coordinates>80.10353465562379,12.916386395014854,0.0</coordinates>
            </Point>
        </Placemark>
        <Placemark id="13927">
            <name>88</name>
            <Point id="13926">
                <coordinates>80.10356406053302,12.916396912913042,0.0</coordinates>
            </Point>
        </Placemark>
        <Placemark id="13929">
            <name>89</name>
            <Point id="13928">
                <coordinates>80.12199368100295,12.916396262999307,0.0</coordinates>
            </Point>
        </Placemark>
    </Document>
</kml>
