<?xml version="1.0" encoding="UTF-8"?>
<kml xmlns="http://www.opengis.net/kml/2.2" xmlns:gx="http://www.google.com/kml/ext/2.2">
    <Document id="931">
        <Style id="934">
            <LineStyle id="935">
                <color>ffff0000</color>
                <colorMode>normal</colorMode>
                <width>2</width>
            </LineStyle>
        </Style>
        <Placemark id="933">
            <styleUrl>#934</styleUrl>
            <LineString id="932">
                <altitudeMode>clampToGround</altitudeMode>
                <coordinates>80.13599669245588,13.022753126548496,0.0 80.14982478068907,13.022752757860006,0.0 80.14982478068907,13.022752757860006,0.0 80.15056865970612,13.022262421354482,0.0 80.15056865970612,13.022262421354482,0.0 80.15114097792082,13.021546790886685,0.0 80.15114097792082,13.021546790886685,0.0 80.15180506135138,13.020930562841416,0.0 80.15180506135138,13.020930562841416,0.0 80.1526413575203,13.021205329584616,0.0 80.1526413575203,13.021205329584616,0.0 80.15260239231228,13.022041808866167,0.0 80.15260239231228,13.022041808866167,0.0 80.15192065930152,13.02266554542913,0.0 80.15192065930152,13.02266554542913,0.0 80.15123490594297,13.023285612211684,0.0 80.15123490594297,13.023285612211684,0.0 80.15054915258442,13.023905678994238,0.0 80.15054915258442,13.023905678994238,0.0 80.1498389080345,13.024547891019026,0.0 80.1498389080345,13.024547891019026,0.0 80.14982488096751,13.024560574468817,0.0 80.14982488096751,13.024560574468817,0.0 80.13599669245588,13.024560943210224,0.0 80.13599669245588,13.024560943210224,0.0 80.13536340882618,13.023936684263784,0.0 80.13536340882618,13.023936684263784,0.0 80.13472716675204,13.023314955415298,0.0 80.13472716675204,13.023314955415298,0.0 80.13398900967914,13.02277938743703,0.0 80.13398900967914,13.02277938743703,0.0 80.13321026188086,13.023119825828129,0.0 80.13321026188086,13.023119825828129,0.0 80.13329328550125,13.0239273903316,0.0 80.13329328550125,13.0239273903316,0.0 80.13397765956071,13.024548689852285,0.0 80.13397765956071,13.024548689852285,0.0 80.13463988499328,13.025145657089586,0.0 80.13463988499328,13.025145657089586,0.0 80.13530211042584,13.025742624326886,0.0 80.13530211042584,13.025742624326886,0.0 80.13598886272628,13.026361701461864,0.0 80.13598886272628,13.026361701461864,0.0 80.13599669245588,13.026368759620334,0.0 80.13599669245588,13.026368759620334,0.0 80.14982498126108,13.026368390826008,0.0 80.14982498126108,13.026368390826008,0.0 80.15056886265614,13.02587805602152,0.0 80.15056886265614,13.02587805602152,0.0 80.15114118919384,13.02516243150736,0.0 80.15114118919384,13.02516243150736,0.0 80.15180527979132,13.024546210370316,0.0 80.15180527979132,13.024546210370316,0.0 80.15264157276455,13.024820985813147,0.0 80.15264157276455,13.024820985813147,0.0 80.15260259782796,13.025657464689306,0.0 80.15260259782796,13.025657464689306,0.0 80.15192086085612,13.026281197418035,0.0 80.15192086085612,13.026281197418035,0.0 80.15123510397434,13.026901260715443,0.0 80.15123510397434,13.026901260715443,0.0 80.15054934709255,13.027521324012849,0.0 80.15054934709255,13.027521324012849,0.0 80.14983909889357,13.028163532428023,0.0 80.14983909889357,13.028163532428023,0.0 80.14982508156977,13.028176206931544,0.0 80.14982508156977,13.028176206931544,0.0 80.13599669245588,13.028176575778794,0.0 80.13599669245588,13.028176575778794,0.0 80.13536340420404,13.027552321063082,0.0 80.13536340420404,13.027552321063082,0.0 80.134727157138,13.026930596783782,0.0 80.134727157138,13.026930596783782,0.0 80.13398899576501,13.026395034106597,0.0 80.13398899576501,13.026395034106597,0.0 80.13321025070016,13.026735478090256,0.0 80.13321025070016,13.026735478090256,0.0 80.13329328080457,13.02754304199747,0.0 80.13329328080457,13.02754304199747,0.0 80.13397765817294,13.028164338269772,0.0 80.13397765817294,13.028164338269772,0.0 80.13463988665448,13.028761302481843,0.0 80.13463988665448,13.028761302481843,0.0 80.13530211513601,13.029358266693915,0.0 80.13530211513601,13.029358266693915,0.0 80.13598887059834,13.02997734069162,0.0 80.13598887059834,13.02997734069162,0.0 80.13599669245588,13.029984391685572,0.0 80.13599669245588,13.029984391685572,0.0 80.1498251818936,13.029984022785401,0.0 80.1498251818936,13.029984022785401,0.0 80.15056906566733,13.029493689682461,0.0 80.15056906566733,13.029493689682461,0.0 80.15114140053034,13.028778071123712,0.0 80.15114140053034,13.028778071123712,0.0 80.1518054982967,13.028161856896931,0.0 80.1518054982967,13.028161856896931,0.0 80.15264178807323,13.02843664104183,0.0 80.15264178807323,13.02843664104183,0.0 80.15260280340533,13.029273119512384,0.0 80.15260280340533,13.029273119512384,0.0 80.15192106247129,13.029896848405768,0.0 80.15192106247129,13.029896848405768,0.0 80.1512353020653,13.030516908217026,0.0 80.1512353020653,13.030516908217026,0.0 80.1505495416593,13.031136968028285,0.0 80.1505495416593,13.031136968028285,0.0 80.14983928981025,13.031779172832803,0.0 80.14983928981025,13.031779172832803,0.0 80.14982528223258,13.031791838387543,0.0 80.14982528223258,13.031791838387543,0.0 80.13599669245588,13.031792207340636,0.0 80.13599669245588,13.031792207340636,0.0 80.13536339958061,13.031167956856898,0.0 80.13536339958061,13.031167956856898,0.0 80.13472714752129,13.030546237148128,0.0 80.13472714752129,13.030546237148128,0.0 80.13398898184698,13.03001067977358,0.0 80.13398898184698,13.03001067977358,0.0 80.1332102395164,13.030351129351384,0.0 80.1332102395164,13.030351129351384,0.0 80.13329327610667,13.031158692662125,0.0 80.13329327610667,13.031158692662125,0.0 80.13397765678492,13.031779985685091,0.0 80.13397765678492,13.031779985685091,0.0 80.13463988831629,13.03237694687105,0.0 80.13463988831629,13.03237694687105,0.0 80.13530211984765,13.03297390805701,0.0 80.13530211984765,13.03297390805701,0.0 80.13598887847276,13.033592978916522,0.0 80.13598887847276,13.033592978916522,0.0 80.13599669245588,13.033600022743952,0.0 80.13599669245588,13.033600022743952,0.0 80.14982538258668,13.033599653737935,0.0 80.14982538258668,13.033599653737935,0.0 80.15056926873973,13.033109322337053,0.0 80.15056926873973,13.033109322337053,0.0 80.15114161193034,13.032393709735507,0.0 80.15114161193034,13.032393709735507,0.0 80.15180571686756,13.031777502421036,0.0 80.15180571686756,13.031777502421036,0.0 80.15264200344637,13.032052295270455,0.0 80.15264200344637,13.032052295270455,0.0 80.15260300904437,13.032888773335188,0.0 80.15260300904437,13.032888773335188,0.0 80.15192126414703,13.033512498392101,0.0 80.15192126414703,13.033512498392101,0.0 80.15123550021585,13.034132554716194,0.0 80.15123550021585,13.034132554716194,0.0 80.15054973628466,13.034752611040286,0.0 80.15054973628466,13.034752611040286,0.0 80.14983948078451,13.035394812233097,0.0 80.14983948078451,13.035394812233097,0.0 80.14982548295592,13.03540746883655,0.0 80.14982548295592,13.03540746883655,0.0 80.13599669245588,13.035407837895491,0.0 80.13599669245588,13.035407837895491,0.0 80.13436696432002,13.03380993484185,0.0</coordinates>
            </LineString>
        </Placemark>
        <Placemark id="937">
            <name>0</name>
            <Point id="936">
                <coordinates>80.13599669245588,13.022753126548496,0.0</coordinates>
            </Point>
        </Placemark>
        <Placemark id="939">
            <name>1</name>
            <Point id="938">
                <coordinates>80.14982478068907,13.022752757860006,0.0</coordinates>
            </Point>
        </Placemark>
        <Placemark id="941">
            <name>2</name>
            <Point id="940">
                <coordinates>80.15056865970612,13.022262421354482,0.0</coordinates>
            </Point>
        </Placemark>
        <Placemark id="943">
            <name>3</name>
            <Point id="942">
                <coordinates>80.15114097792082,13.021546790886685,0.0</coordinates>
            </Point>
        </Placemark>
        <Placemark id="945">
            <name>4</name>
            <Point id="944">
                <coordinates>80.15180506135138,13.020930562841416,0.0</coordinates>
            </Point>
        </Placemark>
        <Placemark id="947">
            <name>5</name>
            <Point id="946">
                <coordinates>80.1526413575203,13.021205329584616,0.0</coordinates>
            </Point>
        </Placemark>
        <Placemark id="949">
            <name>6</name>
            <Point id="948">
                <coordinates>80.15260239231228,13.022041808866167,0.0</coordinates>
            </Point>
        </Placemark>
        <Placemark id="951">
            <name>7</name>
            <Point id="950">
                <coordinates>80.15192065930152,13.02266554542913,0.0</coordinates>
            </Point>
        </Placemark>
        <Placemark id="953">
            <name>8</name>
            <Point id="952">
                <coordinates>80.15123490594297,13.023285612211684,0.0</coordinates>
            </Point>
        </Placemark>
        <Placemark id="955">
            <name>9</name>
            <Point id="954">
                <coordinates>80.15054915258442,13.023905678994238,0.0</coordinates>
            </Point>
        </Placemark>
        <Placemark id="957">
            <name>10</name>
            <Point id="956">
                <coordinates>80.1498389080345,13.024547891019026,0.0</coordinates>
            </Point>
        </Placemark>
        <Placemark id="959">
            <name>11</name>
            <Point id="958">
                <coordinates>80.14982488096751,13.024560574468817,0.0</coordinates>
            </Point>
        </Placemark>
        <Placemark id="961">
            <name>12</name>
            <Point id="960">
                <coordinates>80.13599669245588,13.024560943210224,0.0</coordinates>
            </Point>
        </Placemark>
        <Placemark id="963">
            <name>13</name>
            <Point id="962">
                <coordinates>80.13536340882618,13.023936684263784,0.0</coordinates>
            </Point>
        </Placemark>
        <Placemark id="965">
            <name>14</name>
            <Point id="964">
                <coordinates>80.13472716675204,13.023314955415298,0.0</coordinates>
            </Point>
        </Placemark>
        <Placemark id="967">
            <name>15</name>
            <Point id="966">
                <coordinates>80.13398900967914,13.02277938743703,0.0</coordinates>
            </Point>
        </Placemark>
        <Placemark id="969">
            <name>16</name>
            <Point id="968">
                <coordinates>80.13321026188086,13.023119825828129,0.0</coordinates>
            </Point>
        </Placemark>
        <Placemark id="971">
            <name>17</name>
            <Point id="970">
                <coordinates>80.13329328550125,13.0239273903316,0.0</coordinates>
            </Point>
        </Placemark>
        <Placemark id="973">
            <name>18</name>
            <Point id="972">
                <coordinates>80.13397765956071,13.024548689852285,0.0</coordinates>
            </Point>
        </Placemark>
        <Placemark id="975">
            <name>19</name>
            <Point id="974">
                <coordinates>80.13463988499328,13.025145657089586,0.0</coordinates>
            </Point>
        </Placemark>
        <Placemark id="977">
            <name>20</name>
            <Point id="976">
                <coordinates>80.13530211042584,13.025742624326886,0.0</coordinates>
            </Point>
        </Placemark>
        <Placemark id="979">
            <name>21</name>
            <Point id="978">
                <coordinates>80.13598886272628,13.026361701461864,0.0</coordinates>
            </Point>
        </Placemark>
        <Placemark id="981">
            <name>22</name>
            <Point id="980">
                <coordinates>80.13599669245588,13.026368759620334,0.0</coordinates>
            </Point>
        </Placemark>
        <Placemark id="983">
            <name>23</name>
            <Point id="982">
                <coordinates>80.14982498126108,13.026368390826008,0.0</coordinates>
            </Point>
        </Placemark>
        <Placemark id="985">
            <name>24</name>
            <Point id="984">
                <coordinates>80.15056886265614,13.02587805602152,0.0</coordinates>
            </Point>
        </Placemark>
        <Placemark id="987">
            <name>25</name>
            <Point id="986">
                <coordinates>80.15114118919384,13.02516243150736,0.0</coordinates>
            </Point>
        </Placemark>
        <Placemark id="989">
            <name>26</name>
            <Point id="988">
                <coordinates>80.15180527979132,13.024546210370316,0.0</coordinates>
            </Point>
        </Placemark>
        <Placemark id="991">
            <name>27</name>
            <Point id="990">
                <coordinates>80.15264157276455,13.024820985813147,0.0</coordinates>
            </Point>
        </Placemark>
        <Placemark id="993">
            <name>28</name>
            <Point id="992">
                <coordinates>80.15260259782796,13.025657464689306,0.0</coordinates>
            </Point>
        </Placemark>
        <Placemark id="995">
            <name>29</name>
            <Point id="994">
                <coordinates>80.15192086085612,13.026281197418035,0.0</coordinates>
            </Point>
        </Placemark>
        <Placemark id="997">
            <name>30</name>
            <Point id="996">
                <coordinates>80.15123510397434,13.026901260715443,0.0</coordinates>
            </Point>
        </Placemark>
        <Placemark id="999">
            <name>31</name>
            <Point id="998">
                <coordinates>80.15054934709255,13.027521324012849,0.0</coordinates>
            </Point>
        </Placemark>
        <Placemark id="1001">
            <name>32</name>
            <Point id="1000">
                <coordinates>80.14983909889357,13.028163532428023,0.0</coordinates>
            </Point>
        </Placemark>
        <Placemark id="1003">
            <name>33</name>
            <Point id="1002">
                <coordinates>80.14982508156977,13.028176206931544,0.0</coordinates>
            </Point>
        </Placemark>
        <Placemark id="1005">
            <name>34</name>
            <Point id="1004">
                <coordinates>80.13599669245588,13.028176575778794,0.0</coordinates>
            </Point>
        </Placemark>
        <Placemark id="1007">
            <name>35</name>
            <Point id="1006">
                <coordinates>80.13536340420404,13.027552321063082,0.0</coordinates>
            </Point>
        </Placemark>
        <Placemark id="1009">
            <name>36</name>
            <Point id="1008">
                <coordinates>80.134727157138,13.026930596783782,0.0</coordinates>
            </Point>
        </Placemark>
        <Placemark id="1011">
            <name>37</name>
            <Point id="1010">
                <coordinates>80.13398899576501,13.026395034106597,0.0</coordinates>
            </Point>
        </Placemark>
        <Placemark id="1013">
            <name>38</name>
            <Point id="1012">
                <coordinates>80.13321025070016,13.026735478090256,0.0</coordinates>
            </Point>
        </Placemark>
        <Placemark id="1015">
            <name>39</name>
            <Point id="1014">
                <coordinates>80.13329328080457,13.02754304199747,0.0</coordinates>
            </Point>
        </Placemark>
        <Placemark id="1017">
            <name>40</name>
            <Point id="1016">
                <coordinates>80.13397765817294,13.028164338269772,0.0</coordinates>
            </Point>
        </Placemark>
        <Placemark id="1019">
            <name>41</name>
            <Point id="1018">
                <coordinates>80.13463988665448,13.028761302481843,0.0</coordinates>
            </Point>
        </Placemark>
        <Placemark id="1021">
            <name>42</name>
            <Point id="1020">
                <coordinates>80.13530211513601,13.029358266693915,0.0</coordinates>
            </Point>
        </Placemark>
        <Placemark id="1023">
            <name>43</name>
            <Point id="1022">
                <coordinates>80.13598887059834,13.02997734069162,0.0</coordinates>
            </Point>
        </Placemark>
        <Placemark id="1025">
            <name>44</name>
            <Point id="1024">
                <coordinates>80.13599669245588,13.029984391685572,0.0</coordinates>
            </Point>
        </Placemark>
        <Placemark id="1027">
            <name>45</name>
            <Point id="1026">
                <coordinates>80.1498251818936,13.029984022785401,0.0</coordinates>
            </Point>
        </Placemark>
        <Placemark id="1029">
            <name>46</name>
            <Point id="1028">
                <coordinates>80.15056906566733,13.029493689682461,0.0</coordinates>
            </Point>
        </Placemark>
        <Placemark id="1031">
            <name>47</name>
            <Point id="1030">
                <coordinates>80.15114140053034,13.028778071123712,0.0</coordinates>
            </Point>
        </Placemark>
        <Placemark id="1033">
            <name>48</name>
            <Point id="1032">
                <coordinates>80.1518054982967,13.028161856896931,0.0</coordinates>
            </Point>
        </Placemark>
        <Placemark id="1035">
            <name>49</name>
            <Point id="1034">
                <coordinates>80.15264178807323,13.02843664104183,0.0</coordinates>
            </Point>
        </Placemark>
        <Placemark id="1037">
            <name>50</name>
            <Point id="1036">
                <coordinates>80.15260280340533,13.029273119512384,0.0</coordinates>
            </Point>
        </Placemark>
        <Placemark id="1039">
            <name>51</name>
            <Point id="1038">
                <coordinates>80.15192106247129,13.029896848405768,0.0</coordinates>
            </Point>
        </Placemark>
        <Placemark id="1041">
            <name>52</name>
            <Point id="1040">
                <coordinates>80.1512353020653,13.030516908217026,0.0</coordinates>
            </Point>
        </Placemark>
        <Placemark id="1043">
            <name>53</name>
            <Point id="1042">
                <coordinates>80.1505495416593,13.031136968028285,0.0</coordinates>
            </Point>
        </Placemark>
        <Placemark id="1045">
            <name>54</name>
            <Point id="1044">
                <coordinates>80.14983928981025,13.031779172832803,0.0</coordinates>
            </Point>
        </Placemark>
        <Placemark id="1047">
            <name>55</name>
            <Point id="1046">
                <coordinates>80.14982528223258,13.031791838387543,0.0</coordinates>
            </Point>
        </Placemark>
        <Placemark id="1049">
            <name>56</name>
            <Point id="1048">
                <coordinates>80.13599669245588,13.031792207340636,0.0</coordinates>
            </Point>
        </Placemark>
        <Placemark id="1051">
            <name>57</name>
            <Point id="1050">
                <coordinates>80.13536339958061,13.031167956856898,0.0</coordinates>
            </Point>
        </Placemark>
        <Placemark id="1053">
            <name>58</name>
            <Point id="1052">
                <coordinates>80.13472714752129,13.030546237148128,0.0</coordinates>
            </Point>
        </Placemark>
        <Placemark id="1055">
            <name>59</name>
            <Point id="1054">
                <coordinates>80.13398898184698,13.03001067977358,0.0</coordinates>
            </Point>
        </Placemark>
        <Placemark id="1057">
            <name>60</name>
            <Point id="1056">
                <coordinates>80.1332102395164,13.030351129351384,0.0</coordinates>
            </Point>
        </Placemark>
        <Placemark id="1059">
            <name>61</name>
            <Point id="1058">
                <coordinates>80.13329327610667,13.031158692662125,0.0</coordinates>
            </Point>
        </Placemark>
        <Placemark id="1061">
            <name>62</name>
            <Point id="1060">
                <coordinates>80.13397765678492,13.031779985685091,0.0</coordinates>
            </Point>
        </Placemark>
        <Placemark id="1063">
            <name>63</name>
            <Point id="1062">
                <coordinates>80.13463988831629,13.03237694687105,0.0</coordinates>
            </Point>
        </Placemark>
        <Placemark id="1065">
            <name>64</name>
            <Point id="1064">
                <coordinates>80.13530211984765,13.03297390805701,0.0</coordinates>
            </Point>
        </Placemark>
        <Placemark id="1067">
            <name>65</name>
            <Point id="1066">
                <coordinates>80.13598887847276,13.033592978916522,0.0</coordinates>
            </Point>
        </Placemark>
        <Placemark id="1069">
            <name>66</name>
            <Point id="1068">
                <coordinates>80.13599669245588,13.033600022743952,0.0</coordinates>
            </Point>
        </Placemark>
        <Placemark id="1071">
            <name>67</name>
            <Point id="1070">
                <coordinates>80.14982538258668,13.033599653737935,0.0</coordinates>
            </Point>
        </Placemark>
        <Placemark id="1073">
            <name>68</name>
            <Point id="1072">
                <coordinates>80.15056926873973,13.033109322337053,0.0</coordinates>
            </Point>
        </Placemark>
        <Placemark id="1075">
            <name>69</name>
            <Point id="1074">
                <coordinates>80.15114161193034,13.032393709735507,0.0</coordinates>
            </Point>
        </Placemark>
        <Placemark id="1077">
            <name>70</name>
            <Point id="1076">
                <coordinates>80.15180571686756,13.031777502421036,0.0</coordinates>
            </Point>
        </Placemark>
        <Placemark id="1079">
            <name>71</name>
            <Point id="1078">
                <coordinates>80.15264200344637,13.032052295270455,0.0</coordinates>
            </Point>
        </Placemark>
        <Placemark id="1081">
            <name>72</name>
            <Point id="1080">
                <coordinates>80.15260300904437,13.032888773335188,0.0</coordinates>
            </Point>
        </Placemark>
        <Placemark id="1083">
            <name>73</name>
            <Point id="1082">
                <coordinates>80.15192126414703,13.033512498392101,0.0</coordinates>
            </Point>
        </Placemark>
        <Placemark id="1085">
            <name>74</name>
            <Point id="1084">
                <coordinates>80.15123550021585,13.034132554716194,0.0</coordinates>
            </Point>
        </Placemark>
        <Placemark id="1087">
            <name>75</name>
            <Point id="1086">
                <coordinates>80.15054973628466,13.034752611040286,0.0</coordinates>
            </Point>
        </Placemark>
        <Placemark id="1089">
            <name>76</name>
            <Point id="1088">
                <coordinates>80.14983948078451,13.035394812233097,0.0</coordinates>
            </Point>
        </Placemark>
        <Placemark id="1091">
            <name>77</name>
            <Point id="1090">
                <coordinates>80.14982548295592,13.03540746883655,0.0</coordinates>
            </Point>
        </Placemark>
        <Placemark id="1093">
            <name>78</name>
            <Point id="1092">
                <coordinates>80.13599669245588,13.035407837895491,0.0</coordinates>
            </Point>
        </Placemark>
    </Document>
</kml>
