<?xml version="1.0" encoding="UTF-8"?>
<kml xmlns="http://www.opengis.net/kml/2.2" xmlns:gx="http://www.google.com/kml/ext/2.2">
    <Document id="695">
        <Style id="698">
            <LineStyle id="699">
                <color>ffff0000</color>
                <colorMode>normal</colorMode>
                <width>2</width>
            </LineStyle>
        </Style>
        <Placemark id="697">
            <styleUrl>#698</styleUrl>
            <LineString id="696">
                <altitudeMode>clampToGround</altitudeMode>
                <coordinates>80.10404697542093,13.014881992264351,0.0 80.1178746272239,13.01488162380626,0.0 80.1178746272239,13.01488162380626,0.0 80.1186185010664,13.01439128359939,0.0 80.1186185010664,13.01439128359939,0.0 80.11919080117009,13.013675640176878,0.0 80.11919080117009,13.013675640176878,0.0 80.11985486900528,13.01305939709968,0.0 80.11985486900528,13.01305939709968,0.0 80.12069117212762,13.01333414491251,0.0 80.12069117212762,13.01333414491251,0.0 80.12065222808882,13.014170625075833,0.0 80.12065222808882,13.014170625075833,0.0 80.1199705036974,13.014794369981942,0.0 80.1199705036974,13.014794369981942,0.0 80.11928475800542,13.015414444348053,0.0 80.11928475800542,13.015414444348053,0.0 80.11859901231342,13.016034518714163,0.0 80.11859901231342,13.016034518714163,0.0 80.11788877570388,13.016676738593349,0.0 80.11788877570388,13.016676738593349,0.0 80.11787472743644,13.016689441510218,0.0 80.11787472743644,13.016689441510218,0.0 80.10404697542093,13.016689810021225,0.0 80.10404697542093,13.016689810021225,0.0 80.10341370184901,13.016065541868924,0.0 80.10341370184901,13.016065541868924,0.0 80.10277747063728,13.015443803078108,0.0 80.10277747063728,13.015443803078108,0.0 80.10203932292148,13.014908223564897,0.0 80.10203932292148,13.014908223564897,0.0 80.10126056917545,13.015248649786628,0.0 80.10126056917545,13.015248649786628,0.0 80.10134357868675,13.01605621558738,0.0 80.10134357868675,13.01605621558738,0.0 80.10202794554598,13.01667752217642,0.0 80.10202794554598,13.01667752217642,0.0 80.10269016434401,13.0172744959965,0.0 80.10269016434401,13.0172744959965,0.0 80.10335238314205,13.01787146981658,0.0 80.10335238314205,13.01787146981658,0.0 80.10403912856222,13.018490553778143,0.0 80.10403912856222,13.018490553778143,0.0 80.10404697542093,13.018497627526623,0.0 80.10404697542093,13.018497627526623,0.0 80.11787482766412,13.018497258962702,0.0 80.11787482766412,13.018497258962702,0.0 80.11861870388319,13.018006920455758,0.0 80.11861870388319,13.018006920455758,0.0 80.11919101230488,13.017291282982992,0.0 80.11919101230488,13.017291282982992,0.0 80.11985508730271,13.016675046809562,0.0 80.11985508730271,13.016675046809562,0.0 80.12069138723156,13.016949803316688,0.0 80.12069138723156,13.016949803316688,0.0 80.12065243347023,13.017786283075091,0.0 80.12065243347023,13.017786283075091,0.0 80.11997070512014,13.018410024149402,0.0 80.11997070512014,13.018410024149402,0.0 80.11928495590706,13.019030095032573,0.0 80.11928495590706,13.019030095032573,0.0 80.11859920669399,13.019650165915742,0.0 80.11859920669399,13.019650165915742,0.0 80.11788896643759,13.020292382187597,0.0 80.11788896643759,13.020292382187597,0.0 80.11787492790693,13.020305076163677,0.0 80.11787492790693,13.020305076163677,0.0 80.10404697542093,13.020305444780513,0.0 80.10404697542093,13.020305444780513,0.0 80.10241734603281,13.018707539874763,0.0</coordinates>
            </LineString>
        </Placemark>
        <Placemark id="701">
            <name>0</name>
            <Point id="700">
                <coordinates>80.10404697542093,13.014881992264351,0.0</coordinates>
            </Point>
        </Placemark>
        <Placemark id="703">
            <name>1</name>
            <Point id="702">
                <coordinates>80.1178746272239,13.01488162380626,0.0</coordinates>
            </Point>
        </Placemark>
        <Placemark id="705">
            <name>2</name>
            <Point id="704">
                <coordinates>80.1186185010664,13.01439128359939,0.0</coordinates>
            </Point>
        </Placemark>
        <Placemark id="707">
            <name>3</name>
            <Point id="706">
                <coordinates>80.11919080117009,13.013675640176878,0.0</coordinates>
            </Point>
        </Placemark>
        <Placemark id="709">
            <name>4</name>
            <Point id="708">
                <coordinates>80.11985486900528,13.01305939709968,0.0</coordinates>
            </Point>
        </Placemark>
        <Placemark id="711">
            <name>5</name>
            <Point id="710">
                <coordinates>80.12069117212762,13.01333414491251,0.0</coordinates>
            </Point>
        </Placemark>
        <Placemark id="713">
            <name>6</name>
            <Point id="712">
                <coordinates>80.12065222808882,13.014170625075833,0.0</coordinates>
            </Point>
        </Placemark>
        <Placemark id="715">
            <name>7</name>
            <Point id="714">
                <coordinates>80.1199705036974,13.014794369981942,0.0</coordinates>
            </Point>
        </Placemark>
        <Placemark id="717">
            <name>8</name>
            <Point id="716">
                <coordinates>80.11928475800542,13.015414444348053,0.0</coordinates>
            </Point>
        </Placemark>
        <Placemark id="719">
            <name>9</name>
            <Point id="718">
                <coordinates>80.11859901231342,13.016034518714163,0.0</coordinates>
            </Point>
        </Placemark>
        <Placemark id="721">
            <name>10</name>
            <Point id="720">
                <coordinates>80.11788877570388,13.016676738593349,0.0</coordinates>
            </Point>
        </Placemark>
        <Placemark id="723">
            <name>11</name>
            <Point id="722">
                <coordinates>80.11787472743644,13.016689441510218,0.0</coordinates>
            </Point>
        </Placemark>
        <Placemark id="725">
            <name>12</name>
            <Point id="724">
                <coordinates>80.10404697542093,13.016689810021225,0.0</coordinates>
            </Point>
        </Placemark>
        <Placemark id="727">
            <name>13</name>
            <Point id="726">
                <coordinates>80.10341370184901,13.016065541868924,0.0</coordinates>
            </Point>
        </Placemark>
        <Placemark id="729">
            <name>14</name>
            <Point id="728">
                <coordinates>80.10277747063728,13.015443803078108,0.0</coordinates>
            </Point>
        </Placemark>
        <Placemark id="731">
            <name>15</name>
            <Point id="730">
                <coordinates>80.10203932292148,13.014908223564897,0.0</coordinates>
            </Point>
        </Placemark>
        <Placemark id="733">
            <name>16</name>
            <Point id="732">
                <coordinates>80.10126056917545,13.015248649786628,0.0</coordinates>
            </Point>
        </Placemark>
        <Placemark id="735">
            <name>17</name>
            <Point id="734">
                <coordinates>80.10134357868675,13.01605621558738,0.0</coordinates>
            </Point>
        </Placemark>
        <Placemark id="737">
            <name>18</name>
            <Point id="736">
                <coordinates>80.10202794554598,13.01667752217642,0.0</coordinates>
            </Point>
        </Placemark>
        <Placemark id="739">
            <name>19</name>
            <Point id="738">
                <coordinates>80.10269016434401,13.0172744959965,0.0</coordinates>
            </Point>
        </Placemark>
        <Placemark id="741">
            <name>20</name>
            <Point id="740">
                <coordinates>80.10335238314205,13.01787146981658,0.0</coordinates>
            </Point>
        </Placemark>
        <Placemark id="743">
            <name>21</name>
            <Point id="742">
                <coordinates>80.10403912856222,13.018490553778143,0.0</coordinates>
            </Point>
        </Placemark>
        <Placemark id="745">
            <name>22</name>
            <Point id="744">
                <coordinates>80.10404697542093,13.018497627526623,0.0</coordinates>
            </Point>
        </Placemark>
        <Placemark id="747">
            <name>23</name>
            <Point id="746">
                <coordinates>80.11787482766412,13.018497258962702,0.0</coordinates>
            </Point>
        </Placemark>
        <Placemark id="749">
            <name>24</name>
            <Point id="748">
                <coordinates>80.11861870388319,13.018006920455758,0.0</coordinates>
            </Point>
        </Placemark>
        <Placemark id="751">
            <name>25</name>
            <Point id="750">
                <coordinates>80.11919101230488,13.017291282982992,0.0</coordinates>
            </Point>
        </Placemark>
        <Placemark id="753">
            <name>26</name>
            <Point id="752">
                <coordinates>80.11985508730271,13.016675046809562,0.0</coordinates>
            </Point>
        </Placemark>
        <Placemark id="755">
            <name>27</name>
            <Point id="754">
                <coordinates>80.12069138723156,13.016949803316688,0.0</coordinates>
            </Point>
        </Placemark>
        <Placemark id="757">
            <name>28</name>
            <Point id="756">
                <coordinates>80.12065243347023,13.017786283075091,0.0</coordinates>
            </Point>
        </Placemark>
        <Placemark id="759">
            <name>29</name>
            <Point id="758">
                <coordinates>80.11997070512014,13.018410024149402,0.0</coordinates>
            </Point>
        </Placemark>
        <Placemark id="761">
            <name>30</name>
            <Point id="760">
                <coordinates>80.11928495590706,13.019030095032573,0.0</coordinates>
            </Point>
        </Placemark>
        <Placemark id="763">
            <name>31</name>
            <Point id="762">
                <coordinates>80.11859920669399,13.019650165915742,0.0</coordinates>
            </Point>
        </Placemark>
        <Placemark id="765">
            <name>32</name>
            <Point id="764">
                <coordinates>80.11788896643759,13.020292382187597,0.0</coordinates>
            </Point>
        </Placemark>
        <Placemark id="767">
            <name>33</name>
            <Point id="766">
                <coordinates>80.11787492790693,13.020305076163677,0.0</coordinates>
            </Point>
        </Placemark>
        <Placemark id="769">
            <name>34</name>
            <Point id="768">
                <coordinates>80.10404697542093,13.020305444780513,0.0</coordinates>
            </Point>
        </Placemark>
    </Document>
</kml>
