<?xml version="1.0" encoding="UTF-8"?>
<kml xmlns="http://www.opengis.net/kml/2.2" xmlns:gx="http://www.google.com/kml/ext/2.2">
    <Document id="14237">
        <Style id="14240">
            <LineStyle id="14241">
                <color>ffff0000</color>
                <colorMode>normal</colorMode>
                <width>2</width>
            </LineStyle>
        </Style>
        <Placemark id="14239">
            <styleUrl>#14240</styleUrl>
            <LineString id="14238">
                <altitudeMode>clampToGround</altitudeMode>
                <coordinates>80.10356406053302,12.920012575478328,0.0 80.12199394606046,12.920011925376585,0.0 80.12199394606046,12.920011925376585,0.0 80.12267806393177,12.919591755512753,0.0 80.12267806393177,12.919591755512753,0.0 80.12319599362166,12.918946166750112,0.0 80.12319599362166,12.918946166750112,0.0 80.12373103862735,12.91831566924833,0.0 80.12373103862735,12.91831566924833,0.0 80.12452975688146,12.918246302121407,0.0 80.12452975688146,12.918246302121407,0.0 80.12492387733462,12.91894984145339,0.0 80.12492387733462,12.91894984145339,0.0 80.12442515504333,12.919554910535926,0.0 80.12442515504333,12.919554910535926,0.0 80.12363533277767,12.919850210760393,0.0 80.12363533277767,12.919850210760393,0.0 80.12284551051201,12.920145510984861,0.0 80.12284551051201,12.920145510984861,0.0 80.12202409535571,12.92045262321831,0.0 80.12202409535571,12.92045262321831,0.0 80.12199397919831,12.920463883103512,0.0 80.12199397919831,12.920463883103512,0.0 80.10356406053302,12.920464533228754,0.0 80.10356406053302,12.920464533228754,0.0 80.1029965514094,12.919903738978292,0.0 80.1029965514094,12.919903738978292,0.0 80.10242564762964,12.91934593043924,0.0 80.10242564762964,12.91934593043924,0.0 80.10181584663962,12.918781840359834,0.0 80.10181584663962,12.918781840359834,0.0 80.10104262012597,12.918787441185717,0.0 80.10104262012597,12.918787441185717,0.0 80.10069895568527,12.919485055937805,0.0 80.10069895568527,12.919485055937805,0.0 80.10118368993409,12.920065074210015,0.0 80.10118368993409,12.920065074210015,0.0 80.10197793649525,12.92034916225451,0.0 80.10197793649525,12.92034916225451,0.0 80.10274041319396,12.920621886777225,0.0 80.10274041319396,12.920621886777225,0.0 80.10353465975511,12.920905974821718,0.0 80.10353465975511,12.920905974821718,0.0 80.10356406053302,12.92091649096357,0.0 80.10356406053302,12.92091649096357,0.0 80.12199401233742,12.920915840814827,0.0 80.12199401233742,12.920915840814827,0.0 80.12267813064169,12.920495671272953,0.0 80.12267813064169,12.920495671272953,0.0 80.12319606213555,12.919850083851797,0.0 80.12319606213555,12.919850083851797,0.0 80.12373110890304,12.919219587735832,0.0 80.12373110890304,12.919219587735832,0.0 80.12452982735097,12.919150222677661,0.0 80.12452982735097,12.919150222677661,0.0 80.12492394583823,12.919853763030446,0.0 80.12492394583823,12.919853763030446,0.0 80.12442522186595,12.920458830845421,0.0 80.12442522186595,12.920458830845421,0.0 80.12363539901892,12.920754129628598,0.0 80.12363539901892,12.920754129628598,0.0 80.12284557617191,12.921049428411772,0.0 80.12284557617191,12.921049428411772,0.0 80.122024160411,12.921356539146274,0.0 80.122024160411,12.921356539146274,0.0 80.12199404547779,12.921367798510532,0.0 80.12199404547779,12.921367798510532,0.0 80.10356406053302,12.921368448682777,0.0 80.10356406053302,12.921368448682777,0.0 80.10299655040915,12.920807655381232,0.0 80.10299655040915,12.920807655381232,0.0 80.10242564553822,12.920249847877358,0.0 80.10242564553822,12.920249847877358,0.0 80.10181584344474,12.919685758903661,0.0 80.10181584344474,12.919685758903661,0.0 80.10104261694204,12.919691361131584,0.0 80.10104261694204,12.919691361131584,0.0 80.100698953866,12.920388976506812,0.0 80.100698953866,12.920388976506812,0.0 80.10118368924945,12.920968993900086,0.0 80.10118368924945,12.920968993900086,0.0 80.1019779363211,12.92125308062163,0.0 80.1019779363211,12.92125308062163,0.0 80.1027404135099,12.921525803874314,0.0 80.1027404135099,12.921525803874314,0.0 80.10353466058156,12.92180989059586,0.0 80.10353466058156,12.92180989059586,0.0 80.10356406053302,12.921820406386376,0.0 80.10356406053302,12.921820406386376,0.0 80.12199407861942,12.921819756190631,0.0 80.12199407861942,12.921819756190631,0.0 80.12267819735668,12.921399586970736,0.0 80.12267819735668,12.921399586970736,0.0 80.12319613065462,12.920754000891165,0.0 80.12319613065462,12.920754000891165,0.0 80.12375838912568,12.92010405318944,0.0 80.12375838912568,12.92010405318944,0.0 80.12455956628627,12.920069916597134,0.0 80.12455956628627,12.920069916597134,0.0 80.12492401434702,12.920757684545503,0.0 80.12492401434702,12.920757684545503,0.0 80.12439377007084,12.921374746406459,0.0 80.12439377007084,12.921374746406459,0.0 80.12360487557189,12.921672336497792,0.0 80.12360487557189,12.921672336497792,0.0 80.12281598107293,12.921967245039506,0.0 80.12281598107293,12.921967245039506,0.0 80.12199553079402,12.92227118816216,0.0 80.12199553079402,12.92227118816216,0.0 80.1219941117623,12.922271713855114,0.0 80.1219941117623,12.922271713855114,0.0 80.10356406053302,12.922272364074365,0.0 80.10356406053302,12.922272364074365,0.0 80.10299796271988,12.921718488088391,0.0 80.10299796271988,12.921718488088391,0.0 80.10240487504456,12.92113592010434,0.0 80.10240487504456,12.92113592010434,0.0 80.10182035462505,12.920593576656307,0.0 80.10182035462505,12.920593576656307,0.0 80.10101870169032,12.920614988163015,0.0 80.10101870169032,12.920614988163015,0.0 80.10070152918789,12.921293936041234,0.0 80.10070152918789,12.921293936041234,0.0 80.10121636645142,12.921885535342344,0.0 80.10121636645142,12.921885535342344,0.0 80.10197725150526,12.922157385087788,0.0 80.10197725150526,12.922157385087788,0.0 80.10276984010301,12.922440561905958,0.0 80.10276984010301,12.922440561905958,0.0 80.10356242870074,12.92272373872413,0.0 80.10356242870074,12.92272373872413,0.0 80.10356406053302,12.922724321746738,0.0 80.10356406053302,12.922724321746738,0.0 80.12199414490645,12.922723671503986,0.0 80.12199414490645,12.922723671503986,0.0 80.1226774132453,12.922310420426495,0.0 80.1226774132453,12.922310420426495,0.0 80.12319129636086,12.92167078977123,0.0 80.12319129636086,12.92167078977123,0.0 80.12374294417978,12.921011259148601,0.0 80.12374294417978,12.921011259148601,0.0 80.12454121417058,12.920937263522706,0.0 80.12454121417058,12.920937263522706,0.0 80.12493972706149,12.921638505591304,0.0 80.12493972706149,12.921638505591304,0.0 80.12444489426333,12.92223904226329,0.0 80.12444489426333,12.92223904226329,0.0 80.12362792759203,12.922551261302454,0.0 80.12362792759203,12.922551261302454,0.0 80.12284238271576,12.922851471917037,0.0 80.12284238271576,12.922851471917037,0.0 80.12202541604444,12.923163690956201,0.0 80.12202541604444,12.923163690956201,0.0 80.12199417805185,12.92317562913725,0.0 80.12199417805185,12.92317562913725,0.0 80.10356406053302,12.923176279403501,0.0 80.10356406053302,12.923176279403501,0.0 80.1030007764085,12.922621637430984,0.0 80.1030007764085,12.922621637430984,0.0 80.1024108861066,12.922046569902845,0.0 80.1024108861066,12.922046569902845,0.0 80.10180574712938,12.921481975407785,0.0 80.10180574712938,12.921481975407785,0.0 80.10100398811629,12.921499318865628,0.0 80.10100398811629,12.921499318865628,0.0 80.10068310327308,12.922170258950684,0.0 80.10068310327308,12.922170258950684,0.0 80.10119462640387,12.922755125085141,0.0 80.10119462640387,12.922755125085141,0.0 80.10198407811494,12.923046029872037,0.0 80.10198407811494,12.923046029872037,0.0 80.10277352982602,12.92333693465893,0.0 80.10277352982602,12.92333693465893,0.0 80.10356298153711,12.923627839445825,0.0 80.10356298153711,12.923627839445825,0.0 80.10356406053302,12.923628237044653,0.0 80.10356406053302,12.923628237044653,0.0 80.12199421119851,12.923627586754895,0.0 80.12199421119851,12.923627586754895,0.0 80.12362321140327,12.922029670040352,0.0</coordinates>
            </LineString>
        </Placemark>
        <Placemark id="14243">
            <name>0</name>
            <Point id="14242">
                <coordinates>80.10356406053302,12.920012575478328,0.0</coordinates>
            </Point>
        </Placemark>
        <Placemark id="14245">
            <name>1</name>
            <Point id="14244">
                <coordinates>80.12199394606046,12.920011925376585,0.0</coordinates>
            </Point>
        </Placemark>
        <Placemark id="14247">
            <name>2</name>
            <Point id="14246">
                <coordinates>80.12267806393177,12.919591755512753,0.0</coordinates>
            </Point>
        </Placemark>
        <Placemark id="14249">
            <name>3</name>
            <Point id="14248">
                <coordinates>80.12319599362166,12.918946166750112,0.0</coordinates>
            </Point>
        </Placemark>
        <Placemark id="14251">
            <name>4</name>
            <Point id="14250">
                <coordinates>80.12373103862735,12.91831566924833,0.0</coordinates>
            </Point>
        </Placemark>
        <Placemark id="14253">
            <name>5</name>
            <Point id="14252">
                <coordinates>80.12452975688146,12.918246302121407,0.0</coordinates>
            </Point>
        </Placemark>
        <Placemark id="14255">
            <name>6</name>
            <Point id="14254">
                <coordinates>80.12492387733462,12.91894984145339,0.0</coordinates>
            </Point>
        </Placemark>
        <Placemark id="14257">
            <name>7</name>
            <Point id="14256">
                <coordinates>80.12442515504333,12.919554910535926,0.0</coordinates>
            </Point>
        </Placemark>
        <Placemark id="14259">
            <name>8</name>
            <Point id="14258">
                <coordinates>80.12363533277767,12.919850210760393,0.0</coordinates>
            </Point>
        </Placemark>
        <Placemark id="14261">
            <name>9</name>
            <Point id="14260">
                <coordinates>80.12284551051201,12.920145510984861,0.0</coordinates>
            </Point>
        </Placemark>
        <Placemark id="14263">
            <name>10</name>
            <Point id="14262">
                <coordinates>80.12202409535571,12.92045262321831,0.0</coordinates>
            </Point>
        </Placemark>
        <Placemark id="14265">
            <name>11</name>
            <Point id="14264">
                <coordinates>80.12199397919831,12.920463883103512,0.0</coordinates>
            </Point>
        </Placemark>
        <Placemark id="14267">
            <name>12</name>
            <Point id="14266">
                <coordinates>80.10356406053302,12.920464533228754,0.0</coordinates>
            </Point>
        </Placemark>
        <Placemark id="14269">
            <name>13</name>
            <Point id="14268">
                <coordinates>80.1029965514094,12.919903738978292,0.0</coordinates>
            </Point>
        </Placemark>
        <Placemark id="14271">
            <name>14</name>
            <Point id="14270">
                <coordinates>80.10242564762964,12.91934593043924,0.0</coordinates>
            </Point>
        </Placemark>
        <Placemark id="14273">
            <name>15</name>
            <Point id="14272">
                <coordinates>80.10181584663962,12.918781840359834,0.0</coordinates>
            </Point>
        </Placemark>
        <Placemark id="14275">
            <name>16</name>
            <Point id="14274">
                <coordinates>80.10104262012597,12.918787441185717,0.0</coordinates>
            </Point>
        </Placemark>
        <Placemark id="14277">
            <name>17</name>
            <Point id="14276">
                <coordinates>80.10069895568527,12.919485055937805,0.0</coordinates>
            </Point>
        </Placemark>
        <Placemark id="14279">
            <name>18</name>
            <Point id="14278">
                <coordinates>80.10118368993409,12.920065074210015,0.0</coordinates>
            </Point>
        </Placemark>
        <Placemark id="14281">
            <name>19</name>
            <Point id="14280">
                <coordinates>80.10197793649525,12.92034916225451,0.0</coordinates>
            </Point>
        </Placemark>
        <Placemark id="14283">
            <name>20</name>
            <Point id="14282">
                <coordinates>80.10274041319396,12.920621886777225,0.0</coordinates>
            </Point>
        </Placemark>
        <Placemark id="14285">
            <name>21</name>
            <Point id="14284">
                <coordinates>80.10353465975511,12.920905974821718,0.0</coordinates>
            </Point>
        </Placemark>
        <Placemark id="14287">
            <name>22</name>
            <Point id="14286">
                <coordinates>80.10356406053302,12.92091649096357,0.0</coordinates>
            </Point>
        </Placemark>
        <Placemark id="14289">
            <name>23</name>
            <Point id="14288">
                <coordinates>80.12199401233742,12.920915840814827,0.0</coordinates>
            </Point>
        </Placemark>
        <Placemark id="14291">
            <name>24</name>
            <Point id="14290">
                <coordinates>80.12267813064169,12.920495671272953,0.0</coordinates>
            </Point>
        </Placemark>
        <Placemark id="14293">
            <name>25</name>
            <Point id="14292">
                <coordinates>80.12319606213555,12.919850083851797,0.0</coordinates>
            </Point>
        </Placemark>
        <Placemark id="14295">
            <name>26</name>
            <Point id="14294">
                <coordinates>80.12373110890304,12.919219587735832,0.0</coordinates>
            </Point>
        </Placemark>
        <Placemark id="14297">
            <name>27</name>
            <Point id="14296">
                <coordinates>80.12452982735097,12.919150222677661,0.0</coordinates>
            </Point>
        </Placemark>
        <Placemark id="14299">
            <name>28</name>
            <Point id="14298">
                <coordinates>80.12492394583823,12.919853763030446,0.0</coordinates>
            </Point>
        </Placemark>
        <Placemark id="14301">
            <name>29</name>
            <Point id="14300">
                <coordinates>80.12442522186595,12.920458830845421,0.0</coordinates>
            </Point>
        </Placemark>
        <Placemark id="14303">
            <name>30</name>
            <Point id="14302">
                <coordinates>80.12363539901892,12.920754129628598,0.0</coordinates>
            </Point>
        </Placemark>
        <Placemark id="14305">
            <name>31</name>
            <Point id="14304">
                <coordinates>80.12284557617191,12.921049428411772,0.0</coordinates>
            </Point>
        </Placemark>
        <Placemark id="14307">
            <name>32</name>
            <Point id="14306">
                <coordinates>80.122024160411,12.921356539146274,0.0</coordinates>
            </Point>
        </Placemark>
        <Placemark id="14309">
            <name>33</name>
            <Point id="14308">
                <coordinates>80.12199404547779,12.921367798510532,0.0</coordinates>
            </Point>
        </Placemark>
        <Placemark id="14311">
            <name>34</name>
            <Point id="14310">
                <coordinates>80.10356406053302,12.921368448682777,0.0</coordinates>
            </Point>
        </Placemark>
        <Placemark id="14313">
            <name>35</name>
            <Point id="14312">
                <coordinates>80.10299655040915,12.920807655381232,0.0</coordinates>
            </Point>
        </Placemark>
        <Placemark id="14315">
            <name>36</name>
            <Point id="14314">
                <coordinates>80.10242564553822,12.920249847877358,0.0</coordinates>
            </Point>
        </Placemark>
        <Placemark id="14317">
            <name>37</name>
            <Point id="14316">
                <coordinates>80.10181584344474,12.919685758903661,0.0</coordinates>
            </Point>
        </Placemark>
        <Placemark id="14319">
            <name>38</name>
            <Point id="14318">
                <coordinates>80.10104261694204,12.919691361131584,0.0</coordinates>
            </Point>
        </Placemark>
        <Placemark id="14321">
            <name>39</name>
            <Point id="14320">
                <coordinates>80.100698953866,12.920388976506812,0.0</coordinates>
            </Point>
        </Placemark>
        <Placemark id="14323">
            <name>40</name>
            <Point id="14322">
                <coordinates>80.10118368924945,12.920968993900086,0.0</coordinates>
            </Point>
        </Placemark>
        <Placemark id="14325">
            <name>41</name>
            <Point id="14324">
                <coordinates>80.1019779363211,12.92125308062163,0.0</coordinates>
            </Point>
        </Placemark>
        <Placemark id="14327">
            <name>42</name>
            <Point id="14326">
                <coordinates>80.1027404135099,12.921525803874314,0.0</coordinates>
            </Point>
        </Placemark>
        <Placemark id="14329">
            <name>43</name>
            <Point id="14328">
                <coordinates>80.10353466058156,12.92180989059586,0.0</coordinates>
            </Point>
        </Placemark>
        <Placemark id="14331">
            <name>44</name>
            <Point id="14330">
                <coordinates>80.10356406053302,12.921820406386376,0.0</coordinates>
            </Point>
        </Placemark>
        <Placemark id="14333">
            <name>45</name>
            <Point id="14332">
                <coordinates>80.12199407861942,12.921819756190631,0.0</coordinates>
            </Point>
        </Placemark>
        <Placemark id="14335">
            <name>46</name>
            <Point id="14334">
                <coordinates>80.12267819735668,12.921399586970736,0.0</coordinates>
            </Point>
        </Placemark>
        <Placemark id="14337">
            <name>47</name>
            <Point id="14336">
                <coordinates>80.12319613065462,12.920754000891165,0.0</coordinates>
            </Point>
        </Placemark>
        <Placemark id="14339">
            <name>48</name>
            <Point id="14338">
                <coordinates>80.12375838912568,12.92010405318944,0.0</coordinates>
            </Point>
        </Placemark>
        <Placemark id="14341">
            <name>49</name>
            <Point id="14340">
                <coordinates>80.12455956628627,12.920069916597134,0.0</coordinates>
            </Point>
        </Placemark>
        <Placemark id="14343">
            <name>50</name>
            <Point id="14342">
                <coordinates>80.12492401434702,12.920757684545503,0.0</coordinates>
            </Point>
        </Placemark>
        <Placemark id="14345">
            <name>51</name>
            <Point id="14344">
                <coordinates>80.12439377007084,12.921374746406459,0.0</coordinates>
            </Point>
        </Placemark>
        <Placemark id="14347">
            <name>52</name>
            <Point id="14346">
                <coordinates>80.12360487557189,12.921672336497792,0.0</coordinates>
            </Point>
        </Placemark>
        <Placemark id="14349">
            <name>53</name>
            <Point id="14348">
                <coordinates>80.12281598107293,12.921967245039506,0.0</coordinates>
            </Point>
        </Placemark>
        <Placemark id="14351">
            <name>54</name>
            <Point id="14350">
                <coordinates>80.12199553079402,12.92227118816216,0.0</coordinates>
            </Point>
        </Placemark>
        <Placemark id="14353">
            <name>55</name>
            <Point id="14352">
                <coordinates>80.1219941117623,12.922271713855114,0.0</coordinates>
            </Point>
        </Placemark>
        <Placemark id="14355">
            <name>56</name>
            <Point id="14354">
                <coordinates>80.10356406053302,12.922272364074365,0.0</coordinates>
            </Point>
        </Placemark>
        <Placemark id="14357">
            <name>57</name>
            <Point id="14356">
                <coordinates>80.10299796271988,12.921718488088391,0.0</coordinates>
            </Point>
        </Placemark>
        <Placemark id="14359">
            <name>58</name>
            <Point id="14358">
                <coordinates>80.10240487504456,12.92113592010434,0.0</coordinates>
            </Point>
        </Placemark>
        <Placemark id="14361">
            <name>59</name>
            <Point id="14360">
                <coordinates>80.10182035462505,12.920593576656307,0.0</coordinates>
            </Point>
        </Placemark>
        <Placemark id="14363">
            <name>60</name>
            <Point id="14362">
                <coordinates>80.10101870169032,12.920614988163015,0.0</coordinates>
            </Point>
        </Placemark>
        <Placemark id="14365">
            <name>61</name>
            <Point id="14364">
                <coordinates>80.10070152918789,12.921293936041234,0.0</coordinates>
            </Point>
        </Placemark>
        <Placemark id="14367">
            <name>62</name>
            <Point id="14366">
                <coordinates>80.10121636645142,12.921885535342344,0.0</coordinates>
            </Point>
        </Placemark>
        <Placemark id="14369">
            <name>63</name>
            <Point id="14368">
                <coordinates>80.10197725150526,12.922157385087788,0.0</coordinates>
            </Point>
        </Placemark>
        <Placemark id="14371">
            <name>64</name>
            <Point id="14370">
                <coordinates>80.10276984010301,12.922440561905958,0.0</coordinates>
            </Point>
        </Placemark>
        <Placemark id="14373">
            <name>65</name>
            <Point id="14372">
                <coordinates>80.10356242870074,12.92272373872413,0.0</coordinates>
            </Point>
        </Placemark>
        <Placemark id="14375">
            <name>66</name>
            <Point id="14374">
                <coordinates>80.10356406053302,12.922724321746738,0.0</coordinates>
            </Point>
        </Placemark>
        <Placemark id="14377">
            <name>67</name>
            <Point id="14376">
                <coordinates>80.12199414490645,12.922723671503986,0.0</coordinates>
            </Point>
        </Placemark>
        <Placemark id="14379">
            <name>68</name>
            <Point id="14378">
                <coordinates>80.1226774132453,12.922310420426495,0.0</coordinates>
            </Point>
        </Placemark>
        <Placemark id="14381">
            <name>69</name>
            <Point id="14380">
                <coordinates>80.12319129636086,12.92167078977123,0.0</coordinates>
            </Point>
        </Placemark>
        <Placemark id="14383">
            <name>70</name>
            <Point id="14382">
                <coordinates>80.12374294417978,12.921011259148601,0.0</coordinates>
            </Point>
        </Placemark>
        <Placemark id="14385">
            <name>71</name>
            <Point id="14384">
                <coordinates>80.12454121417058,12.920937263522706,0.0</coordinates>
            </Point>
        </Placemark>
        <Placemark id="14387">
            <name>72</name>
            <Point id="14386">
                <coordinates>80.12493972706149,12.921638505591304,0.0</coordinates>
            </Point>
        </Placemark>
        <Placemark id="14389">
            <name>73</name>
            <Point id="14388">
                <coordinates>80.12444489426333,12.92223904226329,0.0</coordinates>
            </Point>
        </Placemark>
        <Placemark id="14391">
            <name>74</name>
            <Point id="14390">
                <coordinates>80.12362792759203,12.922551261302454,0.0</coordinates>
            </Point>
        </Placemark>
        <Placemark id="14393">
            <name>75</name>
            <Point id="14392">
                <coordinates>80.12284238271576,12.922851471917037,0.0</coordinates>
            </Point>
        </Placemark>
        <Placemark id="14395">
            <name>76</name>
            <Point id="14394">
                <coordinates>80.12202541604444,12.923163690956201,0.0</coordinates>
            </Point>
        </Placemark>
        <Placemark id="14397">
            <name>77</name>
            <Point id="14396">
                <coordinates>80.12199417805185,12.92317562913725,0.0</coordinates>
            </Point>
        </Placemark>
        <Placemark id="14399">
            <name>78</name>
            <Point id="14398">
                <coordinates>80.10356406053302,12.923176279403501,0.0</coordinates>
            </Point>
        </Placemark>
        <Placemark id="14401">
            <name>79</name>
            <Point id="14400">
                <coordinates>80.1030007764085,12.922621637430984,0.0</coordinates>
            </Point>
        </Placemark>
        <Placemark id="14403">
            <name>80</name>
            <Point id="14402">
                <coordinates>80.1024108861066,12.922046569902845,0.0</coordinates>
            </Point>
        </Placemark>
        <Placemark id="14405">
            <name>81</name>
            <Point id="14404">
                <coordinates>80.10180574712938,12.921481975407785,0.0</coordinates>
            </Point>
        </Placemark>
        <Placemark id="14407">
            <name>82</name>
            <Point id="14406">
                <coordinates>80.10100398811629,12.921499318865628,0.0</coordinates>
            </Point>
        </Placemark>
        <Placemark id="14409">
            <name>83</name>
            <Point id="14408">
                <coordinates>80.10068310327308,12.922170258950684,0.0</coordinates>
            </Point>
        </Placemark>
        <Placemark id="14411">
            <name>84</name>
            <Point id="14410">
                <coordinates>80.10119462640387,12.922755125085141,0.0</coordinates>
            </Point>
        </Placemark>
        <Placemark id="14413">
            <name>85</name>
            <Point id="14412">
                <coordinates>80.10198407811494,12.923046029872037,0.0</coordinates>
            </Point>
        </Placemark>
        <Placemark id="14415">
            <name>86</name>
            <Point id="14414">
                <coordinates>80.10277352982602,12.92333693465893,0.0</coordinates>
            </Point>
        </Placemark>
        <Placemark id="14417">
            <name>87</name>
            <Point id="14416">
                <coordinates>80.10356298153711,12.923627839445825,0.0</coordinates>
            </Point>
        </Placemark>
        <Placemark id="14419">
            <name>88</name>
            <Point id="14418">
                <coordinates>80.10356406053302,12.923628237044653,0.0</coordinates>
            </Point>
        </Placemark>
        <Placemark id="14421">
            <name>89</name>
            <Point id="14420">
                <coordinates>80.12199421119851,12.923627586754895,0.0</coordinates>
            </Point>
        </Placemark>
    </Document>
</kml>
