<?xml version="1.0" encoding="UTF-8"?>
<kml xmlns="http://www.opengis.net/kml/2.2" xmlns:gx="http://www.google.com/kml/ext/2.2">
    <Document id="5533">
        <Style id="5536">
            <LineStyle id="5537">
                <color>ff000000</color>
                <colorMode>normal</colorMode>
                <width>2</width>
            </LineStyle>
        </Style>
        <Placemark id="5535">
            <styleUrl>#5536</styleUrl>
            <LineString id="5534">
                <altitudeMode>clampToGround</altitudeMode>
                <coordinates>80.10255345369865,13.269586551548104,0.0 80.13023729422866,13.269585047864634,0.0 80.13240514576022,13.26881216623959,0.0 80.13023760128901,13.272296720460572,0.0 80.10255345369865,13.272298224462173,0.0 80.10055553166669,13.271168352984896,0.0</coordinates>
            </LineString>
        </Placemark>
        <Placemark id="5539">
            <name>1</name>
            <Point id="5538">
                <coordinates>80.10255345369865,13.269586551548104,0.0</coordinates>
            </Point>
        </Placemark>
        <Placemark id="5541">
            <name>2</name>
            <Point id="5540">
                <coordinates>80.13023729422866,13.269585047864634,0.0</coordinates>
            </Point>
        </Placemark>
        <Placemark id="5543">
            <name>3</name>
            <Point id="5542">
                <coordinates>80.13240514576022,13.26881216623959,0.0</coordinates>
            </Point>
        </Placemark>
        <Placemark id="5545">
            <name>4</name>
            <Point id="5544">
                <coordinates>80.13023760128901,13.272296720460572,0.0</coordinates>
            </Point>
        </Placemark>
        <Placemark id="5547">
            <name>5</name>
            <Point id="5546">
                <coordinates>80.10255345369865,13.272298224462173,0.0</coordinates>
            </Point>
        </Placemark>
        <Placemark id="5549">
            <name>6</name>
            <Point id="5548">
                <coordinates>80.10055553166669,13.271168352984896,0.0</coordinates>
            </Point>
        </Placemark>
    </Document>
</kml>
