<?xml version="1.0" encoding="UTF-8"?>
<kml xmlns="http://www.opengis.net/kml/2.2" xmlns:gx="http://www.google.com/kml/ext/2.2">
    <Document id="1">
        <Style id="4">
            <LineStyle id="5">
                <color>ff000000</color>
                <colorMode>normal</colorMode>
                <width>2</width>
            </LineStyle>
        </Style>
        <Placemark id="3">
            <styleUrl>#4</styleUrl>
            <LineString id="2">
                <altitudeMode>clampToGround</altitudeMode>
                <coordinates>80.10901838422066,13.256226995817087,0.0 80.12747327008962,13.256226328209854,0.0 80.12964100325132,13.255453445786047,0.0 80.12747340640603,13.258034112013439,0.0 80.10901838422066,13.25803477971492,0.0 80.1070205786854,13.256904906984376,0.0 80.10901838422066,13.259842563356957,0.0 80.12747354274269,13.259841895561225,0.0 80.12964130792861,13.259069013353532,0.0 80.12747367909964,13.261649678853177,0.0 80.10901838422066,13.261650346743162,0.0 80.10702054916818,13.260520474330184,0.0</coordinates>
            </LineString>
        </Placemark>
        <Placemark id="7">
            <name>1</name>
            <Point id="6">
                <coordinates>80.10901838422066,13.256226995817087,0.0</coordinates>
            </Point>
        </Placemark>
        <Placemark id="9">
            <name>2</name>
            <Point id="8">
                <coordinates>80.12747327008962,13.256226328209854,0.0</coordinates>
            </Point>
        </Placemark>
        <Placemark id="11">
            <name>3</name>
            <Point id="10">
                <coordinates>80.12964100325132,13.255453445786047,0.0</coordinates>
            </Point>
        </Placemark>
        <Placemark id="13">
            <name>4</name>
            <Point id="12">
                <coordinates>80.12747340640603,13.258034112013439,0.0</coordinates>
            </Point>
        </Placemark>
        <Placemark id="15">
            <name>5</name>
            <Point id="14">
                <coordinates>80.10901838422066,13.25803477971492,0.0</coordinates>
            </Point>
        </Placemark>
        <Placemark id="17">
            <name>6</name>
            <Point id="16">
                <coordinates>80.1070205786854,13.256904906984376,0.0</coordinates>
            </Point>
        </Placemark>
        <Placemark id="19">
            <name>7</name>
            <Point id="18">
                <coordinates>80.10901838422066,13.259842563356957,0.0</coordinates>
            </Point>
        </Placemark>
        <Placemark id="21">
            <name>8</name>
            <Point id="20">
                <coordinates>80.12747354274269,13.259841895561225,0.0</coordinates>
            </Point>
        </Placemark>
        <Placemark id="23">
            <name>9</name>
            <Point id="22">
                <coordinates>80.12964130792861,13.259069013353532,0.0</coordinates>
            </Point>
        </Placemark>
        <Placemark id="25">
            <name>10</name>
            <Point id="24">
                <coordinates>80.12747367909964,13.261649678853177,0.0</coordinates>
            </Point>
        </Placemark>
        <Placemark id="27">
            <name>11</name>
            <Point id="26">
                <coordinates>80.10901838422066,13.261650346743162,0.0</coordinates>
            </Point>
        </Placemark>
        <Placemark id="29">
            <name>12</name>
            <Point id="28">
                <coordinates>80.10702054916818,13.260520474330184,0.0</coordinates>
            </Point>
        </Placemark>
    </Document>
</kml>
