<?xml version="1.0" encoding="UTF-8"?>
<kml xmlns="http://www.opengis.net/kml/2.2" xmlns:gx="http://www.google.com/kml/ext/2.2">
    <Document id="31">
        <Style id="34">
            <LineStyle id="35">
                <color>ff000000</color>
                <colorMode>normal</colorMode>
                <width>2</width>
            </LineStyle>
        </Style>
        <Placemark id="33">
            <styleUrl>#34</styleUrl>
            <LineString id="32">
                <altitudeMode>clampToGround</altitudeMode>
                <coordinates>80.10901838422066,13.26195164394932,0.0 80.12747370182777,13.261950976043625,0.0 80.12964148569888,13.261178093962023,0.0 80.12747383820836,13.263758759037067,0.0 80.10901838422066,13.263759427037016,0.0 80.10702053194575,13.262629554809317,0.0 80.10901838422066,13.265567209868811,0.0 80.12747397460922,13.265566541774609,0.0 80.12964179051963,13.264793659909206,0.0 80.12747411103035,13.267374324256211,0.0 80.10901838422066,13.267374992444674,0.0 80.10702050241466,13.266245120534672,0.0</coordinates>
            </LineString>
        </Placemark>
        <Placemark id="37">
            <name>1</name>
            <Point id="36">
                <coordinates>80.10901838422066,13.26195164394932,0.0</coordinates>
            </Point>
        </Placemark>
        <Placemark id="39">
            <name>2</name>
            <Point id="38">
                <coordinates>80.12747370182777,13.261950976043625,0.0</coordinates>
            </Point>
        </Placemark>
        <Placemark id="41">
            <name>3</name>
            <Point id="40">
                <coordinates>80.12964148569888,13.261178093962023,0.0</coordinates>
            </Point>
        </Placemark>
        <Placemark id="43">
            <name>4</name>
            <Point id="42">
                <coordinates>80.12747383820836,13.263758759037067,0.0</coordinates>
            </Point>
        </Placemark>
        <Placemark id="45">
            <name>5</name>
            <Point id="44">
                <coordinates>80.10901838422066,13.263759427037016,0.0</coordinates>
            </Point>
        </Placemark>
        <Placemark id="47">
            <name>6</name>
            <Point id="46">
                <coordinates>80.10702053194575,13.262629554809317,0.0</coordinates>
            </Point>
        </Placemark>
        <Placemark id="49">
            <name>7</name>
            <Point id="48">
                <coordinates>80.10901838422066,13.265567209868811,0.0</coordinates>
            </Point>
        </Placemark>
        <Placemark id="51">
            <name>8</name>
            <Point id="50">
                <coordinates>80.12747397460922,13.265566541774609,0.0</coordinates>
            </Point>
        </Placemark>
        <Placemark id="53">
            <name>9</name>
            <Point id="52">
                <coordinates>80.12964179051963,13.264793659909206,0.0</coordinates>
            </Point>
        </Placemark>
        <Placemark id="55">
            <name>10</name>
            <Point id="54">
                <coordinates>80.12747411103035,13.267374324256211,0.0</coordinates>
            </Point>
        </Placemark>
        <Placemark id="57">
            <name>11</name>
            <Point id="56">
                <coordinates>80.10901838422066,13.267374992444674,0.0</coordinates>
            </Point>
        </Placemark>
        <Placemark id="59">
            <name>12</name>
            <Point id="58">
                <coordinates>80.10702050241466,13.266245120534672,0.0</coordinates>
            </Point>
        </Placemark>
    </Document>
</kml>
