<?xml version="1.0" encoding="UTF-8"?>
<kml xmlns="http://www.opengis.net/kml/2.2" xmlns:gx="http://www.google.com/kml/ext/2.2">
    <Document id="283">
        <Style id="286">
            <LineStyle id="287">
                <color>ff000000</color>
                <colorMode>normal</colorMode>
                <width>2</width>
            </LineStyle>
        </Style>
        <Placemark id="285">
            <styleUrl>#286</styleUrl>
            <LineString id="284">
                <altitudeMode>clampToGround</altitudeMode>
                <coordinates>80.09717884360535,12.936535481444547,0.0 80.11100216697868,12.936535115279007,0.0 80.11316710614028,12.935762213965065,0.0 80.11100226653596,12.938342943850138,0.0 80.09717884360535,12.938343310068564,0.0 80.09518361334746,12.937213409578558,0.0 80.09717884360535,12.940151138442513,0.0 80.11100236610837,12.940150772171203,0.0 80.11316733645472,12.939377871068487,0.0</coordinates>
            </LineString>
        </Placemark>
        <Placemark id="289">
            <name>1</name>
            <Point id="288">
                <coordinates>80.09717884360535,12.936535481444547,0.0</coordinates>
            </Point>
        </Placemark>
        <Placemark id="291">
            <name>2</name>
            <Point id="290">
                <coordinates>80.11100216697868,12.936535115279007,0.0</coordinates>
            </Point>
        </Placemark>
        <Placemark id="293">
            <name>3</name>
            <Point id="292">
                <coordinates>80.11316710614028,12.935762213965065,0.0</coordinates>
            </Point>
        </Placemark>
        <Placemark id="295">
            <name>4</name>
            <Point id="294">
                <coordinates>80.11100226653596,12.938342943850138,0.0</coordinates>
            </Point>
        </Placemark>
        <Placemark id="297">
            <name>5</name>
            <Point id="296">
                <coordinates>80.09717884360535,12.938343310068564,0.0</coordinates>
            </Point>
        </Placemark>
        <Placemark id="299">
            <name>6</name>
            <Point id="298">
                <coordinates>80.09518361334746,12.937213409578558,0.0</coordinates>
            </Point>
        </Placemark>
        <Placemark id="301">
            <name>7</name>
            <Point id="300">
                <coordinates>80.09717884360535,12.940151138442513,0.0</coordinates>
            </Point>
        </Placemark>
        <Placemark id="303">
            <name>8</name>
            <Point id="302">
                <coordinates>80.11100236610837,12.940150772171203,0.0</coordinates>
            </Point>
        </Placemark>
        <Placemark id="305">
            <name>9</name>
            <Point id="304">
                <coordinates>80.11316733645472,12.939377871068487,0.0</coordinates>
            </Point>
        </Placemark>
    </Document>
</kml>
