<?xml version="1.0" encoding="UTF-8"?>
<kml xmlns="http://www.opengis.net/kml/2.2" xmlns:gx="http://www.google.com/kml/ext/2.2">
    <Document id="259">
        <Style id="262">
            <LineStyle id="263">
                <color>ff000000</color>
                <colorMode>normal</colorMode>
                <width>2</width>
            </LineStyle>
        </Style>
        <Placemark id="261">
            <styleUrl>#262</styleUrl>
            <LineString id="260">
                <altitudeMode>clampToGround</altitudeMode>
                <coordinates>80.09717884360535,12.93231721368287,0.0 80.11100193473709,12.93231684764072,0.0 80.11316683752844,12.931543946080424,0.0 80.11100203425913,12.934124676795225,0.0 80.09717884360535,12.934125042890253,0.0 80.09518364687057,12.932995142038205,0.0 80.09717884360535,12.935932871847646,0.0 80.11100213379626,12.935932505699734,0.0 80.11316706776131,12.935159604350597,0.0</coordinates>
            </LineString>
        </Placemark>
        <Placemark id="265">
            <name>1</name>
            <Point id="264">
                <coordinates>80.09717884360535,12.93231721368287,0.0</coordinates>
            </Point>
        </Placemark>
        <Placemark id="267">
            <name>2</name>
            <Point id="266">
                <coordinates>80.11100193473709,12.93231684764072,0.0</coordinates>
            </Point>
        </Placemark>
        <Placemark id="269">
            <name>3</name>
            <Point id="268">
                <coordinates>80.11316683752844,12.931543946080424,0.0</coordinates>
            </Point>
        </Placemark>
        <Placemark id="271">
            <name>4</name>
            <Point id="270">
                <coordinates>80.11100203425913,12.934124676795225,0.0</coordinates>
            </Point>
        </Placemark>
        <Placemark id="273">
            <name>5</name>
            <Point id="272">
                <coordinates>80.09717884360535,12.934125042890253,0.0</coordinates>
            </Point>
        </Placemark>
        <Placemark id="275">
            <name>6</name>
            <Point id="274">
                <coordinates>80.09518364687057,12.932995142038205,0.0</coordinates>
            </Point>
        </Placemark>
        <Placemark id="277">
            <name>7</name>
            <Point id="276">
                <coordinates>80.09717884360535,12.935932871847646,0.0</coordinates>
            </Point>
        </Placemark>
        <Placemark id="279">
            <name>8</name>
            <Point id="278">
                <coordinates>80.11100213379626,12.935932505699734,0.0</coordinates>
            </Point>
        </Placemark>
        <Placemark id="281">
            <name>9</name>
            <Point id="280">
                <coordinates>80.11316706776131,12.935159604350597,0.0</coordinates>
            </Point>
        </Placemark>
    </Document>
</kml>
