<?xml version="1.0" encoding="UTF-8"?>
<kml xmlns="http://www.opengis.net/kml/2.2" xmlns:gx="http://www.google.com/kml/ext/2.2">
    <Document id="415">
        <Style id="418">
            <LineStyle id="419">
                <color>ffff0000</color>
                <colorMode>normal</colorMode>
                <width>2</width>
            </LineStyle>
        </Style>
        <Placemark id="417">
            <styleUrl>#418</styleUrl>
            <LineString id="416">
                <altitudeMode>clampToGround</altitudeMode>
                <coordinates>80.09717884360535,12.936535481444547,0.0 80.11100216697868,12.936535115279007,0.0 80.11100216697868,12.936535115279007,0.0 80.11215892706328,12.936190134659451,0.0 80.11215892706328,12.936190134659451,0.0 80.11331165789765,12.935711463627763,0.0 80.11331165789765,12.935711463627763,0.0 80.11453742348937,12.935782647455824,0.0 80.11453742348937,12.935782647455824,0.0 80.11539800792518,12.936624860668,0.0 80.11539800792518,12.936624860668,0.0 80.11545027417105,12.93780442604525,0.0 80.11545027417105,12.93780442604525,0.0 80.11466730899429,12.93871395507231,0.0 80.11466730899429,12.93871395507231,0.0 80.11345228127844,12.938885107887732,0.0 80.11345228127844,12.938885107887732,0.0 80.11222830372407,12.938614253757223,0.0 80.11222830372407,12.938614253757223,0.0 80.11100432616968,12.938343399626715,0.0 80.11100432616968,12.938343399626715,0.0 80.11100226653596,12.938342943850138,0.0 80.11100226653596,12.938342943850138,0.0 80.09717884360535,12.938343310068564,0.0 80.09717884360535,12.938343310068564,0.0 80.0962182465085,12.937690360333452,0.0 80.0962182465085,12.937690360333452,0.0 80.09511781439001,12.937187354561637,0.0 80.09511781439001,12.937187354561637,0.0 80.0939342397464,12.93719148691394,0.0 80.0939342397464,12.93719148691394,0.0 80.09307316706516,12.93795634202063,0.0 80.09307316706516,12.93795634202063,0.0 80.09293237021411,12.939128593872448,0.0 80.09293237021411,12.939128593872448,0.0 80.09361496299542,12.940093106059404,0.0 80.09361496299542,12.940093106059404,0.0 80.09473716837894,12.94035891860048,0.0 80.09473716837894,12.94035891860048,0.0 80.09594333799882,12.940256276729258,0.0 80.09594333799882,12.940256276729258,0.0 80.09714950761871,12.940153634858035,0.0 80.09714950761871,12.940153634858035,0.0 80.09717884360535,12.940151138442513,0.0 80.09717884360535,12.940151138442513,0.0 80.11100236610837,12.9401507721712,0.0 80.11100236610837,12.9401507721712,0.0 80.11316733645472,12.939377871068487,0.0</coordinates>
            </LineString>
        </Placemark>
        <Placemark id="421">
            <name>0</name>
            <Point id="420">
                <coordinates>80.09717884360535,12.936535481444547,0.0</coordinates>
            </Point>
        </Placemark>
        <Placemark id="423">
            <name>1</name>
            <Point id="422">
                <coordinates>80.11100216697868,12.936535115279007,0.0</coordinates>
            </Point>
        </Placemark>
        <Placemark id="425">
            <name>2</name>
            <Point id="424">
                <coordinates>80.11215892706328,12.936190134659451,0.0</coordinates>
            </Point>
        </Placemark>
        <Placemark id="427">
            <name>3</name>
            <Point id="426">
                <coordinates>80.11331165789765,12.935711463627763,0.0</coordinates>
            </Point>
        </Placemark>
        <Placemark id="429">
            <name>4</name>
            <Point id="428">
                <coordinates>80.11453742348937,12.935782647455824,0.0</coordinates>
            </Point>
        </Placemark>
        <Placemark id="431">
            <name>5</name>
            <Point id="430">
                <coordinates>80.11539800792518,12.936624860668,0.0</coordinates>
            </Point>
        </Placemark>
        <Placemark id="433">
            <name>6</name>
            <Point id="432">
                <coordinates>80.11545027417105,12.93780442604525,0.0</coordinates>
            </Point>
        </Placemark>
        <Placemark id="435">
            <name>7</name>
            <Point id="434">
                <coordinates>80.11466730899429,12.93871395507231,0.0</coordinates>
            </Point>
        </Placemark>
        <Placemark id="437">
            <name>8</name>
            <Point id="436">
                <coordinates>80.11345228127844,12.938885107887732,0.0</coordinates>
            </Point>
        </Placemark>
        <Placemark id="439">
            <name>9</name>
            <Point id="438">
                <coordinates>80.11222830372407,12.938614253757223,0.0</coordinates>
            </Point>
        </Placemark>
        <Placemark id="441">
            <name>10</name>
            <Point id="440">
                <coordinates>80.11100432616968,12.938343399626715,0.0</coordinates>
            </Point>
        </Placemark>
        <Placemark id="443">
            <name>11</name>
            <Point id="442">
                <coordinates>80.11100226653596,12.938342943850138,0.0</coordinates>
            </Point>
        </Placemark>
        <Placemark id="445">
            <name>12</name>
            <Point id="444">
                <coordinates>80.09717884360535,12.938343310068564,0.0</coordinates>
            </Point>
        </Placemark>
        <Placemark id="447">
            <name>13</name>
            <Point id="446">
                <coordinates>80.0962182465085,12.937690360333452,0.0</coordinates>
            </Point>
        </Placemark>
        <Placemark id="449">
            <name>14</name>
            <Point id="448">
                <coordinates>80.09511781439001,12.937187354561637,0.0</coordinates>
            </Point>
        </Placemark>
        <Placemark id="451">
            <name>15</name>
            <Point id="450">
                <coordinates>80.0939342397464,12.93719148691394,0.0</coordinates>
            </Point>
        </Placemark>
        <Placemark id="453">
            <name>16</name>
            <Point id="452">
                <coordinates>80.09307316706516,12.93795634202063,0.0</coordinates>
            </Point>
        </Placemark>
        <Placemark id="455">
            <name>17</name>
            <Point id="454">
                <coordinates>80.09293237021411,12.939128593872448,0.0</coordinates>
            </Point>
        </Placemark>
        <Placemark id="457">
            <name>18</name>
            <Point id="456">
                <coordinates>80.09361496299542,12.940093106059404,0.0</coordinates>
            </Point>
        </Placemark>
        <Placemark id="459">
            <name>19</name>
            <Point id="458">
                <coordinates>80.09473716837894,12.94035891860048,0.0</coordinates>
            </Point>
        </Placemark>
        <Placemark id="461">
            <name>20</name>
            <Point id="460">
                <coordinates>80.09594333799882,12.940256276729258,0.0</coordinates>
            </Point>
        </Placemark>
        <Placemark id="463">
            <name>21</name>
            <Point id="462">
                <coordinates>80.09714950761871,12.940153634858035,0.0</coordinates>
            </Point>
        </Placemark>
        <Placemark id="465">
            <name>22</name>
            <Point id="464">
                <coordinates>80.09717884360535,12.940151138442513,0.0</coordinates>
            </Point>
        </Placemark>
        <Placemark id="467">
            <name>23</name>
            <Point id="466">
                <coordinates>80.11100236610837,12.9401507721712,0.0</coordinates>
            </Point>
        </Placemark>
    </Document>
</kml>
