<?xml version="1.0" encoding="UTF-8"?>
<kml xmlns="http://www.opengis.net/kml/2.2" xmlns:gx="http://www.google.com/kml/ext/2.2">
    <Document id="307">
        <Style id="310">
            <LineStyle id="311">
                <color>ffff0000</color>
                <colorMode>normal</colorMode>
                <width>2</width>
            </LineStyle>
        </Style>
        <Placemark id="309">
            <styleUrl>#310</styleUrl>
            <LineString id="308">
                <altitudeMode>clampToGround</altitudeMode>
                <coordinates>80.09717884360535,12.928098944560295,0.0 80.11100170257775,12.928098578641539,0.0 80.11100170257775,12.928098578641539,0.0 80.11215845868337,12.927753589356925,0.0 80.11215845868337,12.927753589356925,0.0 80.11331118048646,12.927274898222073,0.0 80.11331118048646,12.927274898222073,0.0 80.114536947421,12.927346060673175,0.0 80.114536947421,12.927346060673175,0.0 80.11539754774671,12.928188258876908,0.0 80.11539754774671,12.928188258876908,0.0 80.11544983624745,12.929367823342458,0.0 80.11544983624745,12.929367823342458,0.0 80.11466688823091,12.930277366024018,0.0 80.11466688823091,12.930277366024018,0.0 80.11345186374442,12.930448540029094,0.0 80.11345186374442,12.930448540029094,0.0 80.11222788133183,12.930177706192467,0.0 80.11222788133183,12.930177706192467,0.0 80.11100389891926,12.92990687235584,0.0 80.11100389891926,12.92990687235584,0.0 80.11100180206454,12.92990640837923,0.0 80.11100180206454,12.92990640837923,0.0 80.09717884360535,12.929906774350869,0.0 80.09717884360535,12.929906774350869,0.0 80.09621824940608,12.929253818361559,0.0 80.09621824940608,12.929253818361559,0.0 80.09511782696543,12.9287507915232,0.0 80.09511782696543,12.9287507915232,0.0 80.09393425224256,12.928754901217186,0.0 80.09393425224256,12.928754901217186,0.0 80.09307316484592,12.929519739839385,0.0 80.09307316484592,12.929519739839385,0.0 80.09293234544118,12.930691988995576,0.0 80.09293234544118,12.930691988995576,0.0 80.0936149196655,12.931656514249891,0.0 80.0936149196655,12.931656514249891,0.0 80.0947371199188,12.931922348088824,0.0 80.0947371199188,12.931922348088824,0.0 80.09594329121973,12.931819725875632,0.0 80.09594329121973,12.931819725875632,0.0 80.09714946252066,12.931717103662441,0.0 80.09714946252066,12.931717103662441,0.0 80.09717884360535,12.931714603891525,0.0 80.09717884360535,12.931714603891525,0.0 80.11100190156642,12.931714237867007,0.0 80.11100190156642,12.931714237867007,0.0 80.11316679916307,12.930941336271523,0.0</coordinates>
            </LineString>
        </Placemark>
        <Placemark id="313">
            <name>0</name>
            <Point id="312">
                <coordinates>80.09717884360535,12.928098944560295,0.0</coordinates>
            </Point>
        </Placemark>
        <Placemark id="315">
            <name>1</name>
            <Point id="314">
                <coordinates>80.11100170257775,12.928098578641539,0.0</coordinates>
            </Point>
        </Placemark>
        <Placemark id="317">
            <name>2</name>
            <Point id="316">
                <coordinates>80.11215845868337,12.927753589356925,0.0</coordinates>
            </Point>
        </Placemark>
        <Placemark id="319">
            <name>3</name>
            <Point id="318">
                <coordinates>80.11331118048646,12.927274898222073,0.0</coordinates>
            </Point>
        </Placemark>
        <Placemark id="321">
            <name>4</name>
            <Point id="320">
                <coordinates>80.114536947421,12.927346060673175,0.0</coordinates>
            </Point>
        </Placemark>
        <Placemark id="323">
            <name>5</name>
            <Point id="322">
                <coordinates>80.11539754774671,12.928188258876908,0.0</coordinates>
            </Point>
        </Placemark>
        <Placemark id="325">
            <name>6</name>
            <Point id="324">
                <coordinates>80.11544983624745,12.929367823342458,0.0</coordinates>
            </Point>
        </Placemark>
        <Placemark id="327">
            <name>7</name>
            <Point id="326">
                <coordinates>80.11466688823091,12.930277366024018,0.0</coordinates>
            </Point>
        </Placemark>
        <Placemark id="329">
            <name>8</name>
            <Point id="328">
                <coordinates>80.11345186374442,12.930448540029094,0.0</coordinates>
            </Point>
        </Placemark>
        <Placemark id="331">
            <name>9</name>
            <Point id="330">
                <coordinates>80.11222788133183,12.930177706192467,0.0</coordinates>
            </Point>
        </Placemark>
        <Placemark id="333">
            <name>10</name>
            <Point id="332">
                <coordinates>80.11100389891926,12.92990687235584,0.0</coordinates>
            </Point>
        </Placemark>
        <Placemark id="335">
            <name>11</name>
            <Point id="334">
                <coordinates>80.11100180206454,12.92990640837923,0.0</coordinates>
            </Point>
        </Placemark>
        <Placemark id="337">
            <name>12</name>
            <Point id="336">
                <coordinates>80.09717884360535,12.929906774350869,0.0</coordinates>
            </Point>
        </Placemark>
        <Placemark id="339">
            <name>13</name>
            <Point id="338">
                <coordinates>80.09621824940608,12.929253818361559,0.0</coordinates>
            </Point>
        </Placemark>
        <Placemark id="341">
            <name>14</name>
            <Point id="340">
                <coordinates>80.09511782696543,12.9287507915232,0.0</coordinates>
            </Point>
        </Placemark>
        <Placemark id="343">
            <name>15</name>
            <Point id="342">
                <coordinates>80.09393425224256,12.928754901217186,0.0</coordinates>
            </Point>
        </Placemark>
        <Placemark id="345">
            <name>16</name>
            <Point id="344">
                <coordinates>80.09307316484592,12.929519739839385,0.0</coordinates>
            </Point>
        </Placemark>
        <Placemark id="347">
            <name>17</name>
            <Point id="346">
                <coordinates>80.09293234544118,12.930691988995576,0.0</coordinates>
            </Point>
        </Placemark>
        <Placemark id="349">
            <name>18</name>
            <Point id="348">
                <coordinates>80.0936149196655,12.931656514249891,0.0</coordinates>
            </Point>
        </Placemark>
        <Placemark id="351">
            <name>19</name>
            <Point id="350">
                <coordinates>80.0947371199188,12.931922348088824,0.0</coordinates>
            </Point>
        </Placemark>
        <Placemark id="353">
            <name>20</name>
            <Point id="352">
                <coordinates>80.09594329121973,12.931819725875632,0.0</coordinates>
            </Point>
        </Placemark>
        <Placemark id="355">
            <name>21</name>
            <Point id="354">
                <coordinates>80.09714946252066,12.931717103662441,0.0</coordinates>
            </Point>
        </Placemark>
        <Placemark id="357">
            <name>22</name>
            <Point id="356">
                <coordinates>80.09717884360535,12.931714603891525,0.0</coordinates>
            </Point>
        </Placemark>
        <Placemark id="359">
            <name>23</name>
            <Point id="358">
                <coordinates>80.11100190156642,12.931714237867007,0.0</coordinates>
            </Point>
        </Placemark>
    </Document>
</kml>
