<?xml version="1.0" encoding="UTF-8"?>
<kml xmlns="http://www.opengis.net/kml/2.2" xmlns:gx="http://www.google.com/kml/ext/2.2">
    <Document id="361">
        <Style id="364">
            <LineStyle id="365">
                <color>ffff0000</color>
                <colorMode>normal</colorMode>
                <width>2</width>
            </LineStyle>
        </Style>
        <Placemark id="363">
            <styleUrl>#364</styleUrl>
            <LineString id="362">
                <altitudeMode>clampToGround</altitudeMode>
                <coordinates>80.09717884360535,12.932317213682868,0.0 80.11100193473709,12.93231684764072,0.0 80.11100193473709,12.93231684764072,0.0 80.11215869283191,12.931971862687949,0.0 80.11215869283191,12.931971862687949,0.0 80.11331141914998,12.931493181603086,0.0 80.11331141914998,12.931493181603086,0.0 80.11453718541325,12.931564354740996,0.0 80.11453718541325,12.931564354740996,0.0 80.11539777779531,12.93240656044781,0.0 80.11539777779531,12.93240656044781,0.0 80.11545005517036,12.933586125369189,0.0 80.11545005517036,12.933586125369189,0.0 80.11466709857501,12.934495661224602,0.0 80.11466709857501,12.934495661224602,0.0 80.11345207247405,12.934666824636519,0.0 80.11345207247405,12.934666824636519,0.0 80.11222809249013,12.934395980654566,0.0 80.11222809249013,12.934395980654566,0.0 80.11100411250622,12.934125136672613,0.0 80.11100411250622,12.934125136672613,0.0 80.11100203425913,12.934124676795225,0.0 80.11100203425913,12.934124676795225,0.0 80.09717884360535,12.934125042890251,0.0 80.09717884360535,12.934125042890251,0.0 80.0962182479575,12.933472090027543,0.0 80.0962182479575,12.933472090027543,0.0 80.09511782067864,12.932969073720784,0.0 80.09511782067864,12.932969073720784,0.0 80.09393424599534,12.932973194742157,0.0 80.09393424599534,12.932973194742157,0.0 80.0930731659552,12.933738041605345,0.0 80.0930731659552,12.933738041605345,0.0 80.09293235782555,12.934910292109194,0.0 80.09293235782555,12.934910292109194,0.0 80.09361494132693,12.935874810830896,0.0 80.09361494132693,12.935874810830896,0.0 80.09473714414499,12.936140634022582,0.0 80.09473714414499,12.936140634022582,0.0 80.09594331460558,12.936038001981947,0.0 80.09594331460558,12.936038001981947,0.0 80.09714948506615,12.935935369941312,0.0 80.09714948506615,12.935935369941312,0.0 80.09717884360535,12.935932871847646,0.0 80.09717884360535,12.935932871847646,0.0 80.11100213379626,12.935932505699732,0.0 80.11100213379626,12.935932505699732,0.0 80.11316706776131,12.935159604350597,0.0</coordinates>
            </LineString>
        </Placemark>
        <Placemark id="367">
            <name>0</name>
            <Point id="366">
                <coordinates>80.09717884360535,12.932317213682868,0.0</coordinates>
            </Point>
        </Placemark>
        <Placemark id="369">
            <name>1</name>
            <Point id="368">
                <coordinates>80.11100193473709,12.93231684764072,0.0</coordinates>
            </Point>
        </Placemark>
        <Placemark id="371">
            <name>2</name>
            <Point id="370">
                <coordinates>80.11215869283191,12.931971862687949,0.0</coordinates>
            </Point>
        </Placemark>
        <Placemark id="373">
            <name>3</name>
            <Point id="372">
                <coordinates>80.11331141914998,12.931493181603086,0.0</coordinates>
            </Point>
        </Placemark>
        <Placemark id="375">
            <name>4</name>
            <Point id="374">
                <coordinates>80.11453718541325,12.931564354740996,0.0</coordinates>
            </Point>
        </Placemark>
        <Placemark id="377">
            <name>5</name>
            <Point id="376">
                <coordinates>80.11539777779531,12.93240656044781,0.0</coordinates>
            </Point>
        </Placemark>
        <Placemark id="379">
            <name>6</name>
            <Point id="378">
                <coordinates>80.11545005517036,12.933586125369189,0.0</coordinates>
            </Point>
        </Placemark>
        <Placemark id="381">
            <name>7</name>
            <Point id="380">
                <coordinates>80.11466709857501,12.934495661224602,0.0</coordinates>
            </Point>
        </Placemark>
        <Placemark id="383">
            <name>8</name>
            <Point id="382">
                <coordinates>80.11345207247405,12.934666824636519,0.0</coordinates>
            </Point>
        </Placemark>
        <Placemark id="385">
            <name>9</name>
            <Point id="384">
                <coordinates>80.11222809249013,12.934395980654566,0.0</coordinates>
            </Point>
        </Placemark>
        <Placemark id="387">
            <name>10</name>
            <Point id="386">
                <coordinates>80.11100411250622,12.934125136672613,0.0</coordinates>
            </Point>
        </Placemark>
        <Placemark id="389">
            <name>11</name>
            <Point id="388">
                <coordinates>80.11100203425913,12.934124676795225,0.0</coordinates>
            </Point>
        </Placemark>
        <Placemark id="391">
            <name>12</name>
            <Point id="390">
                <coordinates>80.09717884360535,12.934125042890251,0.0</coordinates>
            </Point>
        </Placemark>
        <Placemark id="393">
            <name>13</name>
            <Point id="392">
                <coordinates>80.0962182479575,12.933472090027543,0.0</coordinates>
            </Point>
        </Placemark>
        <Placemark id="395">
            <name>14</name>
            <Point id="394">
                <coordinates>80.09511782067864,12.932969073720784,0.0</coordinates>
            </Point>
        </Placemark>
        <Placemark id="397">
            <name>15</name>
            <Point id="396">
                <coordinates>80.09393424599534,12.932973194742157,0.0</coordinates>
            </Point>
        </Placemark>
        <Placemark id="399">
            <name>16</name>
            <Point id="398">
                <coordinates>80.0930731659552,12.933738041605345,0.0</coordinates>
            </Point>
        </Placemark>
        <Placemark id="401">
            <name>17</name>
            <Point id="400">
                <coordinates>80.09293235782555,12.934910292109194,0.0</coordinates>
            </Point>
        </Placemark>
        <Placemark id="403">
            <name>18</name>
            <Point id="402">
                <coordinates>80.09361494132693,12.935874810830896,0.0</coordinates>
            </Point>
        </Placemark>
        <Placemark id="405">
            <name>19</name>
            <Point id="404">
                <coordinates>80.09473714414499,12.936140634022582,0.0</coordinates>
            </Point>
        </Placemark>
        <Placemark id="407">
            <name>20</name>
            <Point id="406">
                <coordinates>80.09594331460558,12.936038001981947,0.0</coordinates>
            </Point>
        </Placemark>
        <Placemark id="409">
            <name>21</name>
            <Point id="408">
                <coordinates>80.09714948506615,12.935935369941312,0.0</coordinates>
            </Point>
        </Placemark>
        <Placemark id="411">
            <name>22</name>
            <Point id="410">
                <coordinates>80.09717884360535,12.935932871847646,0.0</coordinates>
            </Point>
        </Placemark>
        <Placemark id="413">
            <name>23</name>
            <Point id="412">
                <coordinates>80.11100213379626,12.935932505699732,0.0</coordinates>
            </Point>
        </Placemark>
    </Document>
</kml>
