<?xml version="1.0" encoding="UTF-8"?>
<kml xmlns="http://www.opengis.net/kml/2.2" xmlns:gx="http://www.google.com/kml/ext/2.2">
    <Document id="13685">
        <Style id="13688">
            <LineStyle id="13689">
                <color>ff000000</color>
                <colorMode>normal</colorMode>
                <width>2</width>
            </LineStyle>
        </Style>
        <Placemark id="13687">
            <styleUrl>#13688</styleUrl>
            <LineString id="13686">
                <altitudeMode>clampToGround</altitudeMode>
                <coordinates>80.10356406053302,12.912781249349065,0.0 80.12199341602599,12.912780599623328,0.0 80.1236223459562,12.911182681588997,0.0 80.1219934491437,12.913232557599933,0.0 80.10356406053302,12.91323320734917,0.0 80.10193512767177,12.911635289369885,0.0 80.10356406053302,12.913685165333673,0.0 80.12199348226268,12.913684515560936,0.0 80.12362241804666,12.912086597636549,0.0 80.12199351538291,12.914136473506336,0.0 80.10356406053302,12.914137123302574,0.0 80.10193512181777,12.91253920543324,0.0 80.10356406053302,12.914589081255873,0.0 80.1219935485044,12.914588431436137,0.0 80.1236224901426,12.912990513621699,0.0 80.12199358162715,12.915040389350331,0.0 80.10356406053302,12.91504103919357,0.0 80.10193511596334,12.913443121434188,0.0 80.10356406053302,12.915492997115663,0.0 80.12199361475116,12.915492347248923,0.0 80.12362256224401,12.913894429544444,0.0 80.12199364787642,12.915944305131918,0.0 80.10356406053302,12.915944955022155,0.0 80.10193511010847,12.91434703737273,0.0 80.10356406053302,12.916396912913042,0.0 80.12199368100295,12.916396262999307,0.0 80.1236226343509,12.91479834540479,0.0</coordinates>
            </LineString>
        </Placemark>
        <Placemark id="13691">
            <name>1</name>
            <Point id="13690">
                <coordinates>80.10356406053302,12.912781249349065,0.0</coordinates>
            </Point>
        </Placemark>
        <Placemark id="13693">
            <name>2</name>
            <Point id="13692">
                <coordinates>80.12199341602599,12.912780599623328,0.0</coordinates>
            </Point>
        </Placemark>
        <Placemark id="13695">
            <name>3</name>
            <Point id="13694">
                <coordinates>80.1236223459562,12.911182681588997,0.0</coordinates>
            </Point>
        </Placemark>
        <Placemark id="13697">
            <name>4</name>
            <Point id="13696">
                <coordinates>80.1219934491437,12.913232557599933,0.0</coordinates>
            </Point>
        </Placemark>
        <Placemark id="13699">
            <name>5</name>
            <Point id="13698">
                <coordinates>80.10356406053302,12.91323320734917,0.0</coordinates>
            </Point>
        </Placemark>
        <Placemark id="13701">
            <name>6</name>
            <Point id="13700">
                <coordinates>80.10193512767177,12.911635289369885,0.0</coordinates>
            </Point>
        </Placemark>
        <Placemark id="13703">
            <name>7</name>
            <Point id="13702">
                <coordinates>80.10356406053302,12.913685165333673,0.0</coordinates>
            </Point>
        </Placemark>
        <Placemark id="13705">
            <name>8</name>
            <Point id="13704">
                <coordinates>80.12199348226268,12.913684515560936,0.0</coordinates>
            </Point>
        </Placemark>
        <Placemark id="13707">
            <name>9</name>
            <Point id="13706">
                <coordinates>80.12362241804666,12.912086597636549,0.0</coordinates>
            </Point>
        </Placemark>
        <Placemark id="13709">
            <name>10</name>
            <Point id="13708">
                <coordinates>80.12199351538291,12.914136473506336,0.0</coordinates>
            </Point>
        </Placemark>
        <Placemark id="13711">
            <name>11</name>
            <Point id="13710">
                <coordinates>80.10356406053302,12.914137123302574,0.0</coordinates>
            </Point>
        </Placemark>
        <Placemark id="13713">
            <name>12</name>
            <Point id="13712">
                <coordinates>80.10193512181777,12.91253920543324,0.0</coordinates>
            </Point>
        </Placemark>
        <Placemark id="13715">
            <name>13</name>
            <Point id="13714">
                <coordinates>80.10356406053302,12.914589081255873,0.0</coordinates>
            </Point>
        </Placemark>
        <Placemark id="13717">
            <name>14</name>
            <Point id="13716">
                <coordinates>80.1219935485044,12.914588431436137,0.0</coordinates>
            </Point>
        </Placemark>
        <Placemark id="13719">
            <name>15</name>
            <Point id="13718">
                <coordinates>80.1236224901426,12.912990513621699,0.0</coordinates>
            </Point>
        </Placemark>
        <Placemark id="13721">
            <name>16</name>
            <Point id="13720">
                <coordinates>80.12199358162715,12.915040389350331,0.0</coordinates>
            </Point>
        </Placemark>
        <Placemark id="13723">
            <name>17</name>
            <Point id="13722">
                <coordinates>80.10356406053302,12.91504103919357,0.0</coordinates>
            </Point>
        </Placemark>
        <Placemark id="13725">
            <name>18</name>
            <Point id="13724">
                <coordinates>80.10193511596334,12.913443121434188,0.0</coordinates>
            </Point>
        </Placemark>
        <Placemark id="13727">
            <name>19</name>
            <Point id="13726">
                <coordinates>80.10356406053302,12.915492997115663,0.0</coordinates>
            </Point>
        </Placemark>
        <Placemark id="13729">
            <name>20</name>
            <Point id="13728">
                <coordinates>80.12199361475116,12.915492347248923,0.0</coordinates>
            </Point>
        </Placemark>
        <Placemark id="13731">
            <name>21</name>
            <Point id="13730">
                <coordinates>80.12362256224401,12.913894429544444,0.0</coordinates>
            </Point>
        </Placemark>
        <Placemark id="13733">
            <name>22</name>
            <Point id="13732">
                <coordinates>80.12199364787642,12.915944305131918,0.0</coordinates>
            </Point>
        </Placemark>
        <Placemark id="13735">
            <name>23</name>
            <Point id="13734">
                <coordinates>80.10356406053302,12.915944955022155,0.0</coordinates>
            </Point>
        </Placemark>
        <Placemark id="13737">
            <name>24</name>
            <Point id="13736">
                <coordinates>80.10193511010847,12.91434703737273,0.0</coordinates>
            </Point>
        </Placemark>
        <Placemark id="13739">
            <name>25</name>
            <Point id="13738">
                <coordinates>80.10356406053302,12.916396912913042,0.0</coordinates>
            </Point>
        </Placemark>
        <Placemark id="13741">
            <name>26</name>
            <Point id="13740">
                <coordinates>80.12199368100295,12.916396262999307,0.0</coordinates>
            </Point>
        </Placemark>
        <Placemark id="13743">
            <name>27</name>
            <Point id="13742">
                <coordinates>80.1236226343509,12.91479834540479,0.0</coordinates>
            </Point>
        </Placemark>
    </Document>
</kml>
