<?xml version="1.0" encoding="UTF-8"?>
<kml xmlns="http://www.opengis.net/kml/2.2" xmlns:gx="http://www.google.com/kml/ext/2.2">
    <Document id="13467">
        <Style id="13470">
            <LineStyle id="13471">
                <color>ff000000</color>
                <colorMode>normal</colorMode>
                <width>2</width>
            </LineStyle>
        </Style>
        <Placemark id="13469">
            <styleUrl>#13470</styleUrl>
            <LineString id="13468">
                <altitudeMode>clampToGround</altitudeMode>
                <coordinates>80.03476654247599,12.94383345219888,0.0 80.0531981762833,12.943832800858377,0.0 80.05482730756292,12.942234886605027,0.0 80.0531982094875,12.944284757761912,0.0 80.03476654247599,12.944285409125918,0.0 80.03313740825767,12.942687494927737,0.0 80.03476654247599,12.944737366037318,0.0 80.05319824269297,12.944736714649805,0.0 80.05482737984165,12.94313880050664,0.0 80.05319827589969,12.945188671522061,0.0 80.03476654247599,12.94518932293308,0.0 80.03313740238839,12.943591408845093,0.0 80.03476654247599,12.945641279813206,0.0 80.05319830910767,12.945640628378683,0.0 80.05482745212585,12.944042714345718,0.0 80.05319834231692,12.946092585219668,0.0 80.03476654247599,12.946093236677696,0.0 80.03313739651867,12.944495322699913,0.0 80.03476654247599,12.946545193526548,0.0 80.05319837552742,12.946544542045011,0.0 80.05482752441553,12.944946628122253,0.0 80.05319840873918,12.946996498854718,0.0 80.03476654247599,12.946997150359758,0.0 80.0331373906485,12.945399236492182,0.0</coordinates>
            </LineString>
        </Placemark>
        <Placemark id="13473">
            <name>1</name>
            <Point id="13472">
                <coordinates>80.03476654247599,12.94383345219888,0.0</coordinates>
            </Point>
        </Placemark>
        <Placemark id="13475">
            <name>2</name>
            <Point id="13474">
                <coordinates>80.0531981762833,12.943832800858377,0.0</coordinates>
            </Point>
        </Placemark>
        <Placemark id="13477">
            <name>3</name>
            <Point id="13476">
                <coordinates>80.05482730756292,12.942234886605027,0.0</coordinates>
            </Point>
        </Placemark>
        <Placemark id="13479">
            <name>4</name>
            <Point id="13478">
                <coordinates>80.0531982094875,12.944284757761912,0.0</coordinates>
            </Point>
        </Placemark>
        <Placemark id="13481">
            <name>5</name>
            <Point id="13480">
                <coordinates>80.03476654247599,12.944285409125918,0.0</coordinates>
            </Point>
        </Placemark>
        <Placemark id="13483">
            <name>6</name>
            <Point id="13482">
                <coordinates>80.03313740825767,12.942687494927737,0.0</coordinates>
            </Point>
        </Placemark>
        <Placemark id="13485">
            <name>7</name>
            <Point id="13484">
                <coordinates>80.03476654247599,12.944737366037318,0.0</coordinates>
            </Point>
        </Placemark>
        <Placemark id="13487">
            <name>8</name>
            <Point id="13486">
                <coordinates>80.05319824269297,12.944736714649805,0.0</coordinates>
            </Point>
        </Placemark>
        <Placemark id="13489">
            <name>9</name>
            <Point id="13488">
                <coordinates>80.05482737984165,12.94313880050664,0.0</coordinates>
            </Point>
        </Placemark>
        <Placemark id="13491">
            <name>10</name>
            <Point id="13490">
                <coordinates>80.05319827589969,12.945188671522061,0.0</coordinates>
            </Point>
        </Placemark>
        <Placemark id="13493">
            <name>11</name>
            <Point id="13492">
                <coordinates>80.03476654247599,12.94518932293308,0.0</coordinates>
            </Point>
        </Placemark>
        <Placemark id="13495">
            <name>12</name>
            <Point id="13494">
                <coordinates>80.03313740238839,12.943591408845093,0.0</coordinates>
            </Point>
        </Placemark>
        <Placemark id="13497">
            <name>13</name>
            <Point id="13496">
                <coordinates>80.03476654247599,12.945641279813206,0.0</coordinates>
            </Point>
        </Placemark>
        <Placemark id="13499">
            <name>14</name>
            <Point id="13498">
                <coordinates>80.05319830910767,12.945640628378683,0.0</coordinates>
            </Point>
        </Placemark>
        <Placemark id="13501">
            <name>15</name>
            <Point id="13500">
                <coordinates>80.05482745212585,12.944042714345718,0.0</coordinates>
            </Point>
        </Placemark>
        <Placemark id="13503">
            <name>16</name>
            <Point id="13502">
                <coordinates>80.05319834231692,12.946092585219668,0.0</coordinates>
            </Point>
        </Placemark>
        <Placemark id="13505">
            <name>17</name>
            <Point id="13504">
                <coordinates>80.03476654247599,12.946093236677696,0.0</coordinates>
            </Point>
        </Placemark>
        <Placemark id="13507">
            <name>18</name>
            <Point id="13506">
                <coordinates>80.03313739651867,12.944495322699913,0.0</coordinates>
            </Point>
        </Placemark>
        <Placemark id="13509">
            <name>19</name>
            <Point id="13508">
                <coordinates>80.03476654247599,12.946545193526548,0.0</coordinates>
            </Point>
        </Placemark>
        <Placemark id="13511">
            <name>20</name>
            <Point id="13510">
                <coordinates>80.05319837552742,12.946544542045011,0.0</coordinates>
            </Point>
        </Placemark>
        <Placemark id="13513">
            <name>21</name>
            <Point id="13512">
                <coordinates>80.05482752441553,12.944946628122253,0.0</coordinates>
            </Point>
        </Placemark>
        <Placemark id="13515">
            <name>22</name>
            <Point id="13514">
                <coordinates>80.05319840873918,12.946996498854718,0.0</coordinates>
            </Point>
        </Placemark>
        <Placemark id="13517">
            <name>23</name>
            <Point id="13516">
                <coordinates>80.03476654247599,12.946997150359758,0.0</coordinates>
            </Point>
        </Placemark>
        <Placemark id="13519">
            <name>24</name>
            <Point id="13518">
                <coordinates>80.0331373906485,12.945399236492182,0.0</coordinates>
            </Point>
        </Placemark>
    </Document>
</kml>
