<?xml version="1.0" encoding="UTF-8"?>
<kml xmlns="http://www.opengis.net/kml/2.2" xmlns:gx="http://www.google.com/kml/ext/2.2">
    <Document id="877">
        <Style id="880">
            <LineStyle id="881">
                <color>ff000000</color>
                <colorMode>normal</colorMode>
                <width>2</width>
            </LineStyle>
        </Style>
        <Placemark id="879">
            <styleUrl>#880</styleUrl>
            <LineString id="878">
                <altitudeMode>clampToGround</altitudeMode>
                <coordinates>80.13599669245588,13.022753126548496,0.0 80.14982478068907,13.022752757860006,0.0 80.1514544260706,13.021154853254254,0.0 80.14982488096751,13.024560574468817,0.0 80.13599669245588,13.024560943210224,0.0 80.13436703525558,13.022963038826152,0.0 80.13599669245588,13.026368759620334,0.0 80.14982498126108,13.026368390826008,0.0 80.1514546502771,13.02477048666356,0.0 80.14982508156977,13.028176206931544,0.0 80.13599669245588,13.028176575778794,0.0 80.13436701161753,13.026578671838083,0.0 80.13599669245588,13.029984391685572,0.0 80.1498251818936,13.029984022785401,0.0 80.15145487455123,13.028386119066372,0.0 80.14982528223258,13.031791838387543,0.0 80.13599669245588,13.031792207340636,0.0 80.13436698797234,13.030194303843402,0.0 80.13599669245588,13.033600022743952,0.0 80.14982538258668,13.033599653737935,0.0 80.15145509889307,13.03200175046244,0.0 80.14982548295592,13.03540746883655,0.0 80.13599669245588,13.035407837895491,0.0 80.13436696432002,13.03380993484185,0.0</coordinates>
            </LineString>
        </Placemark>
        <Placemark id="883">
            <name>1</name>
            <Point id="882">
                <coordinates>80.13599669245588,13.022753126548496,0.0</coordinates>
            </Point>
        </Placemark>
        <Placemark id="885">
            <name>2</name>
            <Point id="884">
                <coordinates>80.14982478068907,13.022752757860006,0.0</coordinates>
            </Point>
        </Placemark>
        <Placemark id="887">
            <name>3</name>
            <Point id="886">
                <coordinates>80.1514544260706,13.021154853254254,0.0</coordinates>
            </Point>
        </Placemark>
        <Placemark id="889">
            <name>4</name>
            <Point id="888">
                <coordinates>80.14982488096751,13.024560574468817,0.0</coordinates>
            </Point>
        </Placemark>
        <Placemark id="891">
            <name>5</name>
            <Point id="890">
                <coordinates>80.13599669245588,13.024560943210224,0.0</coordinates>
            </Point>
        </Placemark>
        <Placemark id="893">
            <name>6</name>
            <Point id="892">
                <coordinates>80.13436703525558,13.022963038826152,0.0</coordinates>
            </Point>
        </Placemark>
        <Placemark id="895">
            <name>7</name>
            <Point id="894">
                <coordinates>80.13599669245588,13.026368759620334,0.0</coordinates>
            </Point>
        </Placemark>
        <Placemark id="897">
            <name>8</name>
            <Point id="896">
                <coordinates>80.14982498126108,13.026368390826008,0.0</coordinates>
            </Point>
        </Placemark>
        <Placemark id="899">
            <name>9</name>
            <Point id="898">
                <coordinates>80.1514546502771,13.02477048666356,0.0</coordinates>
            </Point>
        </Placemark>
        <Placemark id="901">
            <name>10</name>
            <Point id="900">
                <coordinates>80.14982508156977,13.028176206931544,0.0</coordinates>
            </Point>
        </Placemark>
        <Placemark id="903">
            <name>11</name>
            <Point id="902">
                <coordinates>80.13599669245588,13.028176575778794,0.0</coordinates>
            </Point>
        </Placemark>
        <Placemark id="905">
            <name>12</name>
            <Point id="904">
                <coordinates>80.13436701161753,13.026578671838083,0.0</coordinates>
            </Point>
        </Placemark>
        <Placemark id="907">
            <name>13</name>
            <Point id="906">
                <coordinates>80.13599669245588,13.029984391685572,0.0</coordinates>
            </Point>
        </Placemark>
        <Placemark id="909">
            <name>14</name>
            <Point id="908">
                <coordinates>80.1498251818936,13.029984022785401,0.0</coordinates>
            </Point>
        </Placemark>
        <Placemark id="911">
            <name>15</name>
            <Point id="910">
                <coordinates>80.15145487455123,13.028386119066372,0.0</coordinates>
            </Point>
        </Placemark>
        <Placemark id="913">
            <name>16</name>
            <Point id="912">
                <coordinates>80.14982528223258,13.031791838387543,0.0</coordinates>
            </Point>
        </Placemark>
        <Placemark id="915">
            <name>17</name>
            <Point id="914">
                <coordinates>80.13599669245588,13.031792207340636,0.0</coordinates>
            </Point>
        </Placemark>
        <Placemark id="917">
            <name>18</name>
            <Point id="916">
                <coordinates>80.13436698797234,13.030194303843402,0.0</coordinates>
            </Point>
        </Placemark>
        <Placemark id="919">
            <name>19</name>
            <Point id="918">
                <coordinates>80.13599669245588,13.033600022743952,0.0</coordinates>
            </Point>
        </Placemark>
        <Placemark id="921">
            <name>20</name>
            <Point id="920">
                <coordinates>80.14982538258668,13.033599653737935,0.0</coordinates>
            </Point>
        </Placemark>
        <Placemark id="923">
            <name>21</name>
            <Point id="922">
                <coordinates>80.15145509889307,13.03200175046244,0.0</coordinates>
            </Point>
        </Placemark>
        <Placemark id="925">
            <name>22</name>
            <Point id="924">
                <coordinates>80.14982548295592,13.03540746883655,0.0</coordinates>
            </Point>
        </Placemark>
        <Placemark id="927">
            <name>23</name>
            <Point id="926">
                <coordinates>80.13599669245588,13.035407837895491,0.0</coordinates>
            </Point>
        </Placemark>
        <Placemark id="929">
            <name>24</name>
            <Point id="928">
                <coordinates>80.13436696432002,13.03380993484185,0.0</coordinates>
            </Point>
        </Placemark>
    </Document>
</kml>
