<?xml version="1.0" encoding="UTF-8"?>
<kml xmlns="http://www.opengis.net/kml/2.2" xmlns:gx="http://www.google.com/kml/ext/2.2">
    <Document id="13221">
        <Style id="13224">
            <LineStyle id="13225">
                <color>ff000000</color>
                <colorMode>normal</colorMode>
                <width>2</width>
            </LineStyle>
        </Style>
        <Placemark id="13223">
            <styleUrl>#13224</styleUrl>
            <LineString id="13222">
                <altitudeMode>clampToGround</altitudeMode>
                <coordinates>80.03476654247599,12.940217796219766,0.0 80.05319791069499,12.940217145067304,0.0 80.05482701850285,12.93861923037327,0.0 80.05319794388912,12.940669102095903,0.0 80.03476654247599,12.940669753271871,0.0 80.03313743173032,12.939071838632994,0.0 80.03476654247599,12.941121710308343,0.0 80.05319797708451,12.941121059108871,0.0 80.05482709075964,12.939523144524994,0.0 80.05319801028116,12.941573016106204,0.0 80.03476654247599,12.94157366732918,0.0 80.03313742586283,12.939975752800464,0.0 80.03476654247599,12.942025624334386,0.0 80.05319804347907,12.942024973087905,0.0 80.05482716302193,12.940427058614198,0.0 80.05319807667824,12.942476930053976,0.0 80.03476654247599,12.94247758132396,0.0 80.03313741999489,12.940879666905424,0.0 80.03476654247599,12.942929538297902,0.0 80.05319810987866,12.94292888700441,0.0 80.05482723528968,12.941330972640877,0.0 80.05319814308035,12.94338084393921,0.0 80.03476654247599,12.943381495256205,0.0 80.0331374141265,12.941783580947844,0.0 80.03476654247599,12.943833452198877,0.0 80.0531981762833,12.943832800858374,0.0 80.05482730756293,12.942234886605021,0.0</coordinates>
            </LineString>
        </Placemark>
        <Placemark id="13227">
            <name>1</name>
            <Point id="13226">
                <coordinates>80.03476654247599,12.940217796219766,0.0</coordinates>
            </Point>
        </Placemark>
        <Placemark id="13229">
            <name>2</name>
            <Point id="13228">
                <coordinates>80.05319791069499,12.940217145067304,0.0</coordinates>
            </Point>
        </Placemark>
        <Placemark id="13231">
            <name>3</name>
            <Point id="13230">
                <coordinates>80.05482701850285,12.93861923037327,0.0</coordinates>
            </Point>
        </Placemark>
        <Placemark id="13233">
            <name>4</name>
            <Point id="13232">
                <coordinates>80.05319794388912,12.940669102095903,0.0</coordinates>
            </Point>
        </Placemark>
        <Placemark id="13235">
            <name>5</name>
            <Point id="13234">
                <coordinates>80.03476654247599,12.940669753271871,0.0</coordinates>
            </Point>
        </Placemark>
        <Placemark id="13237">
            <name>6</name>
            <Point id="13236">
                <coordinates>80.03313743173032,12.939071838632994,0.0</coordinates>
            </Point>
        </Placemark>
        <Placemark id="13239">
            <name>7</name>
            <Point id="13238">
                <coordinates>80.03476654247599,12.941121710308343,0.0</coordinates>
            </Point>
        </Placemark>
        <Placemark id="13241">
            <name>8</name>
            <Point id="13240">
                <coordinates>80.05319797708451,12.941121059108871,0.0</coordinates>
            </Point>
        </Placemark>
        <Placemark id="13243">
            <name>9</name>
            <Point id="13242">
                <coordinates>80.05482709075964,12.939523144524994,0.0</coordinates>
            </Point>
        </Placemark>
        <Placemark id="13245">
            <name>10</name>
            <Point id="13244">
                <coordinates>80.05319801028116,12.941573016106204,0.0</coordinates>
            </Point>
        </Placemark>
        <Placemark id="13247">
            <name>11</name>
            <Point id="13246">
                <coordinates>80.03476654247599,12.94157366732918,0.0</coordinates>
            </Point>
        </Placemark>
        <Placemark id="13249">
            <name>12</name>
            <Point id="13248">
                <coordinates>80.03313742586283,12.939975752800464,0.0</coordinates>
            </Point>
        </Placemark>
        <Placemark id="13251">
            <name>13</name>
            <Point id="13250">
                <coordinates>80.03476654247599,12.942025624334386,0.0</coordinates>
            </Point>
        </Placemark>
        <Placemark id="13253">
            <name>14</name>
            <Point id="13252">
                <coordinates>80.05319804347907,12.942024973087905,0.0</coordinates>
            </Point>
        </Placemark>
        <Placemark id="13255">
            <name>15</name>
            <Point id="13254">
                <coordinates>80.05482716302193,12.940427058614198,0.0</coordinates>
            </Point>
        </Placemark>
        <Placemark id="13257">
            <name>16</name>
            <Point id="13256">
                <coordinates>80.05319807667824,12.942476930053976,0.0</coordinates>
            </Point>
        </Placemark>
        <Placemark id="13259">
            <name>17</name>
            <Point id="13258">
                <coordinates>80.03476654247599,12.94247758132396,0.0</coordinates>
            </Point>
        </Placemark>
        <Placemark id="13261">
            <name>18</name>
            <Point id="13260">
                <coordinates>80.03313741999489,12.940879666905424,0.0</coordinates>
            </Point>
        </Placemark>
        <Placemark id="13263">
            <name>19</name>
            <Point id="13262">
                <coordinates>80.03476654247599,12.942929538297902,0.0</coordinates>
            </Point>
        </Placemark>
        <Placemark id="13265">
            <name>20</name>
            <Point id="13264">
                <coordinates>80.05319810987866,12.94292888700441,0.0</coordinates>
            </Point>
        </Placemark>
        <Placemark id="13267">
            <name>21</name>
            <Point id="13266">
                <coordinates>80.05482723528968,12.941330972640877,0.0</coordinates>
            </Point>
        </Placemark>
        <Placemark id="13269">
            <name>22</name>
            <Point id="13268">
                <coordinates>80.05319814308035,12.94338084393921,0.0</coordinates>
            </Point>
        </Placemark>
        <Placemark id="13271">
            <name>23</name>
            <Point id="13270">
                <coordinates>80.03476654247599,12.943381495256205,0.0</coordinates>
            </Point>
        </Placemark>
        <Placemark id="13273">
            <name>24</name>
            <Point id="13272">
                <coordinates>80.0331374141265,12.941783580947844,0.0</coordinates>
            </Point>
        </Placemark>
        <Placemark id="13275">
            <name>25</name>
            <Point id="13274">
                <coordinates>80.03476654247599,12.943833452198877,0.0</coordinates>
            </Point>
        </Placemark>
        <Placemark id="13277">
            <name>26</name>
            <Point id="13276">
                <coordinates>80.0531981762833,12.943832800858374,0.0</coordinates>
            </Point>
        </Placemark>
        <Placemark id="13279">
            <name>27</name>
            <Point id="13278">
                <coordinates>80.05482730756293,12.942234886605021,0.0</coordinates>
            </Point>
        </Placemark>
    </Document>
</kml>
