<?xml version="1.0" encoding="UTF-8"?>
<kml xmlns="http://www.opengis.net/kml/2.2" xmlns:gx="http://www.google.com/kml/ext/2.2">
    <Document id="771">
        <Style id="774">
            <LineStyle id="775">
                <color>ff000000</color>
                <colorMode>normal</colorMode>
                <width>2</width>
            </LineStyle>
        </Style>
        <Placemark id="773">
            <styleUrl>#774</styleUrl>
            <LineString id="772">
                <altitudeMode>clampToGround</altitudeMode>
                <coordinates>80.10404697542093,13.021661307555862,0.0 80.11787500309897,13.021660938899332,0.0 80.11950464134496,13.020063034159735,0.0 80.11787510336826,13.023468755660092,0.0 80.10404697542093,13.023469124369536,0.0 80.10241732535725,13.021871219851608,0.0 80.10404697542093,13.025276940931612,0.0 80.11787520365269,13.025276572169242,0.0 80.11950486553101,13.02367866787291,0.0 80.11787530395225,13.027084388426767,0.0 80.10404697542093,13.027084757242056,0.0 80.10241730172135,13.02548685316745,0.0</coordinates>
            </LineString>
        </Placemark>
        <Placemark id="777">
            <name>1</name>
            <Point id="776">
                <coordinates>80.10404697542093,13.021661307555862,0.0</coordinates>
            </Point>
        </Placemark>
        <Placemark id="779">
            <name>2</name>
            <Point id="778">
                <coordinates>80.11787500309897,13.021660938899332,0.0</coordinates>
            </Point>
        </Placemark>
        <Placemark id="781">
            <name>3</name>
            <Point id="780">
                <coordinates>80.11950464134496,13.020063034159735,0.0</coordinates>
            </Point>
        </Placemark>
        <Placemark id="783">
            <name>4</name>
            <Point id="782">
                <coordinates>80.11787510336826,13.023468755660092,0.0</coordinates>
            </Point>
        </Placemark>
        <Placemark id="785">
            <name>5</name>
            <Point id="784">
                <coordinates>80.10404697542093,13.023469124369536,0.0</coordinates>
            </Point>
        </Placemark>
        <Placemark id="787">
            <name>6</name>
            <Point id="786">
                <coordinates>80.10241732535725,13.021871219851608,0.0</coordinates>
            </Point>
        </Placemark>
        <Placemark id="789">
            <name>7</name>
            <Point id="788">
                <coordinates>80.10404697542093,13.025276940931612,0.0</coordinates>
            </Point>
        </Placemark>
        <Placemark id="791">
            <name>8</name>
            <Point id="790">
                <coordinates>80.11787520365269,13.025276572169242,0.0</coordinates>
            </Point>
        </Placemark>
        <Placemark id="793">
            <name>9</name>
            <Point id="792">
                <coordinates>80.11950486553101,13.02367866787291,0.0</coordinates>
            </Point>
        </Placemark>
        <Placemark id="795">
            <name>10</name>
            <Point id="794">
                <coordinates>80.11787530395225,13.027084388426767,0.0</coordinates>
            </Point>
        </Placemark>
        <Placemark id="797">
            <name>11</name>
            <Point id="796">
                <coordinates>80.10404697542093,13.027084757242056,0.0</coordinates>
            </Point>
        </Placemark>
        <Placemark id="799">
            <name>12</name>
            <Point id="798">
                <coordinates>80.10241730172135,13.02548685316745,0.0</coordinates>
            </Point>
        </Placemark>
    </Document>
</kml>
