<?xml version="1.0" encoding="UTF-8"?>
<kml xmlns="http://www.opengis.net/kml/2.2" xmlns:gx="http://www.google.com/kml/ext/2.2">
    <Document id="14177">
        <Style id="14180">
            <LineStyle id="14181">
                <color>ff000000</color>
                <colorMode>normal</colorMode>
                <width>2</width>
            </LineStyle>
        </Style>
        <Placemark id="14179">
            <styleUrl>#14180</styleUrl>
            <LineString id="14178">
                <altitudeMode>clampToGround</altitudeMode>
                <coordinates>80.10356406053302,12.920012575478328,0.0 80.12199394606046,12.920011925376585,0.0 80.12362292283325,12.918414008221996,0.0 80.12199397919831,12.920463883103512,0.0 80.10356406053302,12.920464533228754,0.0 80.1019350808274,12.918866616129245,0.0 80.10356406053302,12.92091649096357,0.0 80.12199401233742,12.920915840814827,0.0 80.12362299496755,12.91931792377024,0.0 80.12199404547779,12.921367798510532,0.0 80.10356406053302,12.92136844868278,0.0 80.10193507496986,12.919770531693274,0.0 80.10356406053302,12.921820406386376,0.0 80.12199407861942,12.921819756190631,0.0 80.12362306710732,12.920221839256046,0.0 80.1219941117623,12.922271713855114,0.0 80.10356406053302,12.922272364074365,0.0 80.10193506911186,12.920674447194868,0.0 80.10356406053302,12.922724321746738,0.0 80.12199414490645,12.922723671503986,0.0 80.12362313925256,12.92112575467942,0.0 80.12199417805185,12.92317562913725,0.0 80.10356406053302,12.923176279403501,0.0 80.10193506325342,12.921578362634023,0.0 80.10356406053302,12.923628237044653,0.0 80.12199421119851,12.923627586754895,0.0 80.12362321140327,12.922029670040352,0.0</coordinates>
            </LineString>
        </Placemark>
        <Placemark id="14183">
            <name>1</name>
            <Point id="14182">
                <coordinates>80.10356406053302,12.920012575478328,0.0</coordinates>
            </Point>
        </Placemark>
        <Placemark id="14185">
            <name>2</name>
            <Point id="14184">
                <coordinates>80.12199394606046,12.920011925376585,0.0</coordinates>
            </Point>
        </Placemark>
        <Placemark id="14187">
            <name>3</name>
            <Point id="14186">
                <coordinates>80.12362292283325,12.918414008221996,0.0</coordinates>
            </Point>
        </Placemark>
        <Placemark id="14189">
            <name>4</name>
            <Point id="14188">
                <coordinates>80.12199397919831,12.920463883103512,0.0</coordinates>
            </Point>
        </Placemark>
        <Placemark id="14191">
            <name>5</name>
            <Point id="14190">
                <coordinates>80.10356406053302,12.920464533228754,0.0</coordinates>
            </Point>
        </Placemark>
        <Placemark id="14193">
            <name>6</name>
            <Point id="14192">
                <coordinates>80.1019350808274,12.918866616129245,0.0</coordinates>
            </Point>
        </Placemark>
        <Placemark id="14195">
            <name>7</name>
            <Point id="14194">
                <coordinates>80.10356406053302,12.92091649096357,0.0</coordinates>
            </Point>
        </Placemark>
        <Placemark id="14197">
            <name>8</name>
            <Point id="14196">
                <coordinates>80.12199401233742,12.920915840814827,0.0</coordinates>
            </Point>
        </Placemark>
        <Placemark id="14199">
            <name>9</name>
            <Point id="14198">
                <coordinates>80.12362299496755,12.91931792377024,0.0</coordinates>
            </Point>
        </Placemark>
        <Placemark id="14201">
            <name>10</name>
            <Point id="14200">
                <coordinates>80.12199404547779,12.921367798510532,0.0</coordinates>
            </Point>
        </Placemark>
        <Placemark id="14203">
            <name>11</name>
            <Point id="14202">
                <coordinates>80.10356406053302,12.92136844868278,0.0</coordinates>
            </Point>
        </Placemark>
        <Placemark id="14205">
            <name>12</name>
            <Point id="14204">
                <coordinates>80.10193507496986,12.919770531693274,0.0</coordinates>
            </Point>
        </Placemark>
        <Placemark id="14207">
            <name>13</name>
            <Point id="14206">
                <coordinates>80.10356406053302,12.921820406386376,0.0</coordinates>
            </Point>
        </Placemark>
        <Placemark id="14209">
            <name>14</name>
            <Point id="14208">
                <coordinates>80.12199407861942,12.921819756190631,0.0</coordinates>
            </Point>
        </Placemark>
        <Placemark id="14211">
            <name>15</name>
            <Point id="14210">
                <coordinates>80.12362306710732,12.920221839256046,0.0</coordinates>
            </Point>
        </Placemark>
        <Placemark id="14213">
            <name>16</name>
            <Point id="14212">
                <coordinates>80.1219941117623,12.922271713855114,0.0</coordinates>
            </Point>
        </Placemark>
        <Placemark id="14215">
            <name>17</name>
            <Point id="14214">
                <coordinates>80.10356406053302,12.922272364074365,0.0</coordinates>
            </Point>
        </Placemark>
        <Placemark id="14217">
            <name>18</name>
            <Point id="14216">
                <coordinates>80.10193506911186,12.920674447194868,0.0</coordinates>
            </Point>
        </Placemark>
        <Placemark id="14219">
            <name>19</name>
            <Point id="14218">
                <coordinates>80.10356406053302,12.922724321746738,0.0</coordinates>
            </Point>
        </Placemark>
        <Placemark id="14221">
            <name>20</name>
            <Point id="14220">
                <coordinates>80.12199414490645,12.922723671503986,0.0</coordinates>
            </Point>
        </Placemark>
        <Placemark id="14223">
            <name>21</name>
            <Point id="14222">
                <coordinates>80.12362313925256,12.92112575467942,0.0</coordinates>
            </Point>
        </Placemark>
        <Placemark id="14225">
            <name>22</name>
            <Point id="14224">
                <coordinates>80.12199417805185,12.92317562913725,0.0</coordinates>
            </Point>
        </Placemark>
        <Placemark id="14227">
            <name>23</name>
            <Point id="14226">
                <coordinates>80.10356406053302,12.923176279403501,0.0</coordinates>
            </Point>
        </Placemark>
        <Placemark id="14229">
            <name>24</name>
            <Point id="14228">
                <coordinates>80.10193506325342,12.921578362634023,0.0</coordinates>
            </Point>
        </Placemark>
        <Placemark id="14231">
            <name>25</name>
            <Point id="14230">
                <coordinates>80.10356406053302,12.923628237044653,0.0</coordinates>
            </Point>
        </Placemark>
        <Placemark id="14233">
            <name>26</name>
            <Point id="14232">
                <coordinates>80.12199421119851,12.923627586754895,0.0</coordinates>
            </Point>
        </Placemark>
        <Placemark id="14235">
            <name>27</name>
            <Point id="14234">
                <coordinates>80.12362321140327,12.922029670040352,0.0</coordinates>
            </Point>
        </Placemark>
    </Document>
</kml>
