<?xml version="1.0" encoding="UTF-8"?>
<kml xmlns="http://www.opengis.net/kml/2.2" xmlns:gx="http://www.google.com/kml/ext/2.2">
    <Document id="259">
        <Style id="262">
            <LineStyle id="263">
                <color>ffff0000</color>
                <colorMode>normal</colorMode>
                <width>2</width>
            </LineStyle>
        </Style>
        <Placemark id="261">
            <styleUrl>#262</styleUrl>
            <LineString id="260">
                <altitudeMode>clampToGround</altitudeMode>
                <coordinates>79.84575864382103,12.840683215266212,0.0 79.85497068810825,12.840683053771711,0.0 79.85497068810825,12.840683053771711,0.0 79.85621526794375,12.840301765571004,0.0 79.85621526794375,12.840301765571004,0.0 79.85743190762929,12.839821816936325,0.0 79.85743190762929,12.839821816936325,0.0 79.85870020666253,12.840030979375218,0.0 79.85870020666253,12.840030979375218,0.0 79.85945318927469,12.841019759780057,0.0 79.85945318927469,12.841019759780057,0.0 79.85926223795495,12.842225318333547,0.0 79.85926223795495,12.842225318333547,0.0 79.85828259734949,12.843044222788507,0.0 79.85828259734949,12.843044222788507,0.0 79.85719523037105,12.843752916018767,0.0 79.85719523037105,12.843752916018767,0.0 79.85610786339261,12.844461609249027,0.0 79.85610786339261,12.844461609249027,0.0 79.8549926152096,12.845188474100576,0.0 79.8549926152096,12.845188474100576,0.0 79.85497085272203,12.845202657837909,0.0 79.85497085272203,12.845202657837909,0.0 79.84575864382103,12.845202819391133,0.0 79.84575864382103,12.845202819391133,0.0 79.84464955045132,12.844492929256843,0.0 79.84464955045132,12.844492929256843,0.0 79.8434223123222,12.843957477122512,0.0 79.8434223123222,12.843957477122512,0.0 79.8421205687633,12.844156923213191,0.0 79.8421205687633,12.844156923213191,0.0 79.84135767496488,12.845175409731274,0.0 79.84135767496488,12.845175409731274,0.0 79.84158925128926,12.846404669579348,0.0 79.84158925128926,12.846404669579348,0.0 79.84257950283693,12.847270331137787,0.0 79.84257950283693,12.847270331137787,0.0 79.84362922073376,12.848079984952253,0.0 79.84362922073376,12.848079984952253,0.0 79.8446789386306,12.848889638766721,0.0 79.8446789386306,12.848889638766721,0.0 79.84575489947484,12.84971953392655,0.0 79.84575489947484,12.84971953392655,0.0 79.84575864382103,12.84972242196359,0.0 79.84575864382103,12.84972242196359,0.0 79.85497101739867,12.849722260351642,0.0 79.85497101739867,12.849722260351642,0.0 79.85713521064899,12.848949353982912,0.0</coordinates>
            </LineString>
        </Placemark>
        <Placemark id="265">
            <name>0__coordinates</name>
            <Point id="264">
                <coordinates>79.84575864382103,12.840683215266212,0.0</coordinates>
            </Point>
        </Placemark>
        <Placemark id="267">
            <name>1__coordinates</name>
            <Point id="266">
                <coordinates>79.85497068810825,12.840683053771711,0.0</coordinates>
            </Point>
        </Placemark>
        <Placemark id="269">
            <name>2__coordinates</name>
            <Point id="268">
                <coordinates>79.85621526794375,12.840301765571004,0.0</coordinates>
            </Point>
        </Placemark>
        <Placemark id="271">
            <name>3__coordinates</name>
            <Point id="270">
                <coordinates>79.85743190762929,12.839821816936325,0.0</coordinates>
            </Point>
        </Placemark>
        <Placemark id="273">
            <name>4__coordinates</name>
            <Point id="272">
                <coordinates>79.85870020666253,12.840030979375218,0.0</coordinates>
            </Point>
        </Placemark>
        <Placemark id="275">
            <name>5__coordinates</name>
            <Point id="274">
                <coordinates>79.85945318927469,12.841019759780057,0.0</coordinates>
            </Point>
        </Placemark>
        <Placemark id="277">
            <name>6__coordinates</name>
            <Point id="276">
                <coordinates>79.85926223795495,12.842225318333547,0.0</coordinates>
            </Point>
        </Placemark>
        <Placemark id="279">
            <name>7__coordinates</name>
            <Point id="278">
                <coordinates>79.85828259734949,12.843044222788507,0.0</coordinates>
            </Point>
        </Placemark>
        <Placemark id="281">
            <name>8__coordinates</name>
            <Point id="280">
                <coordinates>79.85719523037105,12.843752916018767,0.0</coordinates>
            </Point>
        </Placemark>
        <Placemark id="283">
            <name>9__coordinates</name>
            <Point id="282">
                <coordinates>79.85610786339261,12.844461609249027,0.0</coordinates>
            </Point>
        </Placemark>
        <Placemark id="285">
            <name>10__coordinates</name>
            <Point id="284">
                <coordinates>79.8549926152096,12.845188474100576,0.0</coordinates>
            </Point>
        </Placemark>
        <Placemark id="287">
            <name>11__coordinates</name>
            <Point id="286">
                <coordinates>79.85497085272203,12.845202657837909,0.0</coordinates>
            </Point>
        </Placemark>
        <Placemark id="289">
            <name>12__coordinates</name>
            <Point id="288">
                <coordinates>79.84575864382103,12.845202819391133,0.0</coordinates>
            </Point>
        </Placemark>
        <Placemark id="291">
            <name>13__coordinates</name>
            <Point id="290">
                <coordinates>79.84464955045132,12.844492929256843,0.0</coordinates>
            </Point>
        </Placemark>
        <Placemark id="293">
            <name>14__coordinates</name>
            <Point id="292">
                <coordinates>79.8434223123222,12.843957477122512,0.0</coordinates>
            </Point>
        </Placemark>
        <Placemark id="295">
            <name>15__coordinates</name>
            <Point id="294">
                <coordinates>79.8421205687633,12.844156923213191,0.0</coordinates>
            </Point>
        </Placemark>
        <Placemark id="297">
            <name>16__coordinates</name>
            <Point id="296">
                <coordinates>79.84135767496488,12.845175409731274,0.0</coordinates>
            </Point>
        </Placemark>
        <Placemark id="299">
            <name>17__coordinates</name>
            <Point id="298">
                <coordinates>79.84158925128926,12.846404669579348,0.0</coordinates>
            </Point>
        </Placemark>
        <Placemark id="301">
            <name>18__coordinates</name>
            <Point id="300">
                <coordinates>79.84257950283693,12.847270331137787,0.0</coordinates>
            </Point>
        </Placemark>
        <Placemark id="303">
            <name>19__coordinates</name>
            <Point id="302">
                <coordinates>79.84362922073376,12.848079984952253,0.0</coordinates>
            </Point>
        </Placemark>
        <Placemark id="305">
            <name>20__coordinates</name>
            <Point id="304">
                <coordinates>79.8446789386306,12.848889638766721,0.0</coordinates>
            </Point>
        </Placemark>
        <Placemark id="307">
            <name>21__coordinates</name>
            <Point id="306">
                <coordinates>79.84575489947484,12.84971953392655,0.0</coordinates>
            </Point>
        </Placemark>
        <Placemark id="309">
            <name>22__coordinates</name>
            <Point id="308">
                <coordinates>79.84575864382103,12.84972242196359,0.0</coordinates>
            </Point>
        </Placemark>
        <Placemark id="311">
            <name>23__coordinates</name>
            <Point id="310">
                <coordinates>79.85497101739867,12.849722260351642,0.0</coordinates>
            </Point>
        </Placemark>
    </Document>
</kml>
