<?xml version="1.0" encoding="UTF-8"?>
<kml xmlns="http://www.opengis.net/kml/2.2" xmlns:gx="http://www.google.com/kml/ext/2.2">
    <Document id="1">
        <Style id="4">
            <LineStyle id="5">
                <color>ff000000</color>
                <colorMode>normal</colorMode>
                <width>2</width>
            </LineStyle>
        </Style>
        <Placemark id="3">
            <styleUrl>#4</styleUrl>
            <LineString id="2">
                <altitudeMode>clampToGround</altitudeMode>
                <coordinates>80.09717884360535,12.928098944560293,0.0 80.11100170257775,12.928098578641537,0.0 80.11316656901172,12.927325676834965,0.0 80.11100180206454,12.92990640837923,0.0 80.09717884360535,12.92990677435087,0.0 80.09518368038178,12.928776873136885,0.0 80.09717884360535,12.931714603891526,0.0 80.11100190156642,12.93171423786701,0.0 80.11316679916307,12.930941336271534,0.0</coordinates>
            </LineString>
        </Placemark>
        <Placemark id="7">
            <name>1</name>
            <Point id="6">
                <coordinates>80.09717884360535,12.928098944560293,0.0</coordinates>
            </Point>
        </Placemark>
        <Placemark id="9">
            <name>2</name>
            <Point id="8">
                <coordinates>80.11100170257775,12.928098578641537,0.0</coordinates>
            </Point>
        </Placemark>
        <Placemark id="11">
            <name>3</name>
            <Point id="10">
                <coordinates>80.11316656901172,12.927325676834965,0.0</coordinates>
            </Point>
        </Placemark>
        <Placemark id="13">
            <name>4</name>
            <Point id="12">
                <coordinates>80.11100180206454,12.92990640837923,0.0</coordinates>
            </Point>
        </Placemark>
        <Placemark id="15">
            <name>5</name>
            <Point id="14">
                <coordinates>80.09717884360535,12.92990677435087,0.0</coordinates>
            </Point>
        </Placemark>
        <Placemark id="17">
            <name>6</name>
            <Point id="16">
                <coordinates>80.09518368038178,12.928776873136885,0.0</coordinates>
            </Point>
        </Placemark>
        <Placemark id="19">
            <name>7</name>
            <Point id="18">
                <coordinates>80.09717884360535,12.931714603891526,0.0</coordinates>
            </Point>
        </Placemark>
        <Placemark id="21">
            <name>8</name>
            <Point id="20">
                <coordinates>80.11100190156642,12.93171423786701,0.0</coordinates>
            </Point>
        </Placemark>
        <Placemark id="23">
            <name>9</name>
            <Point id="22">
                <coordinates>80.11316679916307,12.930941336271534,0.0</coordinates>
            </Point>
        </Placemark>
    </Document>
</kml>
