<?xml version="1.0" encoding="UTF-8"?>
<kml xmlns="http://www.opengis.net/kml/2.2" xmlns:gx="http://www.google.com/kml/ext/2.2">
    <Document id="727">
        <Style id="730">
            <LineStyle id="731">
                <color>ffff0000</color>
                <colorMode>normal</colorMode>
                <width>2</width>
            </LineStyle>
        </Style>
        <Placemark id="729">
            <styleUrl>#730</styleUrl>
            <LineString id="728">
                <altitudeMode>clampToGround</altitudeMode>
                <coordinates>80.10858906153528,13.23125880878805,0.0 80.13626856928968,13.231257309600386,0.0 80.13626856928968,13.231257309600386,0.0 80.13748558788092,13.230888868290622,0.0 80.13748558788092,13.230888868290622,0.0 80.13867022435247,13.230409832765842,0.0 80.13867022435247,13.230409832765842,0.0 80.1399204955453,13.230554438829722,0.0 80.1399204955453,13.230554438829722,0.0 80.14072721225531,13.231467461943332,0.0 80.14072721225531,13.231467461943332,0.0 80.14065330414817,13.232654236119775,0.0 80.14065330414817,13.232654236119775,0.0 80.13973881383203,13.233471780025429,0.0 80.13973881383203,13.233471780025429,0.0 80.13847920220813,13.233477157269206,0.0 80.13847920220813,13.233477157269206,0.0 80.13738032507628,13.232843039910895,0.0 80.13738032507628,13.232843039910895,0.0 80.13627027399234,13.23216218624876,0.0 80.13627027399234,13.23216218624876,0.0 80.13626867131327,13.232161203240025,0.0 80.13626867131327,13.232161203240025,0.0 80.10858906153528,13.232162702533703,0.0 80.10858906153528,13.232162702533703,0.0 80.10756801754933,13.231495738443174,0.0 80.10756801754933,13.231495738443174,0.0 80.10644144907249,13.230972371978199,0.0 80.10644144907249,13.230972371978199,0.0 80.10518209023839,13.230996787388191,0.0 80.10518209023839,13.230996787388191,0.0 80.10429572547663,13.231798921306776,0.0 80.10429572547663,13.231798921306776,0.0 80.10421701363784,13.2329854203177,0.0 80.10421701363784,13.2329854203177,0.0 80.10499044538784,13.23388563395928,0.0 80.10499044538784,13.23388563395928,0.0 80.10623674238666,13.234058112115683,0.0 80.10623674238666,13.234058112115683,0.0 80.10738902948427,13.23359092086966,0.0 80.10738902948427,13.23359092086966,0.0 80.10855960165736,13.233079467988642,0.0 80.10855960165736,13.233079467988642,0.0 80.10858906153528,13.23306659621552,0.0 80.10858906153528,13.23306659621552,0.0 80.13626877334445,13.233065096815837,0.0 80.13626877334445,13.233065096815837,0.0 80.1384363015859,13.232292213008924,0.0</coordinates>
            </LineString>
        </Placemark>
        <Placemark id="733">
            <name>0</name>
            <Point id="732">
                <coordinates>80.10858906153528,13.23125880878805,0.0</coordinates>
            </Point>
        </Placemark>
        <Placemark id="735">
            <name>1</name>
            <Point id="734">
                <coordinates>80.13626856928968,13.231257309600386,0.0</coordinates>
            </Point>
        </Placemark>
        <Placemark id="737">
            <name>2</name>
            <Point id="736">
                <coordinates>80.13748558788092,13.230888868290622,0.0</coordinates>
            </Point>
        </Placemark>
        <Placemark id="739">
            <name>3</name>
            <Point id="738">
                <coordinates>80.13867022435247,13.230409832765842,0.0</coordinates>
            </Point>
        </Placemark>
        <Placemark id="741">
            <name>4</name>
            <Point id="740">
                <coordinates>80.1399204955453,13.230554438829722,0.0</coordinates>
            </Point>
        </Placemark>
        <Placemark id="743">
            <name>5</name>
            <Point id="742">
                <coordinates>80.14072721225531,13.231467461943332,0.0</coordinates>
            </Point>
        </Placemark>
        <Placemark id="745">
            <name>6</name>
            <Point id="744">
                <coordinates>80.14065330414817,13.232654236119775,0.0</coordinates>
            </Point>
        </Placemark>
        <Placemark id="747">
            <name>7</name>
            <Point id="746">
                <coordinates>80.13973881383203,13.233471780025429,0.0</coordinates>
            </Point>
        </Placemark>
        <Placemark id="749">
            <name>8</name>
            <Point id="748">
                <coordinates>80.13847920220813,13.233477157269206,0.0</coordinates>
            </Point>
        </Placemark>
        <Placemark id="751">
            <name>9</name>
            <Point id="750">
                <coordinates>80.13738032507628,13.232843039910895,0.0</coordinates>
            </Point>
        </Placemark>
        <Placemark id="753">
            <name>10</name>
            <Point id="752">
                <coordinates>80.13627027399234,13.23216218624876,0.0</coordinates>
            </Point>
        </Placemark>
        <Placemark id="755">
            <name>11</name>
            <Point id="754">
                <coordinates>80.13626867131327,13.232161203240025,0.0</coordinates>
            </Point>
        </Placemark>
        <Placemark id="757">
            <name>12</name>
            <Point id="756">
                <coordinates>80.10858906153528,13.232162702533703,0.0</coordinates>
            </Point>
        </Placemark>
        <Placemark id="759">
            <name>13</name>
            <Point id="758">
                <coordinates>80.10756801754933,13.231495738443174,0.0</coordinates>
            </Point>
        </Placemark>
        <Placemark id="761">
            <name>14</name>
            <Point id="760">
                <coordinates>80.10644144907249,13.230972371978199,0.0</coordinates>
            </Point>
        </Placemark>
        <Placemark id="763">
            <name>15</name>
            <Point id="762">
                <coordinates>80.10518209023839,13.230996787388191,0.0</coordinates>
            </Point>
        </Placemark>
        <Placemark id="765">
            <name>16</name>
            <Point id="764">
                <coordinates>80.10429572547663,13.231798921306776,0.0</coordinates>
            </Point>
        </Placemark>
        <Placemark id="767">
            <name>17</name>
            <Point id="766">
                <coordinates>80.10421701363784,13.2329854203177,0.0</coordinates>
            </Point>
        </Placemark>
        <Placemark id="769">
            <name>18</name>
            <Point id="768">
                <coordinates>80.10499044538784,13.23388563395928,0.0</coordinates>
            </Point>
        </Placemark>
        <Placemark id="771">
            <name>19</name>
            <Point id="770">
                <coordinates>80.10623674238666,13.234058112115683,0.0</coordinates>
            </Point>
        </Placemark>
        <Placemark id="773">
            <name>20</name>
            <Point id="772">
                <coordinates>80.10738902948427,13.23359092086966,0.0</coordinates>
            </Point>
        </Placemark>
        <Placemark id="775">
            <name>21</name>
            <Point id="774">
                <coordinates>80.10855960165736,13.233079467988642,0.0</coordinates>
            </Point>
        </Placemark>
        <Placemark id="777">
            <name>22</name>
            <Point id="776">
                <coordinates>80.10858906153528,13.23306659621552,0.0</coordinates>
            </Point>
        </Placemark>
        <Placemark id="779">
            <name>23</name>
            <Point id="778">
                <coordinates>80.13626877334445,13.233065096815837,0.0</coordinates>
            </Point>
        </Placemark>
    </Document>
</kml>
