<?xml version="1.0" encoding="UTF-8"?>
<kml xmlns="http://www.opengis.net/kml/2.2" xmlns:gx="http://www.google.com/kml/ext/2.2">
    <Document id="127">
        <Style id="130">
            <LineStyle id="131">
                <color>ffff0000</color>
                <colorMode>normal</colorMode>
                <width>2</width>
            </LineStyle>
        </Style>
        <Placemark id="129">
            <styleUrl>#130</styleUrl>
            <LineString id="128">
                <altitudeMode>clampToGround</altitudeMode>
                <coordinates>80.09717884360535,12.93231721368287,0.0 80.11100193473709,12.932316847640722,0.0 80.11100193473709,12.932316847640722,0.0 80.11215505712315,12.931974849367181,0.0 80.11215505712315,12.931974849367181,0.0 80.1133019989165,12.931496829596092,0.0 80.1133019989165,12.931496829596092,0.0 80.11452605101664,12.931558189253893,0.0 80.11452605101664,12.931558189253893,0.0 80.11539149842912,12.932379144625074,0.0 80.11539149842912,12.932379144625074,0.0 80.11545270004831,12.933536964699025,0.0 80.11545270004831,12.933536964699025,0.0 80.11467814158821,12.934435458175773,0.0 80.11467814158821,12.934435458175773,0.0 80.11346666309802,12.934611967682235,0.0 80.11346666309802,12.934611967682235,0.0 80.11223949223135,12.93436933918958,0.0 80.11223949223135,12.93436933918958,0.0 80.11101232136468,12.934126710696926,0.0 80.11101232136468,12.934126710696926,0.0 80.11100203425913,12.934124676795225,0.0 80.11100203425913,12.934124676795225,0.0 80.09717884360535,12.934125042890253,0.0 80.09717884360535,12.934125042890253,0.0 80.09618983211925,12.933472483240863,0.0 80.09618983211925,12.933472483240863,0.0 80.0950663835213,12.932946618407298,0.0 80.0950663835213,12.932946618407298,0.0 80.09384065965835,12.932936523561233,0.0 80.09384065965835,12.932936523561233,0.0 80.09292336467503,12.93370548031077,0.0 80.09292336467503,12.93370548031077,0.0 80.09277860405352,12.934826448048797,0.0 80.09277860405352,12.934826448048797,0.0 80.09347325018868,12.935781593980685,0.0 80.09347325018868,12.935781593980685,0.0 80.09466595030909,12.93605605083274,0.0 80.09466595030909,12.93605605083274,0.0 80.09591797020838,12.935994678334058,0.0 80.09591797020838,12.935994678334058,0.0 80.09716999010764,12.935933305835377,0.0 80.09716999010764,12.935933305835377,0.0 80.09717884360535,12.935932871847646,0.0 80.09717884360535,12.935932871847646,0.0 80.11100213379626,12.935932505699734,0.0 80.11100213379626,12.935932505699734,0.0 80.11316706776131,12.935159604350599,0.0</coordinates>
            </LineString>
        </Placemark>
        <Placemark id="133">
            <name>0</name>
            <Point id="132">
                <coordinates>80.09717884360535,12.93231721368287,0.0</coordinates>
            </Point>
        </Placemark>
        <Placemark id="135">
            <name>1</name>
            <Point id="134">
                <coordinates>80.11100193473709,12.932316847640722,0.0</coordinates>
            </Point>
        </Placemark>
        <Placemark id="137">
            <name>2</name>
            <Point id="136">
                <coordinates>80.11215505712315,12.931974849367181,0.0</coordinates>
            </Point>
        </Placemark>
        <Placemark id="139">
            <name>3</name>
            <Point id="138">
                <coordinates>80.1133019989165,12.931496829596092,0.0</coordinates>
            </Point>
        </Placemark>
        <Placemark id="141">
            <name>4</name>
            <Point id="140">
                <coordinates>80.11452605101664,12.931558189253893,0.0</coordinates>
            </Point>
        </Placemark>
        <Placemark id="143">
            <name>5</name>
            <Point id="142">
                <coordinates>80.11539149842912,12.932379144625074,0.0</coordinates>
            </Point>
        </Placemark>
        <Placemark id="145">
            <name>6</name>
            <Point id="144">
                <coordinates>80.11545270004831,12.933536964699025,0.0</coordinates>
            </Point>
        </Placemark>
        <Placemark id="147">
            <name>7</name>
            <Point id="146">
                <coordinates>80.11467814158821,12.934435458175773,0.0</coordinates>
            </Point>
        </Placemark>
        <Placemark id="149">
            <name>8</name>
            <Point id="148">
                <coordinates>80.11346666309802,12.934611967682235,0.0</coordinates>
            </Point>
        </Placemark>
        <Placemark id="151">
            <name>9</name>
            <Point id="150">
                <coordinates>80.11223949223135,12.93436933918958,0.0</coordinates>
            </Point>
        </Placemark>
        <Placemark id="153">
            <name>10</name>
            <Point id="152">
                <coordinates>80.11101232136468,12.934126710696926,0.0</coordinates>
            </Point>
        </Placemark>
        <Placemark id="155">
            <name>11</name>
            <Point id="154">
                <coordinates>80.11100203425913,12.934124676795225,0.0</coordinates>
            </Point>
        </Placemark>
        <Placemark id="157">
            <name>12</name>
            <Point id="156">
                <coordinates>80.09717884360535,12.934125042890253,0.0</coordinates>
            </Point>
        </Placemark>
        <Placemark id="159">
            <name>13</name>
            <Point id="158">
                <coordinates>80.09618983211925,12.933472483240863,0.0</coordinates>
            </Point>
        </Placemark>
        <Placemark id="161">
            <name>14</name>
            <Point id="160">
                <coordinates>80.0950663835213,12.932946618407298,0.0</coordinates>
            </Point>
        </Placemark>
        <Placemark id="163">
            <name>15</name>
            <Point id="162">
                <coordinates>80.09384065965835,12.932936523561233,0.0</coordinates>
            </Point>
        </Placemark>
        <Placemark id="165">
            <name>16</name>
            <Point id="164">
                <coordinates>80.09292336467503,12.93370548031077,0.0</coordinates>
            </Point>
        </Placemark>
        <Placemark id="167">
            <name>17</name>
            <Point id="166">
                <coordinates>80.09277860405352,12.934826448048797,0.0</coordinates>
            </Point>
        </Placemark>
        <Placemark id="169">
            <name>18</name>
            <Point id="168">
                <coordinates>80.09347325018868,12.935781593980685,0.0</coordinates>
            </Point>
        </Placemark>
        <Placemark id="171">
            <name>19</name>
            <Point id="170">
                <coordinates>80.09466595030909,12.93605605083274,0.0</coordinates>
            </Point>
        </Placemark>
        <Placemark id="173">
            <name>20</name>
            <Point id="172">
                <coordinates>80.09591797020838,12.935994678334058,0.0</coordinates>
            </Point>
        </Placemark>
        <Placemark id="175">
            <name>21</name>
            <Point id="174">
                <coordinates>80.09716999010764,12.935933305835377,0.0</coordinates>
            </Point>
        </Placemark>
        <Placemark id="177">
            <name>22</name>
            <Point id="176">
                <coordinates>80.09717884360535,12.935932871847646,0.0</coordinates>
            </Point>
        </Placemark>
        <Placemark id="179">
            <name>23</name>
            <Point id="178">
                <coordinates>80.11100213379626,12.935932505699734,0.0</coordinates>
            </Point>
        </Placemark>
    </Document>
</kml>
