<?xml version="1.0" encoding="UTF-8"?>
<kml xmlns="http://www.opengis.net/kml/2.2" xmlns:gx="http://www.google.com/kml/ext/2.2">
    <Document id="257">
        <Style id="260">
            <LineStyle id="261">
                <color>ff000000</color>
                <colorMode>normal</colorMode>
                <width>2</width>
            </LineStyle>
        </Style>
        <Placemark id="259">
            <styleUrl>#260</styleUrl>
            <LineString id="258">
                <altitudeMode>clampToGround</altitudeMode>
                <coordinates>79.91957804384613,12.920346507982728,0.0 79.93340047636516,12.920346142290729,0.0 79.93556527601429,12.919573240031736,0.0</coordinates>
            </LineString>
        </Placemark>
        <Placemark id="263">
            <name>1</name>
            <Point id="262">
                <coordinates>79.91957804384613,12.920346507982728,0.0</coordinates>
            </Point>
        </Placemark>
        <Placemark id="265">
            <name>2</name>
            <Point id="264">
                <coordinates>79.93340047636516,12.920346142290729,0.0</coordinates>
            </Point>
        </Placemark>
        <Placemark id="267">
            <name>3</name>
            <Point id="266">
                <coordinates>79.93556527601429,12.919573240031736,0.0</coordinates>
            </Point>
        </Placemark>
    </Document>
</kml>
