<?xml version="1.0" encoding="UTF-8"?>
<kml xmlns="http://www.opengis.net/kml/2.2" xmlns:gx="http://www.google.com/kml/ext/2.2">
    <Document id="73">
        <Style id="76">
            <LineStyle id="77">
                <color>ff000000</color>
                <colorMode>normal</colorMode>
                <width>2</width>
            </LineStyle>
        </Style>
        <Placemark id="75">
            <styleUrl>#76</styleUrl>
            <LineString id="74">
                <altitudeMode>clampToGround</altitudeMode>
                <coordinates>80.10858906153528,13.217429226522725,0.0 80.13626700927615,13.21742772895692,0.0 80.13843439938623,13.216654844217478,0.0 80.13626711118351,13.218331623572725,0.0 80.10858906153528,13.218333121244529,0.0 80.10659157954353,13.217203245032188,0.0 80.10858906153528,13.219237015902563,0.0 80.13626721309846,13.219235518124764,0.0 80.1384346191684,13.21846263349308,0.0</coordinates>
            </LineString>
        </Placemark>
        <Placemark id="79">
            <name>1</name>
            <Point id="78">
                <coordinates>80.10858906153528,13.217429226522725,0.0</coordinates>
            </Point>
        </Placemark>
        <Placemark id="81">
            <name>2</name>
            <Point id="80">
                <coordinates>80.13626700927615,13.21742772895692,0.0</coordinates>
            </Point>
        </Placemark>
        <Placemark id="83">
            <name>3</name>
            <Point id="82">
                <coordinates>80.13843439938623,13.216654844217478,0.0</coordinates>
            </Point>
        </Placemark>
        <Placemark id="85">
            <name>4</name>
            <Point id="84">
                <coordinates>80.13626711118351,13.218331623572725,0.0</coordinates>
            </Point>
        </Placemark>
        <Placemark id="87">
            <name>5</name>
            <Point id="86">
                <coordinates>80.10858906153528,13.218333121244529,0.0</coordinates>
            </Point>
        </Placemark>
        <Placemark id="89">
            <name>6</name>
            <Point id="88">
                <coordinates>80.10659157954353,13.217203245032188,0.0</coordinates>
            </Point>
        </Placemark>
        <Placemark id="91">
            <name>7</name>
            <Point id="90">
                <coordinates>80.10858906153528,13.219237015902563,0.0</coordinates>
            </Point>
        </Placemark>
        <Placemark id="93">
            <name>8</name>
            <Point id="92">
                <coordinates>80.13626721309846,13.219235518124764,0.0</coordinates>
            </Point>
        </Placemark>
        <Placemark id="95">
            <name>9</name>
            <Point id="94">
                <coordinates>80.1384346191684,13.21846263349308,0.0</coordinates>
            </Point>
        </Placemark>
    </Document>
</kml>
