<?xml version="1.0" encoding="UTF-8"?>
<kml xmlns="http://www.opengis.net/kml/2.2" xmlns:gx="http://www.google.com/kml/ext/2.2">
    <Document id="403">
        <Style id="406">
            <LineStyle id="407">
                <color>ffff0000</color>
                <colorMode>normal</colorMode>
                <width>2</width>
            </LineStyle>
        </Style>
        <Placemark id="405">
            <styleUrl>#406</styleUrl>
            <LineString id="404">
                <altitudeMode>clampToGround</altitudeMode>
                <coordinates>80.10858906153528,13.217429226522725,0.0 80.13626700927615,13.21742772895692,0.0 80.13626700927615,13.21742772895692,0.0 80.137484020398,13.217059272011731,0.0 80.137484020398,13.217059272011731,0.0 80.1386686408852,13.216580201278608,0.0 80.1386686408852,13.216580201278608,0.0 80.13991891690242,13.216724770183108,0.0 80.13991891690242,13.216724770183108,0.0 80.1407256640765,13.217637769319836,0.0 80.1407256640765,13.217637769319836,0.0 80.14065179556799,13.218824545692312,0.0 80.14065179556799,13.218824545692312,0.0 80.13973733253094,13.219642116777129,0.0 80.13973733253094,13.219642116777129,0.0 80.1384777210871,13.219647531457822,0.0 80.1384777210871,13.219647531457822,0.0 80.13737882239883,13.219013447338497,0.0 80.13737882239883,13.219013447338497,0.0 80.13626874804245,13.218332627474915,0.0 80.13626874804245,13.218332627474915,0.0 80.13626711118351,13.218331623572725,0.0 80.13626711118351,13.218331623572725,0.0 80.10858906153528,13.218333121244529,0.0 80.10858906153528,13.218333121244529,0.0 80.1075680245796,13.217666143943974,0.0 80.1075680245796,13.217666143943974,0.0 80.10644147438016,13.217142742436117,0.0 80.10644147438016,13.217142742436117,0.0 80.10518211469412,13.217167118672336,0.0 80.10518211469412,13.217167118672336,0.0 80.10429572192106,13.217969225019122,0.0 80.10429572192106,13.217969225019122,0.0 80.10421696864786,13.219155721580984,0.0 80.10421696864786,13.219155721580984,0.0 80.10499036896056,13.220055959280531,0.0 80.10499036896056,13.220055959280531,0.0 80.10623665993549,13.220228476204296,0.0 80.10623665993549,13.220228476204296,0.0 80.10738896389672,13.219761321921416,0.0 80.10738896389672,13.219761321921416,0.0 80.10855955470288,13.219249907028525,0.0 80.10855955470288,13.219249907028525,0.0 80.10858906153528,13.219237015902563,0.0 80.10858906153528,13.219237015902563,0.0 80.13626721309846,13.219235518124764,0.0 80.13626721309846,13.219235518124764,0.0 80.1384346191684,13.21846263349308,0.0</coordinates>
            </LineString>
        </Placemark>
        <Placemark id="409">
            <name>0</name>
            <Point id="408">
                <coordinates>80.10858906153528,13.217429226522725,0.0</coordinates>
            </Point>
        </Placemark>
        <Placemark id="411">
            <name>1</name>
            <Point id="410">
                <coordinates>80.13626700927615,13.21742772895692,0.0</coordinates>
            </Point>
        </Placemark>
        <Placemark id="413">
            <name>2</name>
            <Point id="412">
                <coordinates>80.137484020398,13.217059272011731,0.0</coordinates>
            </Point>
        </Placemark>
        <Placemark id="415">
            <name>3</name>
            <Point id="414">
                <coordinates>80.1386686408852,13.216580201278608,0.0</coordinates>
            </Point>
        </Placemark>
        <Placemark id="417">
            <name>4</name>
            <Point id="416">
                <coordinates>80.13991891690242,13.216724770183108,0.0</coordinates>
            </Point>
        </Placemark>
        <Placemark id="419">
            <name>5</name>
            <Point id="418">
                <coordinates>80.1407256640765,13.217637769319836,0.0</coordinates>
            </Point>
        </Placemark>
        <Placemark id="421">
            <name>6</name>
            <Point id="420">
                <coordinates>80.14065179556799,13.218824545692312,0.0</coordinates>
            </Point>
        </Placemark>
        <Placemark id="423">
            <name>7</name>
            <Point id="422">
                <coordinates>80.13973733253094,13.219642116777129,0.0</coordinates>
            </Point>
        </Placemark>
        <Placemark id="425">
            <name>8</name>
            <Point id="424">
                <coordinates>80.1384777210871,13.219647531457822,0.0</coordinates>
            </Point>
        </Placemark>
        <Placemark id="427">
            <name>9</name>
            <Point id="426">
                <coordinates>80.13737882239883,13.219013447338497,0.0</coordinates>
            </Point>
        </Placemark>
        <Placemark id="429">
            <name>10</name>
            <Point id="428">
                <coordinates>80.13626874804245,13.218332627474915,0.0</coordinates>
            </Point>
        </Placemark>
        <Placemark id="431">
            <name>11</name>
            <Point id="430">
                <coordinates>80.13626711118351,13.218331623572725,0.0</coordinates>
            </Point>
        </Placemark>
        <Placemark id="433">
            <name>12</name>
            <Point id="432">
                <coordinates>80.10858906153528,13.218333121244529,0.0</coordinates>
            </Point>
        </Placemark>
        <Placemark id="435">
            <name>13</name>
            <Point id="434">
                <coordinates>80.1075680245796,13.217666143943974,0.0</coordinates>
            </Point>
        </Placemark>
        <Placemark id="437">
            <name>14</name>
            <Point id="436">
                <coordinates>80.10644147438016,13.217142742436117,0.0</coordinates>
            </Point>
        </Placemark>
        <Placemark id="439">
            <name>15</name>
            <Point id="438">
                <coordinates>80.10518211469412,13.217167118672336,0.0</coordinates>
            </Point>
        </Placemark>
        <Placemark id="441">
            <name>16</name>
            <Point id="440">
                <coordinates>80.10429572192106,13.217969225019122,0.0</coordinates>
            </Point>
        </Placemark>
        <Placemark id="443">
            <name>17</name>
            <Point id="442">
                <coordinates>80.10421696864786,13.219155721580984,0.0</coordinates>
            </Point>
        </Placemark>
        <Placemark id="445">
            <name>18</name>
            <Point id="444">
                <coordinates>80.10499036896056,13.220055959280531,0.0</coordinates>
            </Point>
        </Placemark>
        <Placemark id="447">
            <name>19</name>
            <Point id="446">
                <coordinates>80.10623665993549,13.220228476204296,0.0</coordinates>
            </Point>
        </Placemark>
        <Placemark id="449">
            <name>20</name>
            <Point id="448">
                <coordinates>80.10738896389672,13.219761321921416,0.0</coordinates>
            </Point>
        </Placemark>
        <Placemark id="451">
            <name>21</name>
            <Point id="450">
                <coordinates>80.10855955470288,13.219249907028525,0.0</coordinates>
            </Point>
        </Placemark>
        <Placemark id="453">
            <name>22</name>
            <Point id="452">
                <coordinates>80.10858906153528,13.219237015902563,0.0</coordinates>
            </Point>
        </Placemark>
        <Placemark id="455">
            <name>23</name>
            <Point id="454">
                <coordinates>80.13626721309846,13.219235518124764,0.0</coordinates>
            </Point>
        </Placemark>
    </Document>
</kml>
