<?xml version="1.0" encoding="UTF-8"?>
<kml xmlns="http://www.opengis.net/kml/2.2" xmlns:gx="http://www.google.com/kml/ext/2.2">
    <Document id="121">
        <Style id="124">
            <LineStyle id="125">
                <color>ff000000</color>
                <colorMode>normal</colorMode>
                <width>2</width>
            </LineStyle>
        </Style>
        <Placemark id="123">
            <styleUrl>#124</styleUrl>
            <LineString id="122">
                <altitudeMode>clampToGround</altitudeMode>
                <coordinates>80.10858906153528,13.222039088937153,0.0 80.13626752908309,13.22203759083075,0.0 80.13843495989546,13.221264706366112,0.0 80.13626763102918,13.22294148512127,0.0 80.10858906153528,13.222942983333677,0.0 80.10659154203039,13.221813107525117,0.0 80.10858906153528,13.22384687766641,0.0 80.13626773298287,13.223845379348,0.0 80.13843517976116,13.223072494991147,0.0</coordinates>
            </LineString>
        </Placemark>
        <Placemark id="127">
            <name>1</name>
            <Point id="126">
                <coordinates>80.10858906153528,13.222039088937153,0.0</coordinates>
            </Point>
        </Placemark>
        <Placemark id="129">
            <name>2</name>
            <Point id="128">
                <coordinates>80.13626752908309,13.22203759083075,0.0</coordinates>
            </Point>
        </Placemark>
        <Placemark id="131">
            <name>3</name>
            <Point id="130">
                <coordinates>80.13843495989546,13.221264706366112,0.0</coordinates>
            </Point>
        </Placemark>
        <Placemark id="133">
            <name>4</name>
            <Point id="132">
                <coordinates>80.13626763102918,13.22294148512127,0.0</coordinates>
            </Point>
        </Placemark>
        <Placemark id="135">
            <name>5</name>
            <Point id="134">
                <coordinates>80.10858906153528,13.222942983333677,0.0</coordinates>
            </Point>
        </Placemark>
        <Placemark id="137">
            <name>6</name>
            <Point id="136">
                <coordinates>80.10659154203039,13.221813107525117,0.0</coordinates>
            </Point>
        </Placemark>
        <Placemark id="139">
            <name>7</name>
            <Point id="138">
                <coordinates>80.10858906153528,13.22384687766641,0.0</coordinates>
            </Point>
        </Placemark>
        <Placemark id="141">
            <name>8</name>
            <Point id="140">
                <coordinates>80.13626773298287,13.223845379348,0.0</coordinates>
            </Point>
        </Placemark>
        <Placemark id="143">
            <name>9</name>
            <Point id="142">
                <coordinates>80.13843517976116,13.223072494991147,0.0</coordinates>
            </Point>
        </Placemark>
    </Document>
</kml>
