<?xml version="1.0" encoding="UTF-8"?>
<kml xmlns="http://www.opengis.net/kml/2.2" xmlns:gx="http://www.google.com/kml/ext/2.2">
    <Document id="97">
        <Style id="100">
            <LineStyle id="101">
                <color>ff000000</color>
                <colorMode>normal</colorMode>
                <width>2</width>
            </LineStyle>
        </Style>
        <Placemark id="99">
            <styleUrl>#100</styleUrl>
            <LineString id="98">
                <altitudeMode>clampToGround</altitudeMode>
                <coordinates>80.10858906153528,13.219734157937292,0.0 80.13626726915493,13.21973266010119,0.0 80.13843467961422,13.218959775499146,0.0 80.13626737108166,13.220636554554371,0.0 80.10858906153528,13.220638052496472,0.0 80.10659156078874,13.219508176486004,0.0 80.10858906153528,13.22154194699187,0.0 80.13626747301598,13.221540448943768,0.0 80.13843489943815,13.220767564449492,0.0</coordinates>
            </LineString>
        </Placemark>
        <Placemark id="103">
            <name>1</name>
            <Point id="102">
                <coordinates>80.10858906153528,13.219734157937292,0.0</coordinates>
            </Point>
        </Placemark>
        <Placemark id="105">
            <name>2</name>
            <Point id="104">
                <coordinates>80.13626726915493,13.21973266010119,0.0</coordinates>
            </Point>
        </Placemark>
        <Placemark id="107">
            <name>3</name>
            <Point id="106">
                <coordinates>80.13843467961422,13.218959775499146,0.0</coordinates>
            </Point>
        </Placemark>
        <Placemark id="109">
            <name>4</name>
            <Point id="108">
                <coordinates>80.13626737108166,13.220636554554371,0.0</coordinates>
            </Point>
        </Placemark>
        <Placemark id="111">
            <name>5</name>
            <Point id="110">
                <coordinates>80.10858906153528,13.220638052496472,0.0</coordinates>
            </Point>
        </Placemark>
        <Placemark id="113">
            <name>6</name>
            <Point id="112">
                <coordinates>80.10659156078874,13.219508176486004,0.0</coordinates>
            </Point>
        </Placemark>
        <Placemark id="115">
            <name>7</name>
            <Point id="114">
                <coordinates>80.10858906153528,13.22154194699187,0.0</coordinates>
            </Point>
        </Placemark>
        <Placemark id="117">
            <name>8</name>
            <Point id="116">
                <coordinates>80.13626747301598,13.221540448943768,0.0</coordinates>
            </Point>
        </Placemark>
        <Placemark id="119">
            <name>9</name>
            <Point id="118">
                <coordinates>80.13843489943815,13.220767564449492,0.0</coordinates>
            </Point>
        </Placemark>
    </Document>
</kml>
