<?xml version="1.0" encoding="UTF-8"?>
<kml xmlns="http://www.opengis.net/kml/2.2" xmlns:gx="http://www.google.com/kml/ext/2.2">
    <Document id="565">
        <Style id="568">
            <LineStyle id="569">
                <color>ffff0000</color>
                <colorMode>normal</colorMode>
                <width>2</width>
            </LineStyle>
        </Style>
        <Placemark id="567">
            <styleUrl>#568</styleUrl>
            <LineString id="566">
                <altitudeMode>clampToGround</altitudeMode>
                <coordinates>80.10858906153528,13.224344019522222,0.0 80.13626778906064,13.22434252114551,0.0 80.13626778906064,13.22434252114551,0.0 80.13748480391631,13.223974072016052,0.0 80.13748480391631,13.223974072016052,0.0 80.13866943239383,13.22349501888264,0.0 80.13866943239383,13.22349501888264,0.0 80.13991970599962,13.2236396063622,0.0 80.13991970599962,13.2236396063622,0.0 80.14072643794557,13.224552617484486,0.0 80.14072643794557,13.224552617484486,0.0 80.1406525496427,13.225739392759365,0.0 80.1406525496427,13.225739392759365,0.0 80.1397380729694,13.2265569502581,0.0 80.1397380729694,13.2265569502581,0.0 80.13847846143538,13.226562346225018,0.0 80.13847846143538,13.226562346225018,0.0 80.13737957352245,13.225928245490328,0.0 80.13737957352245,13.225928245490328,0.0 80.1362695107992,13.225247408731681,0.0 80.1362695107992,13.225247408731681,0.0 80.13626789102611,13.225246415273356,0.0 80.13626789102611,13.225246415273356,0.0 80.10858906153528,13.22524791375607,0.0 80.10858906153528,13.22524791375607,0.0 80.1075680210653,13.224580943058836,0.0 80.1075680210653,13.224580943058836,0.0 80.1064414617293,13.224057559067933,0.0 80.1064414617293,13.224057559067933,0.0 80.10518210246894,13.224081954886104,0.0 80.10518210246894,13.224081954886104,0.0 80.10429572369789,13.224884075015424,0.0 80.10429572369789,13.224884075015424,0.0 80.10421699113667,13.22607057280167,0.0 80.10421699113667,13.22607057280167,0.0 80.10499040716417,13.226970798475387,0.0 80.10499040716417,13.226970798475387,0.0 80.10623670115044,13.227143296020381,0.0 80.10623670115044,13.227143296020381,0.0 80.1073889966822,13.226676123260598,0.0 80.1073889966822,13.226676123260598,0.0 80.10855957817441,13.226164689378466,0.0 80.10855957817441,13.226164689378466,0.0 80.10858906153528,13.226151807926115,0.0 80.10858906153528,13.226151807926115,0.0 80.13626799299918,13.226150309337395,0.0 80.13626799299918,13.226150309337395,0.0 80.13843546013746,13.225377425117998,0.0</coordinates>
            </LineString>
        </Placemark>
        <Placemark id="571">
            <name>0</name>
            <Point id="570">
                <coordinates>80.10858906153528,13.224344019522222,0.0</coordinates>
            </Point>
        </Placemark>
        <Placemark id="573">
            <name>1</name>
            <Point id="572">
                <coordinates>80.13626778906064,13.22434252114551,0.0</coordinates>
            </Point>
        </Placemark>
        <Placemark id="575">
            <name>2</name>
            <Point id="574">
                <coordinates>80.13748480391631,13.223974072016052,0.0</coordinates>
            </Point>
        </Placemark>
        <Placemark id="577">
            <name>3</name>
            <Point id="576">
                <coordinates>80.13866943239383,13.22349501888264,0.0</coordinates>
            </Point>
        </Placemark>
        <Placemark id="579">
            <name>4</name>
            <Point id="578">
                <coordinates>80.13991970599962,13.2236396063622,0.0</coordinates>
            </Point>
        </Placemark>
        <Placemark id="581">
            <name>5</name>
            <Point id="580">
                <coordinates>80.14072643794557,13.224552617484486,0.0</coordinates>
            </Point>
        </Placemark>
        <Placemark id="583">
            <name>6</name>
            <Point id="582">
                <coordinates>80.1406525496427,13.225739392759365,0.0</coordinates>
            </Point>
        </Placemark>
        <Placemark id="585">
            <name>7</name>
            <Point id="584">
                <coordinates>80.1397380729694,13.2265569502581,0.0</coordinates>
            </Point>
        </Placemark>
        <Placemark id="587">
            <name>8</name>
            <Point id="586">
                <coordinates>80.13847846143538,13.226562346225018,0.0</coordinates>
            </Point>
        </Placemark>
        <Placemark id="589">
            <name>9</name>
            <Point id="588">
                <coordinates>80.13737957352245,13.225928245490328,0.0</coordinates>
            </Point>
        </Placemark>
        <Placemark id="591">
            <name>10</name>
            <Point id="590">
                <coordinates>80.1362695107992,13.225247408731681,0.0</coordinates>
            </Point>
        </Placemark>
        <Placemark id="593">
            <name>11</name>
            <Point id="592">
                <coordinates>80.13626789102611,13.225246415273356,0.0</coordinates>
            </Point>
        </Placemark>
        <Placemark id="595">
            <name>12</name>
            <Point id="594">
                <coordinates>80.10858906153528,13.22524791375607,0.0</coordinates>
            </Point>
        </Placemark>
        <Placemark id="597">
            <name>13</name>
            <Point id="596">
                <coordinates>80.1075680210653,13.224580943058836,0.0</coordinates>
            </Point>
        </Placemark>
        <Placemark id="599">
            <name>14</name>
            <Point id="598">
                <coordinates>80.1064414617293,13.224057559067933,0.0</coordinates>
            </Point>
        </Placemark>
        <Placemark id="601">
            <name>15</name>
            <Point id="600">
                <coordinates>80.10518210246894,13.224081954886104,0.0</coordinates>
            </Point>
        </Placemark>
        <Placemark id="603">
            <name>16</name>
            <Point id="602">
                <coordinates>80.10429572369789,13.224884075015424,0.0</coordinates>
            </Point>
        </Placemark>
        <Placemark id="605">
            <name>17</name>
            <Point id="604">
                <coordinates>80.10421699113667,13.22607057280167,0.0</coordinates>
            </Point>
        </Placemark>
        <Placemark id="607">
            <name>18</name>
            <Point id="606">
                <coordinates>80.10499040716417,13.226970798475387,0.0</coordinates>
            </Point>
        </Placemark>
        <Placemark id="609">
            <name>19</name>
            <Point id="608">
                <coordinates>80.10623670115044,13.227143296020381,0.0</coordinates>
            </Point>
        </Placemark>
        <Placemark id="611">
            <name>20</name>
            <Point id="610">
                <coordinates>80.1073889966822,13.226676123260598,0.0</coordinates>
            </Point>
        </Placemark>
        <Placemark id="613">
            <name>21</name>
            <Point id="612">
                <coordinates>80.10855957817441,13.226164689378466,0.0</coordinates>
            </Point>
        </Placemark>
        <Placemark id="615">
            <name>22</name>
            <Point id="614">
                <coordinates>80.10858906153528,13.226151807926115,0.0</coordinates>
            </Point>
        </Placemark>
        <Placemark id="617">
            <name>23</name>
            <Point id="616">
                <coordinates>80.13626799299918,13.226150309337395,0.0</coordinates>
            </Point>
        </Placemark>
    </Document>
</kml>
