<?xml version="1.0" encoding="UTF-8"?>
<kml xmlns="http://www.opengis.net/kml/2.2" xmlns:gx="http://www.google.com/kml/ext/2.2">
    <Document id="457">
        <Style id="460">
            <LineStyle id="461">
                <color>ffff0000</color>
                <colorMode>normal</colorMode>
                <width>2</width>
            </LineStyle>
        </Style>
        <Placemark id="459">
            <styleUrl>#460</styleUrl>
            <LineString id="458">
                <altitudeMode>clampToGround</altitudeMode>
                <coordinates>80.10858906153528,13.219734157937292,0.0 80.13626726915493,13.21973266010119,0.0 80.13626726915493,13.21973266010119,0.0 80.1374842815212,13.219364205760806,0.0 80.1374842815212,13.219364205760806,0.0 80.13866890467142,13.218885140893267,0.0 80.13866890467142,13.218885140893267,0.0 80.139919179885,13.219029715988432,0.0 80.139919179885,13.219029715988432,0.0 80.1407259219839,13.219942719119711,0.0 80.1407259219839,13.219942719119711,0.0 80.14065204687836,13.221129495126414,0.0 80.14065204687836,13.221129495126414,0.0 80.13973757929662,13.22194706168331,0.0 80.13973757929662,13.22194706168331,0.0 80.1384779678227,13.22195247012711,0.0 80.1384779678227,13.22195247012711,0.0 80.13737907272557,13.221318380470244,0.0 80.13737907272557,13.221318380470244,0.0 80.13626900224621,13.220637554975905,0.0 80.13626900224621,13.220637554975905,0.0 80.13626737108166,13.220636554554371,0.0 80.13626737108166,13.220636554554371,0.0 80.10858906153528,13.220638052496472,0.0 80.10858906153528,13.220638052496472,0.0 80.10756802340836,13.219971077396648,0.0 80.10756802340836,13.219971077396648,0.0 80.10644147016387,13.219447681726777,0.0 80.10644147016387,13.219447681726777,0.0 80.10518211061967,13.219472064489214,0.0 80.10518211061967,13.219472064489214,0.0 80.10429572251313,13.220274175429427,0.0 80.10429572251313,13.220274175429427,0.0 80.10421697614275,13.221460672399385,0.0 80.10421697614275,13.221460672399385,0.0 80.10499038169286,13.222360906091025,0.0 80.10499038169286,13.222360906091025,0.0 80.10623667367143,13.222533416556292,0.0 80.10623667367143,13.222533416556292,0.0 80.10738897482337,13.222066256115484,0.0 80.10738897482337,13.222066256115484,0.0 80.10855956252544,13.22155483489392,0.0 80.10855956252544,13.22155483489392,0.0 80.10858906153528,13.22154194699187,0.0 80.10858906153528,13.22154194699187,0.0 80.13626747301598,13.221540448943768,0.0 80.13626747301598,13.221540448943768,0.0 80.13843489943815,13.220767564449492,0.0</coordinates>
            </LineString>
        </Placemark>
        <Placemark id="463">
            <name>0</name>
            <Point id="462">
                <coordinates>80.10858906153528,13.219734157937292,0.0</coordinates>
            </Point>
        </Placemark>
        <Placemark id="465">
            <name>1</name>
            <Point id="464">
                <coordinates>80.13626726915493,13.21973266010119,0.0</coordinates>
            </Point>
        </Placemark>
        <Placemark id="467">
            <name>2</name>
            <Point id="466">
                <coordinates>80.1374842815212,13.219364205760806,0.0</coordinates>
            </Point>
        </Placemark>
        <Placemark id="469">
            <name>3</name>
            <Point id="468">
                <coordinates>80.13866890467142,13.218885140893267,0.0</coordinates>
            </Point>
        </Placemark>
        <Placemark id="471">
            <name>4</name>
            <Point id="470">
                <coordinates>80.139919179885,13.219029715988432,0.0</coordinates>
            </Point>
        </Placemark>
        <Placemark id="473">
            <name>5</name>
            <Point id="472">
                <coordinates>80.1407259219839,13.219942719119711,0.0</coordinates>
            </Point>
        </Placemark>
        <Placemark id="475">
            <name>6</name>
            <Point id="474">
                <coordinates>80.14065204687836,13.221129495126414,0.0</coordinates>
            </Point>
        </Placemark>
        <Placemark id="477">
            <name>7</name>
            <Point id="476">
                <coordinates>80.13973757929662,13.22194706168331,0.0</coordinates>
            </Point>
        </Placemark>
        <Placemark id="479">
            <name>8</name>
            <Point id="478">
                <coordinates>80.1384779678227,13.22195247012711,0.0</coordinates>
            </Point>
        </Placemark>
        <Placemark id="481">
            <name>9</name>
            <Point id="480">
                <coordinates>80.13737907272557,13.221318380470244,0.0</coordinates>
            </Point>
        </Placemark>
        <Placemark id="483">
            <name>10</name>
            <Point id="482">
                <coordinates>80.13626900224621,13.220637554975905,0.0</coordinates>
            </Point>
        </Placemark>
        <Placemark id="485">
            <name>11</name>
            <Point id="484">
                <coordinates>80.13626737108166,13.220636554554371,0.0</coordinates>
            </Point>
        </Placemark>
        <Placemark id="487">
            <name>12</name>
            <Point id="486">
                <coordinates>80.10858906153528,13.220638052496472,0.0</coordinates>
            </Point>
        </Placemark>
        <Placemark id="489">
            <name>13</name>
            <Point id="488">
                <coordinates>80.10756802340836,13.219971077396648,0.0</coordinates>
            </Point>
        </Placemark>
        <Placemark id="491">
            <name>14</name>
            <Point id="490">
                <coordinates>80.10644147016387,13.219447681726777,0.0</coordinates>
            </Point>
        </Placemark>
        <Placemark id="493">
            <name>15</name>
            <Point id="492">
                <coordinates>80.10518211061967,13.219472064489214,0.0</coordinates>
            </Point>
        </Placemark>
        <Placemark id="495">
            <name>16</name>
            <Point id="494">
                <coordinates>80.10429572251313,13.220274175429427,0.0</coordinates>
            </Point>
        </Placemark>
        <Placemark id="497">
            <name>17</name>
            <Point id="496">
                <coordinates>80.10421697614275,13.221460672399385,0.0</coordinates>
            </Point>
        </Placemark>
        <Placemark id="499">
            <name>18</name>
            <Point id="498">
                <coordinates>80.10499038169286,13.222360906091025,0.0</coordinates>
            </Point>
        </Placemark>
        <Placemark id="501">
            <name>19</name>
            <Point id="500">
                <coordinates>80.10623667367143,13.222533416556292,0.0</coordinates>
            </Point>
        </Placemark>
        <Placemark id="503">
            <name>20</name>
            <Point id="502">
                <coordinates>80.10738897482337,13.222066256115484,0.0</coordinates>
            </Point>
        </Placemark>
        <Placemark id="505">
            <name>21</name>
            <Point id="504">
                <coordinates>80.10855956252544,13.22155483489392,0.0</coordinates>
            </Point>
        </Placemark>
        <Placemark id="507">
            <name>22</name>
            <Point id="506">
                <coordinates>80.10858906153528,13.22154194699187,0.0</coordinates>
            </Point>
        </Placemark>
        <Placemark id="509">
            <name>23</name>
            <Point id="508">
                <coordinates>80.13626747301598,13.221540448943768,0.0</coordinates>
            </Point>
        </Placemark>
    </Document>
</kml>
