<?xml version="1.0" encoding="UTF-8"?>
<kml xmlns="http://www.opengis.net/kml/2.2" xmlns:gx="http://www.google.com/kml/ext/2.2">
    <Document id="511">
        <Style id="514">
            <LineStyle id="515">
                <color>ffff0000</color>
                <colorMode>normal</colorMode>
                <width>2</width>
            </LineStyle>
        </Style>
        <Placemark id="513">
            <styleUrl>#514</styleUrl>
            <LineString id="512">
                <altitudeMode>clampToGround</altitudeMode>
                <coordinates>80.10858906153528,13.222039088937153,0.0 80.13626752908309,13.22203759083075,0.0 80.13626752908309,13.22203759083075,0.0 80.13748454269397,13.221669139095608,0.0 80.13748454269397,13.221669139095608,0.0 80.13866916850762,13.221190080094635,0.0 80.13866916850762,13.221190080094635,0.0 80.13991944291739,13.221334661381483,0.0 80.13991944291739,13.221334661381483,0.0 80.14072617994024,13.222247668507945,0.0 80.14072617994024,13.222247668507945,0.0 80.14065229823659,13.223434444148785,0.0 80.14065229823659,13.223434444148785,0.0 80.13973782610944,13.224252006176988,0.0 80.13973782610944,13.224252006176988,0.0 80.13847821460546,13.224257408382869,0.0 80.13847821460546,13.224257408382869,0.0 80.1373793231001,13.223623313187547,0.0 80.1373793231001,13.223623313187547,0.0 80.13626925649845,13.22294248206152,0.0 80.13626925649845,13.22294248206152,0.0 80.13626763102918,13.22294148512127,0.0 80.13626763102918,13.22294148512127,0.0 80.10858906153528,13.222942983333677,0.0 80.10858906153528,13.222942983333677,0.0 80.10756802223692,13.22227601043496,0.0 80.10756802223692,13.22227601043496,0.0 80.10644146594692,13.221752620604073,0.0 80.10644146594692,13.221752620604073,0.0 80.1051821065446,13.221777009893831,0.0 80.1051821065446,13.221777009893831,0.0 80.10429572310541,13.222579125428222,0.0 80.10429572310541,13.222579125428222,0.0 80.10421698363902,13.223765622806308,0.0 80.10421698363902,13.223765622806308,0.0 80.1049903944274,13.224665852489338,0.0 80.1049903944274,13.224665852489338,0.0 80.10623668740976,13.224838356495013,0.0 80.10623668740976,13.224838356495013,0.0 80.10738898575187,13.224371189895237,0.0 80.10738898575187,13.224371189895237,0.0 80.10855957034929,13.223859762343924,0.0 80.10855957034929,13.223859762343924,0.0 80.10858906153528,13.22384687766641,0.0 80.10858906153528,13.22384687766641,0.0 80.13626773298287,13.223845379348,0.0 80.13626773298287,13.223845379348,0.0 80.13843517976116,13.223072494991147,0.0</coordinates>
            </LineString>
        </Placemark>
        <Placemark id="517">
            <name>0</name>
            <Point id="516">
                <coordinates>80.10858906153528,13.222039088937153,0.0</coordinates>
            </Point>
        </Placemark>
        <Placemark id="519">
            <name>1</name>
            <Point id="518">
                <coordinates>80.13626752908309,13.22203759083075,0.0</coordinates>
            </Point>
        </Placemark>
        <Placemark id="521">
            <name>2</name>
            <Point id="520">
                <coordinates>80.13748454269397,13.221669139095608,0.0</coordinates>
            </Point>
        </Placemark>
        <Placemark id="523">
            <name>3</name>
            <Point id="522">
                <coordinates>80.13866916850762,13.221190080094635,0.0</coordinates>
            </Point>
        </Placemark>
        <Placemark id="525">
            <name>4</name>
            <Point id="524">
                <coordinates>80.13991944291739,13.221334661381483,0.0</coordinates>
            </Point>
        </Placemark>
        <Placemark id="527">
            <name>5</name>
            <Point id="526">
                <coordinates>80.14072617994024,13.222247668507945,0.0</coordinates>
            </Point>
        </Placemark>
        <Placemark id="529">
            <name>6</name>
            <Point id="528">
                <coordinates>80.14065229823659,13.223434444148785,0.0</coordinates>
            </Point>
        </Placemark>
        <Placemark id="531">
            <name>7</name>
            <Point id="530">
                <coordinates>80.13973782610944,13.224252006176988,0.0</coordinates>
            </Point>
        </Placemark>
        <Placemark id="533">
            <name>8</name>
            <Point id="532">
                <coordinates>80.13847821460546,13.224257408382869,0.0</coordinates>
            </Point>
        </Placemark>
        <Placemark id="535">
            <name>9</name>
            <Point id="534">
                <coordinates>80.1373793231001,13.223623313187547,0.0</coordinates>
            </Point>
        </Placemark>
        <Placemark id="537">
            <name>10</name>
            <Point id="536">
                <coordinates>80.13626925649845,13.22294248206152,0.0</coordinates>
            </Point>
        </Placemark>
        <Placemark id="539">
            <name>11</name>
            <Point id="538">
                <coordinates>80.13626763102918,13.22294148512127,0.0</coordinates>
            </Point>
        </Placemark>
        <Placemark id="541">
            <name>12</name>
            <Point id="540">
                <coordinates>80.10858906153528,13.222942983333677,0.0</coordinates>
            </Point>
        </Placemark>
        <Placemark id="543">
            <name>13</name>
            <Point id="542">
                <coordinates>80.10756802223692,13.22227601043496,0.0</coordinates>
            </Point>
        </Placemark>
        <Placemark id="545">
            <name>14</name>
            <Point id="544">
                <coordinates>80.10644146594692,13.221752620604073,0.0</coordinates>
            </Point>
        </Placemark>
        <Placemark id="547">
            <name>15</name>
            <Point id="546">
                <coordinates>80.1051821065446,13.221777009893831,0.0</coordinates>
            </Point>
        </Placemark>
        <Placemark id="549">
            <name>16</name>
            <Point id="548">
                <coordinates>80.10429572310541,13.222579125428222,0.0</coordinates>
            </Point>
        </Placemark>
        <Placemark id="551">
            <name>17</name>
            <Point id="550">
                <coordinates>80.10421698363902,13.223765622806308,0.0</coordinates>
            </Point>
        </Placemark>
        <Placemark id="553">
            <name>18</name>
            <Point id="552">
                <coordinates>80.1049903944274,13.224665852489338,0.0</coordinates>
            </Point>
        </Placemark>
        <Placemark id="555">
            <name>19</name>
            <Point id="554">
                <coordinates>80.10623668740976,13.224838356495013,0.0</coordinates>
            </Point>
        </Placemark>
        <Placemark id="557">
            <name>20</name>
            <Point id="556">
                <coordinates>80.10738898575187,13.224371189895237,0.0</coordinates>
            </Point>
        </Placemark>
        <Placemark id="559">
            <name>21</name>
            <Point id="558">
                <coordinates>80.10855957034929,13.223859762343924,0.0</coordinates>
            </Point>
        </Placemark>
        <Placemark id="561">
            <name>22</name>
            <Point id="560">
                <coordinates>80.10858906153528,13.22384687766641,0.0</coordinates>
            </Point>
        </Placemark>
        <Placemark id="563">
            <name>23</name>
            <Point id="562">
                <coordinates>80.13626773298287,13.223845379348,0.0</coordinates>
            </Point>
        </Placemark>
    </Document>
</kml>
