<?xml version="1.0" encoding="UTF-8"?>
<kml xmlns="http://www.opengis.net/kml/2.2" xmlns:gx="http://www.google.com/kml/ext/2.2">
    <Document id="73">
        <Style id="76">
            <LineStyle id="77">
                <color>ffff0000</color>
                <colorMode>normal</colorMode>
                <width>2</width>
            </LineStyle>
        </Style>
        <Placemark id="75">
            <styleUrl>#76</styleUrl>
            <LineString id="74">
                <altitudeMode>clampToGround</altitudeMode>
                <coordinates>80.09717884360535,12.928098944560293,0.0 80.11100170257775,12.928098578641537,0.0 80.11100170257775,12.928098578641537,0.0 80.11215482300747,12.927756576259414,0.0 80.11215482300747,12.927756576259414,0.0 80.1133017600627,12.927278546320117,0.0 80.1133017600627,12.927278546320117,0.0 80.11452581277098,12.927339895126064,0.0 80.11452581277098,12.927339895126064,0.0 80.11539126832064,12.928160842824571,0.0 80.11539126832064,12.928160842824571,0.0 80.11545248141599,12.929318662355888,0.0 80.11545248141599,12.929318662355888,0.0 80.11467793186169,12.930217162699456,0.0 80.11467793186169,12.930217162699456,0.0 80.1134664551211,12.93039368294629,0.0 80.1134664551211,12.93039368294629,0.0 80.11223928202854,12.93015106452347,0.0 80.11223928202854,12.93015106452347,0.0 80.11101210893598,12.929908446100649,0.0 80.11101210893598,12.929908446100649,0.0 80.11100180206454,12.92990640837923,0.0 80.11100180206454,12.92990640837923,0.0 80.09717884360535,12.92990677435087,0.0 80.09717884360535,12.92990677435087,0.0 80.09618983405726,12.92925421104766,0.0 80.09618983405726,12.92925421104766,0.0 80.09506639091539,12.928728335788472,0.0 80.09506639091539,12.928728335788472,0.0 80.09384066715724,12.92871822956764,0.0 80.09384066715724,12.92871822956764,0.0 80.09292336419577,12.929487177804605,0.0 80.09292336419577,12.929487177804605,0.0 80.09277859194385,12.930608144199192,0.0 80.09277859194385,12.930608144199192,0.0 80.09347322816903,12.93156329657738,0.0 80.09347322816903,12.93156329657738,0.0 80.09466592543124,12.931837764304806,0.0 80.09466592543124,12.931837764304806,0.0 80.09591794586943,12.931776401640398,0.0 80.09591794586943,12.931776401640398,0.0 80.09716996630762,12.931715038975991,0.0 80.09716996630762,12.931715038975991,0.0 80.09717884360535,12.931714603891526,0.0 80.09717884360535,12.931714603891526,0.0 80.11100190156642,12.93171423786701,0.0 80.11100190156642,12.93171423786701,0.0 80.11316679916307,12.930941336271534,0.0</coordinates>
            </LineString>
        </Placemark>
        <Placemark id="79">
            <name>0</name>
            <Point id="78">
                <coordinates>80.09717884360535,12.928098944560293,0.0</coordinates>
            </Point>
        </Placemark>
        <Placemark id="81">
            <name>1</name>
            <Point id="80">
                <coordinates>80.11100170257775,12.928098578641537,0.0</coordinates>
            </Point>
        </Placemark>
        <Placemark id="83">
            <name>2</name>
            <Point id="82">
                <coordinates>80.11215482300747,12.927756576259414,0.0</coordinates>
            </Point>
        </Placemark>
        <Placemark id="85">
            <name>3</name>
            <Point id="84">
                <coordinates>80.1133017600627,12.927278546320117,0.0</coordinates>
            </Point>
        </Placemark>
        <Placemark id="87">
            <name>4</name>
            <Point id="86">
                <coordinates>80.11452581277098,12.927339895126064,0.0</coordinates>
            </Point>
        </Placemark>
        <Placemark id="89">
            <name>5</name>
            <Point id="88">
                <coordinates>80.11539126832064,12.928160842824571,0.0</coordinates>
            </Point>
        </Placemark>
        <Placemark id="91">
            <name>6</name>
            <Point id="90">
                <coordinates>80.11545248141599,12.929318662355888,0.0</coordinates>
            </Point>
        </Placemark>
        <Placemark id="93">
            <name>7</name>
            <Point id="92">
                <coordinates>80.11467793186169,12.930217162699456,0.0</coordinates>
            </Point>
        </Placemark>
        <Placemark id="95">
            <name>8</name>
            <Point id="94">
                <coordinates>80.1134664551211,12.93039368294629,0.0</coordinates>
            </Point>
        </Placemark>
        <Placemark id="97">
            <name>9</name>
            <Point id="96">
                <coordinates>80.11223928202854,12.93015106452347,0.0</coordinates>
            </Point>
        </Placemark>
        <Placemark id="99">
            <name>10</name>
            <Point id="98">
                <coordinates>80.11101210893598,12.929908446100649,0.0</coordinates>
            </Point>
        </Placemark>
        <Placemark id="101">
            <name>11</name>
            <Point id="100">
                <coordinates>80.11100180206454,12.92990640837923,0.0</coordinates>
            </Point>
        </Placemark>
        <Placemark id="103">
            <name>12</name>
            <Point id="102">
                <coordinates>80.09717884360535,12.92990677435087,0.0</coordinates>
            </Point>
        </Placemark>
        <Placemark id="105">
            <name>13</name>
            <Point id="104">
                <coordinates>80.09618983405726,12.92925421104766,0.0</coordinates>
            </Point>
        </Placemark>
        <Placemark id="107">
            <name>14</name>
            <Point id="106">
                <coordinates>80.09506639091539,12.928728335788472,0.0</coordinates>
            </Point>
        </Placemark>
        <Placemark id="109">
            <name>15</name>
            <Point id="108">
                <coordinates>80.09384066715724,12.92871822956764,0.0</coordinates>
            </Point>
        </Placemark>
        <Placemark id="111">
            <name>16</name>
            <Point id="110">
                <coordinates>80.09292336419577,12.929487177804605,0.0</coordinates>
            </Point>
        </Placemark>
        <Placemark id="113">
            <name>17</name>
            <Point id="112">
                <coordinates>80.09277859194385,12.930608144199192,0.0</coordinates>
            </Point>
        </Placemark>
        <Placemark id="115">
            <name>18</name>
            <Point id="114">
                <coordinates>80.09347322816903,12.93156329657738,0.0</coordinates>
            </Point>
        </Placemark>
        <Placemark id="117">
            <name>19</name>
            <Point id="116">
                <coordinates>80.09466592543124,12.931837764304806,0.0</coordinates>
            </Point>
        </Placemark>
        <Placemark id="119">
            <name>20</name>
            <Point id="118">
                <coordinates>80.09591794586943,12.931776401640398,0.0</coordinates>
            </Point>
        </Placemark>
        <Placemark id="121">
            <name>21</name>
            <Point id="120">
                <coordinates>80.09716996630762,12.931715038975991,0.0</coordinates>
            </Point>
        </Placemark>
        <Placemark id="123">
            <name>22</name>
            <Point id="122">
                <coordinates>80.09717884360535,12.931714603891526,0.0</coordinates>
            </Point>
        </Placemark>
        <Placemark id="125">
            <name>23</name>
            <Point id="124">
                <coordinates>80.11100190156642,12.93171423786701,0.0</coordinates>
            </Point>
        </Placemark>
    </Document>
</kml>
