<?xml version="1.0" encoding="UTF-8"?>
<kml xmlns="http://www.opengis.net/kml/2.2" xmlns:gx="http://www.google.com/kml/ext/2.2">
    <Document id="673">
        <Style id="676">
            <LineStyle id="677">
                <color>ffff0000</color>
                <colorMode>normal</colorMode>
                <width>2</width>
            </LineStyle>
        </Style>
        <Placemark id="675">
            <styleUrl>#676</styleUrl>
            <LineString id="674">
                <altitudeMode>clampToGround</altitudeMode>
                <coordinates>80.10858906153528,13.22895387944774,0.0 80.13626830916394,13.228952380530398,0.0 80.13626830916394,13.228952380530398,0.0 80.13748532650979,13.228583936613628,0.0 80.13748532650979,13.228583936613628,0.0 80.13866996031625,13.22810489521831,0.0 80.13866996031625,13.22810489521831,0.0 80.13992023231357,13.228249495086388,0.0 80.13992023231357,13.228249495086388,0.0 80.1407269541031,13.229162514202248,0.0 80.1407269541031,13.229162514202248,0.0 80.14065305259848,13.230349288744929,0.0 80.14065305259848,13.230349288744929,0.0 80.13973856683069,13.23116683718239,0.0 80.13973856683069,13.23116683718239,0.0 80.13847895523672,13.231172220668256,0.0 80.13847895523672,13.231172220668256,0.0 80.13738007451053,13.230538108852071,0.0 80.13738007451053,13.230538108852071,0.0 80.13627001954613,13.229857260825371,0.0 80.13627001954613,13.229857260825371,0.0 80.13626841116815,13.2298562743328,0.0 80.13626841116815,13.2298562743328,0.0 80.10858906153528,13.229857773356152,0.0 80.10858906153528,13.229857773356152,0.0 80.10756801872151,13.22919080706301,0.0 80.10756801872151,13.22919080706301,0.0 80.10644145329209,13.228667434755058,0.0 80.10644145329209,13.228667434755058,0.0 80.10518209431584,13.228691843633342,0.0 80.10518209431584,13.228691843633342,0.0 80.1042957248835,13.229493972954755,0.0 80.1042957248835,13.229493972954755,0.0 80.10421700613607,13.23068047155742,0.0 80.10421700613607,13.23068047155742,0.0 80.10499043264439,13.231580689210416,0.0 80.10499043264439,13.231580689210416,0.0 80.10623672863888,13.231753173830777,0.0 80.10623672863888,13.231753173830777,0.0 80.10738901854839,13.231285988747874,0.0 80.10738901854839,13.231285988747874,0.0 80.10855959382843,13.230774542200894,0.0 80.10855959382843,13.230774542200894,0.0 80.10858906153528,13.230761667200737,0.0 80.10858906153528,13.230761667200737,0.0 80.13626851317996,13.230760168071377,0.0 80.13626851317996,13.230760168071377,0.0 80.1384360210498,13.229987284126945,0.0</coordinates>
            </LineString>
        </Placemark>
        <Placemark id="679">
            <name>0</name>
            <Point id="678">
                <coordinates>80.10858906153528,13.22895387944774,0.0</coordinates>
            </Point>
        </Placemark>
        <Placemark id="681">
            <name>1</name>
            <Point id="680">
                <coordinates>80.13626830916394,13.228952380530398,0.0</coordinates>
            </Point>
        </Placemark>
        <Placemark id="683">
            <name>2</name>
            <Point id="682">
                <coordinates>80.13748532650979,13.228583936613628,0.0</coordinates>
            </Point>
        </Placemark>
        <Placemark id="685">
            <name>3</name>
            <Point id="684">
                <coordinates>80.13866996031625,13.22810489521831,0.0</coordinates>
            </Point>
        </Placemark>
        <Placemark id="687">
            <name>4</name>
            <Point id="686">
                <coordinates>80.13992023231357,13.228249495086388,0.0</coordinates>
            </Point>
        </Placemark>
        <Placemark id="689">
            <name>5</name>
            <Point id="688">
                <coordinates>80.1407269541031,13.229162514202248,0.0</coordinates>
            </Point>
        </Placemark>
        <Placemark id="691">
            <name>6</name>
            <Point id="690">
                <coordinates>80.14065305259848,13.230349288744929,0.0</coordinates>
            </Point>
        </Placemark>
        <Placemark id="693">
            <name>7</name>
            <Point id="692">
                <coordinates>80.13973856683069,13.23116683718239,0.0</coordinates>
            </Point>
        </Placemark>
        <Placemark id="695">
            <name>8</name>
            <Point id="694">
                <coordinates>80.13847895523672,13.231172220668256,0.0</coordinates>
            </Point>
        </Placemark>
        <Placemark id="697">
            <name>9</name>
            <Point id="696">
                <coordinates>80.13738007451053,13.230538108852071,0.0</coordinates>
            </Point>
        </Placemark>
        <Placemark id="699">
            <name>10</name>
            <Point id="698">
                <coordinates>80.13627001954613,13.229857260825371,0.0</coordinates>
            </Point>
        </Placemark>
        <Placemark id="701">
            <name>11</name>
            <Point id="700">
                <coordinates>80.13626841116815,13.2298562743328,0.0</coordinates>
            </Point>
        </Placemark>
        <Placemark id="703">
            <name>12</name>
            <Point id="702">
                <coordinates>80.10858906153528,13.229857773356152,0.0</coordinates>
            </Point>
        </Placemark>
        <Placemark id="705">
            <name>13</name>
            <Point id="704">
                <coordinates>80.10756801872151,13.22919080706301,0.0</coordinates>
            </Point>
        </Placemark>
        <Placemark id="707">
            <name>14</name>
            <Point id="706">
                <coordinates>80.10644145329209,13.228667434755058,0.0</coordinates>
            </Point>
        </Placemark>
        <Placemark id="709">
            <name>15</name>
            <Point id="708">
                <coordinates>80.10518209431584,13.228691843633342,0.0</coordinates>
            </Point>
        </Placemark>
        <Placemark id="711">
            <name>16</name>
            <Point id="710">
                <coordinates>80.1042957248835,13.229493972954755,0.0</coordinates>
            </Point>
        </Placemark>
        <Placemark id="713">
            <name>17</name>
            <Point id="712">
                <coordinates>80.10421700613607,13.23068047155742,0.0</coordinates>
            </Point>
        </Placemark>
        <Placemark id="715">
            <name>18</name>
            <Point id="714">
                <coordinates>80.10499043264439,13.231580689210416,0.0</coordinates>
            </Point>
        </Placemark>
        <Placemark id="717">
            <name>19</name>
            <Point id="716">
                <coordinates>80.10623672863888,13.231753173830777,0.0</coordinates>
            </Point>
        </Placemark>
        <Placemark id="719">
            <name>20</name>
            <Point id="718">
                <coordinates>80.10738901854839,13.231285988747874,0.0</coordinates>
            </Point>
        </Placemark>
        <Placemark id="721">
            <name>21</name>
            <Point id="720">
                <coordinates>80.10855959382843,13.230774542200894,0.0</coordinates>
            </Point>
        </Placemark>
        <Placemark id="723">
            <name>22</name>
            <Point id="722">
                <coordinates>80.10858906153528,13.230761667200737,0.0</coordinates>
            </Point>
        </Placemark>
        <Placemark id="725">
            <name>23</name>
            <Point id="724">
                <coordinates>80.13626851317996,13.230760168071377,0.0</coordinates>
            </Point>
        </Placemark>
    </Document>
</kml>
