<?xml version="1.0" encoding="UTF-8"?>
<kml xmlns="http://www.opengis.net/kml/2.2" xmlns:gx="http://www.google.com/kml/ext/2.2">
    <Document id="217">
        <Style id="220">
            <LineStyle id="221">
                <color>ff000000</color>
                <colorMode>normal</colorMode>
                <width>2</width>
            </LineStyle>
        </Style>
        <Placemark id="219">
            <styleUrl>#220</styleUrl>
            <LineString id="218">
                <altitudeMode>clampToGround</altitudeMode>
                <coordinates>80.10858906153528,13.23125880878805,0.0 80.13626856928968,13.231257309600386,0.0 80.13843608155307,13.230484425685619,0.0 80.13626867131327,13.232161203240025,0.0 80.10858906153528,13.232162702533703,0.0 80.10659146696132,13.231032827533095,0.0 80.10858906153528,13.23306659621552,0.0 80.13626877334445,13.233065096815837,0.0 80.1384363015859,13.232292213008924,0.0</coordinates>
            </LineString>
        </Placemark>
        <Placemark id="223">
            <name>1</name>
            <Point id="222">
                <coordinates>80.10858906153528,13.23125880878805,0.0</coordinates>
            </Point>
        </Placemark>
        <Placemark id="225">
            <name>2</name>
            <Point id="224">
                <coordinates>80.13626856928968,13.231257309600386,0.0</coordinates>
            </Point>
        </Placemark>
        <Placemark id="227">
            <name>3</name>
            <Point id="226">
                <coordinates>80.13843608155307,13.230484425685619,0.0</coordinates>
            </Point>
        </Placemark>
        <Placemark id="229">
            <name>4</name>
            <Point id="228">
                <coordinates>80.13626867131327,13.232161203240025,0.0</coordinates>
            </Point>
        </Placemark>
        <Placemark id="231">
            <name>5</name>
            <Point id="230">
                <coordinates>80.10858906153528,13.232162702533703,0.0</coordinates>
            </Point>
        </Placemark>
        <Placemark id="233">
            <name>6</name>
            <Point id="232">
                <coordinates>80.10659146696132,13.231032827533095,0.0</coordinates>
            </Point>
        </Placemark>
        <Placemark id="235">
            <name>7</name>
            <Point id="234">
                <coordinates>80.10858906153528,13.23306659621552,0.0</coordinates>
            </Point>
        </Placemark>
        <Placemark id="237">
            <name>8</name>
            <Point id="236">
                <coordinates>80.13626877334445,13.233065096815837,0.0</coordinates>
            </Point>
        </Placemark>
        <Placemark id="239">
            <name>9</name>
            <Point id="238">
                <coordinates>80.1384363015859,13.232292213008924,0.0</coordinates>
            </Point>
        </Placemark>
    </Document>
</kml>
