<?xml version="1.0" encoding="UTF-8"?>
<kml xmlns="http://www.opengis.net/kml/2.2" xmlns:gx="http://www.google.com/kml/ext/2.2">
    <Document id="193">
        <Style id="196">
            <LineStyle id="197">
                <color>ff000000</color>
                <colorMode>normal</colorMode>
                <width>2</width>
            </LineStyle>
        </Style>
        <Placemark id="195">
            <styleUrl>#196</styleUrl>
            <LineString id="194">
                <altitudeMode>clampToGround</altitudeMode>
                <coordinates>80.10858906153528,13.22895387944774,0.0 80.13626830916394,13.228952380530398,0.0 80.13843580105878,13.228179496478123,0.0 80.13626841116815,13.2298562743328,0.0 80.10858906153528,13.229857773356152,0.0 80.10659148573394,13.228727898153506,0.0 80.10858906153528,13.230761667200737,0.0 80.13626851317996,13.230760168071377,0.0 80.1384360210498,13.229987284126945,0.0</coordinates>
            </LineString>
        </Placemark>
        <Placemark id="199">
            <name>1</name>
            <Point id="198">
                <coordinates>80.10858906153528,13.22895387944774,0.0</coordinates>
            </Point>
        </Placemark>
        <Placemark id="201">
            <name>2</name>
            <Point id="200">
                <coordinates>80.13626830916394,13.228952380530398,0.0</coordinates>
            </Point>
        </Placemark>
        <Placemark id="203">
            <name>3</name>
            <Point id="202">
                <coordinates>80.13843580105878,13.228179496478123,0.0</coordinates>
            </Point>
        </Placemark>
        <Placemark id="205">
            <name>4</name>
            <Point id="204">
                <coordinates>80.13626841116815,13.2298562743328,0.0</coordinates>
            </Point>
        </Placemark>
        <Placemark id="207">
            <name>5</name>
            <Point id="206">
                <coordinates>80.10858906153528,13.229857773356152,0.0</coordinates>
            </Point>
        </Placemark>
        <Placemark id="209">
            <name>6</name>
            <Point id="208">
                <coordinates>80.10659148573394,13.228727898153506,0.0</coordinates>
            </Point>
        </Placemark>
        <Placemark id="211">
            <name>7</name>
            <Point id="210">
                <coordinates>80.10858906153528,13.230761667200737,0.0</coordinates>
            </Point>
        </Placemark>
        <Placemark id="213">
            <name>8</name>
            <Point id="212">
                <coordinates>80.13626851317996,13.230760168071377,0.0</coordinates>
            </Point>
        </Placemark>
        <Placemark id="215">
            <name>9</name>
            <Point id="214">
                <coordinates>80.1384360210498,13.229987284126945,0.0</coordinates>
            </Point>
        </Placemark>
    </Document>
</kml>
