<?xml version="1.0" encoding="UTF-8"?>
<kml xmlns="http://www.opengis.net/kml/2.2" xmlns:gx="http://www.google.com/kml/ext/2.2">
    <Document id="181">
        <Style id="184">
            <LineStyle id="185">
                <color>ffff0000</color>
                <colorMode>normal</colorMode>
                <width>2</width>
            </LineStyle>
        </Style>
        <Placemark id="183">
            <styleUrl>#184</styleUrl>
            <LineString id="182">
                <altitudeMode>clampToGround</altitudeMode>
                <coordinates>80.09717884360535,12.936535481444547,0.0 80.11100216697868,12.936535115279007,0.0 80.11100216697868,12.936535115279007,0.0 80.11215529132164,12.936193121115352,0.0 80.11215529132164,12.936193121115352,0.0 80.1133022378545,12.935715111515693,0.0 80.1133022378545,12.935715111515693,0.0 80.1145262893462,12.935776482028736,0.0 80.1145262893462,12.935776482028736,0.0 80.1153917286189,12.936597445074915,0.0 80.1153917286189,12.936597445074915,0.0 80.11545291875831,12.93775526569157,0.0 80.11545291875831,12.93775526569157,0.0 80.11467835138971,12.938653752299272,0.0 80.11467835138971,12.938653752299272,0.0 80.1134668711495,12.938830251061987,0.0 80.1134668711495,12.938830251061987,0.0 80.1122397025095,12.938587612496297,0.0 80.1122397025095,12.938587612496297,0.0 80.11101253386951,12.938344973930606,0.0 80.11101253386951,12.938344973930606,0.0 80.11100226653596,12.93834294385014,0.0 80.11100226653596,12.93834294385014,0.0 80.09717884360535,12.938343310068564,0.0 80.09717884360535,12.938343310068564,0.0 80.09618983018066,12.937690754074161,0.0 80.09618983018066,12.937690754074161,0.0 80.09506637612503,12.937164899669552,0.0 80.09506637612503,12.937164899669552,0.0 80.09384065215738,12.937154816201835,0.0 80.09384065215738,12.937154816201835,0.0 80.09292336515479,12.93792378146655,0.0 80.09292336515479,12.93792378146655,0.0 80.09277861616737,12.939044750548328,0.0 80.09277861616737,12.939044750548328,0.0 80.09347327221556,12.939999890031798,0.0 80.09347327221556,12.939999890031798,0.0 80.09466597519497,12.940274336005025,0.0 80.09466597519497,12.940274336005025,0.0 80.09591799455507,12.940212953668908,0.0 80.09591799455507,12.940212953668908,0.0 80.09717001391516,12.940151571332793,0.0 80.09717001391516,12.940151571332793,0.0 80.09717884360535,12.940151138442513,0.0 80.09717884360535,12.940151138442513,0.0 80.11100236610837,12.940150772171204,0.0 80.11100236610837,12.940150772171204,0.0 80.11316733645472,12.939377871068487,0.0</coordinates>
            </LineString>
        </Placemark>
        <Placemark id="187">
            <name>0</name>
            <Point id="186">
                <coordinates>80.09717884360535,12.936535481444547,0.0</coordinates>
            </Point>
        </Placemark>
        <Placemark id="189">
            <name>1</name>
            <Point id="188">
                <coordinates>80.11100216697868,12.936535115279007,0.0</coordinates>
            </Point>
        </Placemark>
        <Placemark id="191">
            <name>2</name>
            <Point id="190">
                <coordinates>80.11215529132164,12.936193121115352,0.0</coordinates>
            </Point>
        </Placemark>
        <Placemark id="193">
            <name>3</name>
            <Point id="192">
                <coordinates>80.1133022378545,12.935715111515693,0.0</coordinates>
            </Point>
        </Placemark>
        <Placemark id="195">
            <name>4</name>
            <Point id="194">
                <coordinates>80.1145262893462,12.935776482028736,0.0</coordinates>
            </Point>
        </Placemark>
        <Placemark id="197">
            <name>5</name>
            <Point id="196">
                <coordinates>80.1153917286189,12.936597445074915,0.0</coordinates>
            </Point>
        </Placemark>
        <Placemark id="199">
            <name>6</name>
            <Point id="198">
                <coordinates>80.11545291875831,12.93775526569157,0.0</coordinates>
            </Point>
        </Placemark>
        <Placemark id="201">
            <name>7</name>
            <Point id="200">
                <coordinates>80.11467835138971,12.938653752299272,0.0</coordinates>
            </Point>
        </Placemark>
        <Placemark id="203">
            <name>8</name>
            <Point id="202">
                <coordinates>80.1134668711495,12.938830251061987,0.0</coordinates>
            </Point>
        </Placemark>
        <Placemark id="205">
            <name>9</name>
            <Point id="204">
                <coordinates>80.1122397025095,12.938587612496297,0.0</coordinates>
            </Point>
        </Placemark>
        <Placemark id="207">
            <name>10</name>
            <Point id="206">
                <coordinates>80.11101253386951,12.938344973930606,0.0</coordinates>
            </Point>
        </Placemark>
        <Placemark id="209">
            <name>11</name>
            <Point id="208">
                <coordinates>80.11100226653596,12.93834294385014,0.0</coordinates>
            </Point>
        </Placemark>
        <Placemark id="211">
            <name>12</name>
            <Point id="210">
                <coordinates>80.09717884360535,12.938343310068564,0.0</coordinates>
            </Point>
        </Placemark>
        <Placemark id="213">
            <name>13</name>
            <Point id="212">
                <coordinates>80.09618983018066,12.937690754074161,0.0</coordinates>
            </Point>
        </Placemark>
        <Placemark id="215">
            <name>14</name>
            <Point id="214">
                <coordinates>80.09506637612503,12.937164899669552,0.0</coordinates>
            </Point>
        </Placemark>
        <Placemark id="217">
            <name>15</name>
            <Point id="216">
                <coordinates>80.09384065215738,12.937154816201835,0.0</coordinates>
            </Point>
        </Placemark>
        <Placemark id="219">
            <name>16</name>
            <Point id="218">
                <coordinates>80.09292336515479,12.93792378146655,0.0</coordinates>
            </Point>
        </Placemark>
        <Placemark id="221">
            <name>17</name>
            <Point id="220">
                <coordinates>80.09277861616737,12.939044750548328,0.0</coordinates>
            </Point>
        </Placemark>
        <Placemark id="223">
            <name>18</name>
            <Point id="222">
                <coordinates>80.09347327221556,12.939999890031798,0.0</coordinates>
            </Point>
        </Placemark>
        <Placemark id="225">
            <name>19</name>
            <Point id="224">
                <coordinates>80.09466597519497,12.940274336005025,0.0</coordinates>
            </Point>
        </Placemark>
        <Placemark id="227">
            <name>20</name>
            <Point id="226">
                <coordinates>80.09591799455507,12.940212953668908,0.0</coordinates>
            </Point>
        </Placemark>
        <Placemark id="229">
            <name>21</name>
            <Point id="228">
                <coordinates>80.09717001391516,12.940151571332793,0.0</coordinates>
            </Point>
        </Placemark>
        <Placemark id="231">
            <name>22</name>
            <Point id="230">
                <coordinates>80.09717884360535,12.940151138442513,0.0</coordinates>
            </Point>
        </Placemark>
        <Placemark id="233">
            <name>23</name>
            <Point id="232">
                <coordinates>80.11100236610837,12.940150772171204,0.0</coordinates>
            </Point>
        </Placemark>
    </Document>
</kml>
