<?xml version="1.0" encoding="UTF-8"?>
<kml xmlns="http://www.opengis.net/kml/2.2" xmlns:gx="http://www.google.com/kml/ext/2.2">
    <Document id="5497">
        <Style id="5500">
            <LineStyle id="5501">
                <color>ff000000</color>
                <colorMode>normal</colorMode>
                <width>2</width>
            </LineStyle>
        </Style>
        <Placemark id="5499">
            <styleUrl>#5500</styleUrl>
            <LineString id="5498">
                <altitudeMode>clampToGround</altitudeMode>
                <coordinates>80.10255345369865,13.263598271822495,0.0 80.13023661637943,13.263596768841534,0.0 80.13240441483354,13.262823886858337,0.0 80.13023692328869,13.266308442709363,0.0 80.10255345369865,13.266309946008437,0.0 80.10055558059261,13.265180074004844,0.0</coordinates>
            </LineString>
        </Placemark>
        <Placemark id="5503">
            <name>1</name>
            <Point id="5502">
                <coordinates>80.10255345369865,13.263598271822495,0.0</coordinates>
            </Point>
        </Placemark>
        <Placemark id="5505">
            <name>2</name>
            <Point id="5504">
                <coordinates>80.13023661637943,13.263596768841534,0.0</coordinates>
            </Point>
        </Placemark>
        <Placemark id="5507">
            <name>3</name>
            <Point id="5506">
                <coordinates>80.13240441483354,13.262823886858337,0.0</coordinates>
            </Point>
        </Placemark>
        <Placemark id="5509">
            <name>4</name>
            <Point id="5508">
                <coordinates>80.13023692328869,13.266308442709363,0.0</coordinates>
            </Point>
        </Placemark>
        <Placemark id="5511">
            <name>5</name>
            <Point id="5510">
                <coordinates>80.10255345369865,13.266309946008437,0.0</coordinates>
            </Point>
        </Placemark>
        <Placemark id="5513">
            <name>6</name>
            <Point id="5512">
                <coordinates>80.10055558059261,13.265180074004844,0.0</coordinates>
            </Point>
        </Placemark>
    </Document>
</kml>
