<?xml version="1.0" encoding="UTF-8"?>
<kml xmlns="http://www.opengis.net/kml/2.2" xmlns:gx="http://www.google.com/kml/ext/2.2">
    <Document id="5479">
        <Style id="5482">
            <LineStyle id="5483">
                <color>ff000000</color>
                <colorMode>normal</colorMode>
                <width>2</width>
            </LineStyle>
        </Style>
        <Placemark id="5481">
            <styleUrl>#5482</styleUrl>
            <LineString id="5480">
                <altitudeMode>clampToGround</altitudeMode>
                <coordinates>80.10255345369865,13.26060413090667,0.0 80.13023627757995,13.26060262827695,0.0 80.13240404950514,13.259829746114729,0.0 80.13023658441367,13.263314302780522,0.0 80.10255345369865,13.263315805728347,0.0 80.10055560504654,13.262185933461678,0.0</coordinates>
            </LineString>
        </Placemark>
        <Placemark id="5485">
            <name>1</name>
            <Point id="5484">
                <coordinates>80.10255345369865,13.26060413090667,0.0</coordinates>
            </Point>
        </Placemark>
        <Placemark id="5487">
            <name>2</name>
            <Point id="5486">
                <coordinates>80.13023627757995,13.26060262827695,0.0</coordinates>
            </Point>
        </Placemark>
        <Placemark id="5489">
            <name>3</name>
            <Point id="5488">
                <coordinates>80.13240404950514,13.259829746114729,0.0</coordinates>
            </Point>
        </Placemark>
        <Placemark id="5491">
            <name>4</name>
            <Point id="5490">
                <coordinates>80.13023658441367,13.263314302780522,0.0</coordinates>
            </Point>
        </Placemark>
        <Placemark id="5493">
            <name>5</name>
            <Point id="5492">
                <coordinates>80.10255345369865,13.263315805728347,0.0</coordinates>
            </Point>
        </Placemark>
        <Placemark id="5495">
            <name>6</name>
            <Point id="5494">
                <coordinates>80.10055560504654,13.262185933461678,0.0</coordinates>
            </Point>
        </Placemark>
    </Document>
</kml>
