<?xml version="1.0" encoding="UTF-8"?>
<kml xmlns="http://www.opengis.net/kml/2.2" xmlns:gx="http://www.google.com/kml/ext/2.2">
    <Document id="5551">
        <Style id="5554">
            <LineStyle id="5555">
                <color>ff000000</color>
                <colorMode>normal</colorMode>
                <width>2</width>
            </LineStyle>
        </Style>
        <Placemark id="5553">
            <styleUrl>#5554</styleUrl>
            <LineString id="5552">
                <altitudeMode>clampToGround</altitudeMode>
                <coordinates>80.10255345369865,13.272580690357588,0.0 80.1302376332784,13.272579186322849,0.0 80.13240551135848,13.271806304876941,0.0 80.1302379404143,13.275290858282641,0.0 80.10255345369865,13.275292362635517,0.0 80.10055550719468,13.274162491421484,0.0</coordinates>
            </LineString>
        </Placemark>
        <Placemark id="5557">
            <name>1</name>
            <Point id="5556">
                <coordinates>80.10255345369865,13.272580690357588,0.0</coordinates>
            </Point>
        </Placemark>
        <Placemark id="5559">
            <name>2</name>
            <Point id="5558">
                <coordinates>80.1302376332784,13.272579186322849,0.0</coordinates>
            </Point>
        </Placemark>
        <Placemark id="5561">
            <name>3</name>
            <Point id="5560">
                <coordinates>80.13240551135848,13.271806304876941,0.0</coordinates>
            </Point>
        </Placemark>
        <Placemark id="5563">
            <name>4</name>
            <Point id="5562">
                <coordinates>80.1302379404143,13.275290858282641,0.0</coordinates>
            </Point>
        </Placemark>
        <Placemark id="5565">
            <name>5</name>
            <Point id="5564">
                <coordinates>80.10255345369865,13.275292362635517,0.0</coordinates>
            </Point>
        </Placemark>
        <Placemark id="5567">
            <name>6</name>
            <Point id="5566">
                <coordinates>80.10055550719468,13.274162491421484,0.0</coordinates>
            </Point>
        </Placemark>
    </Document>
</kml>
