<?xml version="1.0" encoding="UTF-8"?>
<kml xmlns="http://www.opengis.net/kml/2.2" xmlns:gx="http://www.google.com/kml/ext/2.2">
    <Document id="235">
        <Style id="238">
            <LineStyle id="239">
                <color>ff000000</color>
                <colorMode>normal</colorMode>
                <width>2</width>
            </LineStyle>
        </Style>
        <Placemark id="237">
            <styleUrl>#238</styleUrl>
            <LineString id="236">
                <altitudeMode>clampToGround</altitudeMode>
                <coordinates>80.09717884360535,12.928098944560295,0.0 80.11100170257775,12.928098578641539,0.0 80.11316656901172,12.927325676834965,0.0 80.11100180206454,12.92990640837923,0.0 80.09717884360535,12.92990677435087,0.0 80.09518368038178,12.928776873136888,0.0 80.09717884360535,12.931714603891526,0.0 80.11100190156642,12.931714237867007,0.0 80.11316679916307,12.930941336271523,0.0</coordinates>
            </LineString>
        </Placemark>
        <Placemark id="241">
            <name>1</name>
            <Point id="240">
                <coordinates>80.09717884360535,12.928098944560295,0.0</coordinates>
            </Point>
        </Placemark>
        <Placemark id="243">
            <name>2</name>
            <Point id="242">
                <coordinates>80.11100170257775,12.928098578641539,0.0</coordinates>
            </Point>
        </Placemark>
        <Placemark id="245">
            <name>3</name>
            <Point id="244">
                <coordinates>80.11316656901172,12.927325676834965,0.0</coordinates>
            </Point>
        </Placemark>
        <Placemark id="247">
            <name>4</name>
            <Point id="246">
                <coordinates>80.11100180206454,12.92990640837923,0.0</coordinates>
            </Point>
        </Placemark>
        <Placemark id="249">
            <name>5</name>
            <Point id="248">
                <coordinates>80.09717884360535,12.92990677435087,0.0</coordinates>
            </Point>
        </Placemark>
        <Placemark id="251">
            <name>6</name>
            <Point id="250">
                <coordinates>80.09518368038178,12.928776873136888,0.0</coordinates>
            </Point>
        </Placemark>
        <Placemark id="253">
            <name>7</name>
            <Point id="252">
                <coordinates>80.09717884360535,12.931714603891526,0.0</coordinates>
            </Point>
        </Placemark>
        <Placemark id="255">
            <name>8</name>
            <Point id="254">
                <coordinates>80.11100190156642,12.931714237867007,0.0</coordinates>
            </Point>
        </Placemark>
        <Placemark id="257">
            <name>9</name>
            <Point id="256">
                <coordinates>80.11316679916307,12.930941336271523,0.0</coordinates>
            </Point>
        </Placemark>
    </Document>
</kml>
