<?xml version="1.0" encoding="UTF-8"?>
<kml xmlns="http://www.opengis.net/kml/2.2" xmlns:gx="http://www.google.com/kml/ext/2.2">
    <Document id="801">
        <Style id="804">
            <LineStyle id="805">
                <color>ffff0000</color>
                <colorMode>normal</colorMode>
                <width>2</width>
            </LineStyle>
        </Style>
        <Placemark id="803">
            <styleUrl>#804</styleUrl>
            <LineString id="802">
                <altitudeMode>clampToGround</altitudeMode>
                <coordinates>80.10404697542093,13.021661307555862,0.0 80.11787500309897,13.021660938899332,0.0 80.11787500309897,13.021660938899332,0.0 80.11861888139808,13.021170601880241,0.0 80.11861888139808,13.021170601880241,0.0 80.1191911970999,13.020454969614969,0.0 80.1191911970999,13.020454969614969,0.0 80.11985527836664,13.019838739484014,0.0 80.11985527836664,13.019838739484014,0.0 80.12069157550037,13.020113503600655,0.0 80.12069157550037,13.020113503600655,0.0 80.12065261322955,13.020949983004579,0.0 80.12065261322955,13.020949983004579,0.0 80.11997088141472,13.021573720725149,0.0 80.11997088141472,13.021573720725149,0.0 80.11928512911989,13.022193788559917,0.0 80.11928512911989,13.022193788559917,0.0 80.11859937682506,13.022813856394686,0.0 80.11859937682506,13.022813856394686,0.0 80.11788913337683,13.023456069509269,0.0 80.11788913337683,13.023456069509269,0.0 80.11787510336826,13.023468755660092,0.0 80.11787510336826,13.023468755660092,0.0 80.10404697542093,13.023469124369536,0.0 80.10404697542093,13.023469124369536,0.0 80.10341369318672,13.022844864145782,0.0 80.10341369318672,13.022844864145782,0.0 80.10277745261973,13.022223133917798,0.0 80.10277745261973,13.022223133917798,0.0 80.1020392968451,13.021687564339059,0.0 80.1020392968451,13.021687564339059,0.0 80.10126054822157,13.022028001041674,0.0 80.10126054822157,13.022028001041674,0.0 80.10134356988434,13.022835565725154,0.0 80.10134356988434,13.022835565725154,0.0 80.10202794294477,13.023456866226573,0.0 80.10202794294477,13.023456866226573,0.0 80.10269016745681,13.024053834377233,0.0 80.10269016745681,13.024053834377233,0.0 80.10335239196884,13.024650802527892,0.0 80.10335239196884,13.024650802527892,0.0 80.10403914331465,13.025269880610058,0.0 80.10403914331465,13.025269880610058,0.0 80.10404697542093,13.025276940931612,0.0 80.10404697542093,13.025276940931612,0.0 80.11787520365269,13.025276572169242,0.0 80.11787520365269,13.025276572169242,0.0 80.1186190843296,13.024786236851035,0.0 80.1186190843296,13.024786236851035,0.0 80.11919140835373,13.024070610538855,0.0 80.11919140835373,13.024070610538855,0.0 80.1198554967868,13.023454387315507,0.0 80.1198554967868,13.023454387315507,0.0 80.12069179072515,13.023729160131035,0.0 80.12069179072515,13.023729160131035,0.0 80.12065281872661,13.024565639129635,0.0 80.12065281872661,13.024565639129635,0.0 80.11997108295101,13.02518937301631,0.0 80.11997108295101,13.02518937301631,0.0 80.11928532713326,13.025809437366242,0.0 80.11928532713326,13.025809437366242,0.0 80.11859957131549,13.026429501716173,0.0 80.11859957131549,13.026429501716173,0.0 80.11788932421852,13.027071711221458,0.0 80.11788932421852,13.027071711221458,0.0 80.11787530395225,13.027084388426767,0.0 80.11787530395225,13.027084388426767,0.0 80.10404697542093,13.027084757242056,0.0 80.10404697542093,13.027084757242056,0.0 80.10241730172135,13.02548685316745,0.0</coordinates>
            </LineString>
        </Placemark>
        <Placemark id="807">
            <name>0</name>
            <Point id="806">
                <coordinates>80.10404697542093,13.021661307555862,0.0</coordinates>
            </Point>
        </Placemark>
        <Placemark id="809">
            <name>1</name>
            <Point id="808">
                <coordinates>80.11787500309897,13.021660938899332,0.0</coordinates>
            </Point>
        </Placemark>
        <Placemark id="811">
            <name>2</name>
            <Point id="810">
                <coordinates>80.11861888139808,13.021170601880241,0.0</coordinates>
            </Point>
        </Placemark>
        <Placemark id="813">
            <name>3</name>
            <Point id="812">
                <coordinates>80.1191911970999,13.020454969614969,0.0</coordinates>
            </Point>
        </Placemark>
        <Placemark id="815">
            <name>4</name>
            <Point id="814">
                <coordinates>80.11985527836664,13.019838739484014,0.0</coordinates>
            </Point>
        </Placemark>
        <Placemark id="817">
            <name>5</name>
            <Point id="816">
                <coordinates>80.12069157550037,13.020113503600655,0.0</coordinates>
            </Point>
        </Placemark>
        <Placemark id="819">
            <name>6</name>
            <Point id="818">
                <coordinates>80.12065261322955,13.020949983004579,0.0</coordinates>
            </Point>
        </Placemark>
        <Placemark id="821">
            <name>7</name>
            <Point id="820">
                <coordinates>80.11997088141472,13.021573720725149,0.0</coordinates>
            </Point>
        </Placemark>
        <Placemark id="823">
            <name>8</name>
            <Point id="822">
                <coordinates>80.11928512911989,13.022193788559917,0.0</coordinates>
            </Point>
        </Placemark>
        <Placemark id="825">
            <name>9</name>
            <Point id="824">
                <coordinates>80.11859937682506,13.022813856394686,0.0</coordinates>
            </Point>
        </Placemark>
        <Placemark id="827">
            <name>10</name>
            <Point id="826">
                <coordinates>80.11788913337683,13.023456069509269,0.0</coordinates>
            </Point>
        </Placemark>
        <Placemark id="829">
            <name>11</name>
            <Point id="828">
                <coordinates>80.11787510336826,13.023468755660092,0.0</coordinates>
            </Point>
        </Placemark>
        <Placemark id="831">
            <name>12</name>
            <Point id="830">
                <coordinates>80.10404697542093,13.023469124369536,0.0</coordinates>
            </Point>
        </Placemark>
        <Placemark id="833">
            <name>13</name>
            <Point id="832">
                <coordinates>80.10341369318672,13.022844864145782,0.0</coordinates>
            </Point>
        </Placemark>
        <Placemark id="835">
            <name>14</name>
            <Point id="834">
                <coordinates>80.10277745261973,13.022223133917798,0.0</coordinates>
            </Point>
        </Placemark>
        <Placemark id="837">
            <name>15</name>
            <Point id="836">
                <coordinates>80.1020392968451,13.021687564339059,0.0</coordinates>
            </Point>
        </Placemark>
        <Placemark id="839">
            <name>16</name>
            <Point id="838">
                <coordinates>80.10126054822157,13.022028001041674,0.0</coordinates>
            </Point>
        </Placemark>
        <Placemark id="841">
            <name>17</name>
            <Point id="840">
                <coordinates>80.10134356988434,13.022835565725154,0.0</coordinates>
            </Point>
        </Placemark>
        <Placemark id="843">
            <name>18</name>
            <Point id="842">
                <coordinates>80.10202794294477,13.023456866226573,0.0</coordinates>
            </Point>
        </Placemark>
        <Placemark id="845">
            <name>19</name>
            <Point id="844">
                <coordinates>80.10269016745681,13.024053834377233,0.0</coordinates>
            </Point>
        </Placemark>
        <Placemark id="847">
            <name>20</name>
            <Point id="846">
                <coordinates>80.10335239196884,13.024650802527892,0.0</coordinates>
            </Point>
        </Placemark>
        <Placemark id="849">
            <name>21</name>
            <Point id="848">
                <coordinates>80.10403914331465,13.025269880610058,0.0</coordinates>
            </Point>
        </Placemark>
        <Placemark id="851">
            <name>22</name>
            <Point id="850">
                <coordinates>80.10404697542093,13.025276940931612,0.0</coordinates>
            </Point>
        </Placemark>
        <Placemark id="853">
            <name>23</name>
            <Point id="852">
                <coordinates>80.11787520365269,13.025276572169242,0.0</coordinates>
            </Point>
        </Placemark>
        <Placemark id="855">
            <name>24</name>
            <Point id="854">
                <coordinates>80.1186190843296,13.024786236851035,0.0</coordinates>
            </Point>
        </Placemark>
        <Placemark id="857">
            <name>25</name>
            <Point id="856">
                <coordinates>80.11919140835373,13.024070610538855,0.0</coordinates>
            </Point>
        </Placemark>
        <Placemark id="859">
            <name>26</name>
            <Point id="858">
                <coordinates>80.1198554967868,13.023454387315507,0.0</coordinates>
            </Point>
        </Placemark>
        <Placemark id="861">
            <name>27</name>
            <Point id="860">
                <coordinates>80.12069179072515,13.023729160131035,0.0</coordinates>
            </Point>
        </Placemark>
        <Placemark id="863">
            <name>28</name>
            <Point id="862">
                <coordinates>80.12065281872661,13.024565639129635,0.0</coordinates>
            </Point>
        </Placemark>
        <Placemark id="865">
            <name>29</name>
            <Point id="864">
                <coordinates>80.11997108295101,13.02518937301631,0.0</coordinates>
            </Point>
        </Placemark>
        <Placemark id="867">
            <name>30</name>
            <Point id="866">
                <coordinates>80.11928532713326,13.025809437366242,0.0</coordinates>
            </Point>
        </Placemark>
        <Placemark id="869">
            <name>31</name>
            <Point id="868">
                <coordinates>80.11859957131549,13.026429501716173,0.0</coordinates>
            </Point>
        </Placemark>
        <Placemark id="871">
            <name>32</name>
            <Point id="870">
                <coordinates>80.11788932421852,13.027071711221458,0.0</coordinates>
            </Point>
        </Placemark>
        <Placemark id="873">
            <name>33</name>
            <Point id="872">
                <coordinates>80.11787530395225,13.027084388426767,0.0</coordinates>
            </Point>
        </Placemark>
        <Placemark id="875">
            <name>34</name>
            <Point id="874">
                <coordinates>80.10404697542093,13.027084757242056,0.0</coordinates>
            </Point>
        </Placemark>
    </Document>
</kml>
