<?xml version="1.0" encoding="UTF-8"?>
<kml xmlns="http://www.opengis.net/kml/2.2" xmlns:gx="http://www.google.com/kml/ext/2.2">
    <Document id="14483">
        <Style id="14486">
            <LineStyle id="14487">
                <color>ffff0000</color>
                <colorMode>normal</colorMode>
                <width>2</width>
            </LineStyle>
        </Style>
        <Placemark id="14485">
            <styleUrl>#14486</styleUrl>
            <LineString id="14484">
                <altitudeMode>clampToGround</altitudeMode>
                <coordinates>80.10356406053302,12.923628237044651,0.0 80.12199421119851,12.923627586754895,0.0 80.12199421119851,12.923627586754895,0.0 80.12267685976127,12.923213890791041,0.0 80.12267685976127,12.923213890791041,0.0 80.1232080753658,12.922549152110355,0.0 80.1232080753658,12.922549152110355,0.0 80.12373614030298,12.92192462833882,0.0 80.12373614030298,12.92192462833882,0.0 80.12456388969366,12.921863686479703,0.0 80.12456388969366,12.921863686479703,0.0 80.12493590228019,12.922535422900138,0.0 80.12493590228019,12.922535422900138,0.0 80.12441257578516,12.923146899596933,0.0 80.12441257578516,12.923146899596933,0.0 80.12362804029588,12.923449460652618,0.0 80.12362804029588,12.923449460652618,0.0 80.12281212338706,12.92376412415053,0.0 80.12281212338706,12.92376412415053,0.0 80.12199620647823,12.924078787648442,0.0 80.12199620647823,12.924078787648442,0.0 80.12199424434644,12.924079544356932,0.0 80.12199424434644,12.924079544356932,0.0 80.10356406053302,12.924080194670188,0.0 80.10356406053302,12.924080194670188,0.0 80.10300152637646,12.923524865930833,0.0 80.10300152637646,12.923524865930833,0.0 80.10241248831089,12.922949017985832,0.0 80.10241248831089,12.922949017985832,0.0 80.10180817708586,12.922389692413422,0.0 80.10180817708586,12.922389692413422,0.0 80.10100639363428,12.922405663328144,0.0 80.10100639363428,12.922405663328144,0.0 80.10068452399139,12.923070419427894,0.0 80.10068452399139,12.923070419427894,0.0 80.10119518201941,12.923655958426512,0.0 80.10119518201941,12.923655958426512,0.0 80.10198424133978,12.923947813379252,0.0 80.10198424133978,12.923947813379252,0.0 80.10277330066015,12.92423966833199,0.0 80.10277330066015,12.92423966833199,0.0 80.10356235998051,12.924531523284731,0.0 80.10356235998051,12.924531523284731,0.0 80.10356406053302,12.924532152280113,0.0 80.10356406053302,12.924532152280113,0.0 80.12199427749562,12.924531501943356,0.0 80.12199427749562,12.924531501943356,0.0 80.12267692642722,12.924117806243007,0.0 80.12267692642722,12.924117806243007,0.0 80.12320814394975,12.923453068932547,0.0 80.12320814394975,12.923453068932547,0.0 80.1237362106889,12.922828546523112,0.0 80.1237362106889,12.922828546523112,0.0 80.12456396025541,12.922767606799102,0.0 80.12456396025541,12.922767606799102,0.0 80.12493597090375,12.923439344179108,0.0 80.12493597090375,12.923439344179108,0.0 80.1244126426658,12.92405081957565,0.0 80.1244126426658,12.92405081957565,0.0 80.12362810657113,12.924353379227972,0.0 80.12362810657113,12.924353379227972,0.0 80.12281218903267,12.924668041266388,0.0 80.12281218903267,12.924668041266388,0.0 80.12199627149423,12.924982703304805,0.0 80.12199627149423,12.924982703304805,0.0 80.12199431064606,12.924983459514165,0.0 80.12199431064606,12.924983459514165,0.0 80.10356406053302,12.924984109874424,0.0 80.10356406053302,12.924984109874424,0.0 80.10300152536725,12.924428782057952,0.0 80.10300152536725,12.924428782057952,0.0 80.10241248615482,12.923852935161678,0.0 80.10241248615482,12.923852935161678,0.0 80.10180817381585,12.923293610665187,0.0 80.10180817381585,12.923293610665187,0.0 80.1010063903961,12.92330958300741,0.0 80.1010063903961,12.92330958300741,0.0 80.10068452207712,12.923974339680218,0.0 80.10068452207712,12.923974339680218,0.0 80.10119518126932,12.924559877774401,0.0 80.10119518126932,12.924559877774401,0.0 80.10198424112184,12.924851731440933,0.0 80.10198424112184,12.924851731440933,0.0 80.10277330097438,12.925143585107463,0.0 80.10277330097438,12.925143585107463,0.0 80.10356236082691,12.925435438773995,0.0 80.10356236082691,12.925435438773995,0.0 80.10356406053302,12.925436067453122,0.0 80.10356406053302,12.925436067453122,0.0 80.12199434379775,12.925435417069359,0.0 80.12199434379775,12.925435417069359,0.0 80.12267699309822,12.925021721632536,0.0 80.12267699309822,12.925021721632536,0.0 80.12320821253888,12.924356985692402,0.0 80.12320821253888,12.924356985692402,0.0 80.12373628108013,12.923732464645168,0.0 80.12373628108013,12.923732464645168,0.0 80.12456403082248,12.923671527056419,0.0 80.12456403082248,12.923671527056419,0.0 80.12493603953249,12.92434326539606,0.0 80.12493603953249,12.92434326539606,0.0 80.12441270955149,12.924954739492248,0.0 80.12441270955149,12.924954739492248,0.0 80.12362817285138,12.92525729774111,0.0 80.12362817285138,12.92525729774111,0.0 80.12281225468327,12.925571958319926,0.0 80.12281225468327,12.925571958319926,0.0 80.12199633651515,12.925886618898742,0.0 80.12199633651515,12.925886618898742,0.0 80.12199437695071,12.925887374608942,0.0 80.12199437695071,12.925887374608942,0.0 80.10356406053302,12.925888025016205,0.0 80.10356406053302,12.925888025016205,0.0 80.10300152435795,12.925332698122679,0.0 80.10300152435795,12.925332698122679,0.0 80.1024124839986,12.92475685227521,0.0 80.1024124839986,12.92475685227521,0.0 80.10180817054564,12.924197528854718,0.0 80.10180817054564,12.924197528854718,0.0 80.10100638715768,12.924213502624541,0.0 80.10100638715768,12.924213502624541,0.0 80.1006845201627,12.924878259870445,0.0 80.1006845201627,12.924878259870445,0.0 80.10119518051917,12.925463797060129,0.0 80.10119518051917,12.925463797060129,0.0 80.1019842409039,12.925755649440358,0.0 80.1019842409039,12.925755649440358,0.0 80.10277330128864,12.92604750182059,0.0 80.10277330128864,12.92604750182059,0.0 80.10356236167335,12.926339354200818,0.0 80.10356236167335,12.926339354200818,0.0 80.10356406053302,12.926339982563672,0.0 80.10356406053302,12.926339982563672,0.0 80.12199441010493,12.926339332132905,0.0 80.12199441010493,12.926339332132905,0.0 80.1226770597743,12.925925636959626,0.0 80.1226770597743,12.925925636959626,0.0 80.12320828113323,12.925260902389928,0.0 80.12320828113323,12.925260902389928,0.0 80.1237363514767,12.924636382705,0.0 80.1237363514767,12.924636382705,0.0 80.1245641013949,12.924575447251668,0.0 80.1245641013949,12.924575447251668,0.0 80.12493610816642,12.925247186551008,0.0 80.12493610816642,12.925247186551008,0.0 80.12441277644227,12.925858659346746,0.0 80.12441277644227,12.925858659346746,0.0 80.12362823913668,12.926161216192039,0.0 80.12362823913668,12.926161216192039,0.0 80.12281232033885,12.926475875311143,0.0 80.12281232033885,12.926475875311143,0.0 80.12199640154103,12.926790534430248,0.0 80.12199640154103,12.926790534430248,0.0 80.1219944432604,12.926791289641253,0.0 80.1219944432604,12.926791289641253,0.0 80.10356406053302,12.926791940095521,0.0 80.10356406053302,12.926791940095521,0.0 80.1030015233486,12.926236614125012,0.0 80.1030015233486,12.926236614125012,0.0 80.10241248184225,12.925660769326425,0.0 80.10241248184225,12.925660769326425,0.0 80.10180816727518,12.925101446982012,0.0 80.10180816727518,12.925101446982012,0.0 80.10100638391904,12.92511742217954,0.0 80.10100638391904,12.92511742217954,0.0 80.10068451824817,12.925782179998578,0.0 80.10068451824817,12.925782179998578,0.0 80.10119517976898,12.926367716283693,0.0 80.10119517976898,12.926367716283693,0.0 80.10198424068594,12.926659567377527,0.0 80.10198424068594,12.926659567377527,0.0 80.10277330160291,12.926951418471363,0.0 80.10277330160291,12.926951418471363,0.0 80.10356236251988,12.927243269565198,0.0 80.10356236251988,12.927243269565198,0.0 80.10356406053302,12.927243897611755,0.0 80.10356406053302,12.927243897611755,0.0 80.12199447641714,12.927243247133985,0.0 80.12199447641714,12.927243247133985,0.0 80.12362350006099,12.9256453308596,0.0</coordinates>
            </LineString>
        </Placemark>
        <Placemark id="14489">
            <name>0</name>
            <Point id="14488">
                <coordinates>80.10356406053302,12.923628237044651,0.0</coordinates>
            </Point>
        </Placemark>
        <Placemark id="14491">
            <name>1</name>
            <Point id="14490">
                <coordinates>80.12199421119851,12.923627586754895,0.0</coordinates>
            </Point>
        </Placemark>
        <Placemark id="14493">
            <name>2</name>
            <Point id="14492">
                <coordinates>80.12267685976127,12.923213890791041,0.0</coordinates>
            </Point>
        </Placemark>
        <Placemark id="14495">
            <name>3</name>
            <Point id="14494">
                <coordinates>80.1232080753658,12.922549152110355,0.0</coordinates>
            </Point>
        </Placemark>
        <Placemark id="14497">
            <name>4</name>
            <Point id="14496">
                <coordinates>80.12373614030298,12.92192462833882,0.0</coordinates>
            </Point>
        </Placemark>
        <Placemark id="14499">
            <name>5</name>
            <Point id="14498">
                <coordinates>80.12456388969366,12.921863686479703,0.0</coordinates>
            </Point>
        </Placemark>
        <Placemark id="14501">
            <name>6</name>
            <Point id="14500">
                <coordinates>80.12493590228019,12.922535422900138,0.0</coordinates>
            </Point>
        </Placemark>
        <Placemark id="14503">
            <name>7</name>
            <Point id="14502">
                <coordinates>80.12441257578516,12.923146899596933,0.0</coordinates>
            </Point>
        </Placemark>
        <Placemark id="14505">
            <name>8</name>
            <Point id="14504">
                <coordinates>80.12362804029588,12.923449460652618,0.0</coordinates>
            </Point>
        </Placemark>
        <Placemark id="14507">
            <name>9</name>
            <Point id="14506">
                <coordinates>80.12281212338706,12.92376412415053,0.0</coordinates>
            </Point>
        </Placemark>
        <Placemark id="14509">
            <name>10</name>
            <Point id="14508">
                <coordinates>80.12199620647823,12.924078787648442,0.0</coordinates>
            </Point>
        </Placemark>
        <Placemark id="14511">
            <name>11</name>
            <Point id="14510">
                <coordinates>80.12199424434644,12.924079544356932,0.0</coordinates>
            </Point>
        </Placemark>
        <Placemark id="14513">
            <name>12</name>
            <Point id="14512">
                <coordinates>80.10356406053302,12.924080194670188,0.0</coordinates>
            </Point>
        </Placemark>
        <Placemark id="14515">
            <name>13</name>
            <Point id="14514">
                <coordinates>80.10300152637646,12.923524865930833,0.0</coordinates>
            </Point>
        </Placemark>
        <Placemark id="14517">
            <name>14</name>
            <Point id="14516">
                <coordinates>80.10241248831089,12.922949017985832,0.0</coordinates>
            </Point>
        </Placemark>
        <Placemark id="14519">
            <name>15</name>
            <Point id="14518">
                <coordinates>80.10180817708586,12.922389692413422,0.0</coordinates>
            </Point>
        </Placemark>
        <Placemark id="14521">
            <name>16</name>
            <Point id="14520">
                <coordinates>80.10100639363428,12.922405663328144,0.0</coordinates>
            </Point>
        </Placemark>
        <Placemark id="14523">
            <name>17</name>
            <Point id="14522">
                <coordinates>80.10068452399139,12.923070419427894,0.0</coordinates>
            </Point>
        </Placemark>
        <Placemark id="14525">
            <name>18</name>
            <Point id="14524">
                <coordinates>80.10119518201941,12.923655958426512,0.0</coordinates>
            </Point>
        </Placemark>
        <Placemark id="14527">
            <name>19</name>
            <Point id="14526">
                <coordinates>80.10198424133978,12.923947813379252,0.0</coordinates>
            </Point>
        </Placemark>
        <Placemark id="14529">
            <name>20</name>
            <Point id="14528">
                <coordinates>80.10277330066015,12.92423966833199,0.0</coordinates>
            </Point>
        </Placemark>
        <Placemark id="14531">
            <name>21</name>
            <Point id="14530">
                <coordinates>80.10356235998051,12.924531523284731,0.0</coordinates>
            </Point>
        </Placemark>
        <Placemark id="14533">
            <name>22</name>
            <Point id="14532">
                <coordinates>80.10356406053302,12.924532152280113,0.0</coordinates>
            </Point>
        </Placemark>
        <Placemark id="14535">
            <name>23</name>
            <Point id="14534">
                <coordinates>80.12199427749562,12.924531501943356,0.0</coordinates>
            </Point>
        </Placemark>
        <Placemark id="14537">
            <name>24</name>
            <Point id="14536">
                <coordinates>80.12267692642722,12.924117806243007,0.0</coordinates>
            </Point>
        </Placemark>
        <Placemark id="14539">
            <name>25</name>
            <Point id="14538">
                <coordinates>80.12320814394975,12.923453068932547,0.0</coordinates>
            </Point>
        </Placemark>
        <Placemark id="14541">
            <name>26</name>
            <Point id="14540">
                <coordinates>80.1237362106889,12.922828546523112,0.0</coordinates>
            </Point>
        </Placemark>
        <Placemark id="14543">
            <name>27</name>
            <Point id="14542">
                <coordinates>80.12456396025541,12.922767606799102,0.0</coordinates>
            </Point>
        </Placemark>
        <Placemark id="14545">
            <name>28</name>
            <Point id="14544">
                <coordinates>80.12493597090375,12.923439344179108,0.0</coordinates>
            </Point>
        </Placemark>
        <Placemark id="14547">
            <name>29</name>
            <Point id="14546">
                <coordinates>80.1244126426658,12.92405081957565,0.0</coordinates>
            </Point>
        </Placemark>
        <Placemark id="14549">
            <name>30</name>
            <Point id="14548">
                <coordinates>80.12362810657113,12.924353379227972,0.0</coordinates>
            </Point>
        </Placemark>
        <Placemark id="14551">
            <name>31</name>
            <Point id="14550">
                <coordinates>80.12281218903267,12.924668041266388,0.0</coordinates>
            </Point>
        </Placemark>
        <Placemark id="14553">
            <name>32</name>
            <Point id="14552">
                <coordinates>80.12199627149423,12.924982703304805,0.0</coordinates>
            </Point>
        </Placemark>
        <Placemark id="14555">
            <name>33</name>
            <Point id="14554">
                <coordinates>80.12199431064606,12.924983459514165,0.0</coordinates>
            </Point>
        </Placemark>
        <Placemark id="14557">
            <name>34</name>
            <Point id="14556">
                <coordinates>80.10356406053302,12.924984109874424,0.0</coordinates>
            </Point>
        </Placemark>
        <Placemark id="14559">
            <name>35</name>
            <Point id="14558">
                <coordinates>80.10300152536725,12.924428782057952,0.0</coordinates>
            </Point>
        </Placemark>
        <Placemark id="14561">
            <name>36</name>
            <Point id="14560">
                <coordinates>80.10241248615482,12.923852935161678,0.0</coordinates>
            </Point>
        </Placemark>
        <Placemark id="14563">
            <name>37</name>
            <Point id="14562">
                <coordinates>80.10180817381585,12.923293610665187,0.0</coordinates>
            </Point>
        </Placemark>
        <Placemark id="14565">
            <name>38</name>
            <Point id="14564">
                <coordinates>80.1010063903961,12.92330958300741,0.0</coordinates>
            </Point>
        </Placemark>
        <Placemark id="14567">
            <name>39</name>
            <Point id="14566">
                <coordinates>80.10068452207712,12.923974339680218,0.0</coordinates>
            </Point>
        </Placemark>
        <Placemark id="14569">
            <name>40</name>
            <Point id="14568">
                <coordinates>80.10119518126932,12.924559877774401,0.0</coordinates>
            </Point>
        </Placemark>
        <Placemark id="14571">
            <name>41</name>
            <Point id="14570">
                <coordinates>80.10198424112184,12.924851731440933,0.0</coordinates>
            </Point>
        </Placemark>
        <Placemark id="14573">
            <name>42</name>
            <Point id="14572">
                <coordinates>80.10277330097438,12.925143585107463,0.0</coordinates>
            </Point>
        </Placemark>
        <Placemark id="14575">
            <name>43</name>
            <Point id="14574">
                <coordinates>80.10356236082691,12.925435438773995,0.0</coordinates>
            </Point>
        </Placemark>
        <Placemark id="14577">
            <name>44</name>
            <Point id="14576">
                <coordinates>80.10356406053302,12.925436067453122,0.0</coordinates>
            </Point>
        </Placemark>
        <Placemark id="14579">
            <name>45</name>
            <Point id="14578">
                <coordinates>80.12199434379775,12.925435417069359,0.0</coordinates>
            </Point>
        </Placemark>
        <Placemark id="14581">
            <name>46</name>
            <Point id="14580">
                <coordinates>80.12267699309822,12.925021721632536,0.0</coordinates>
            </Point>
        </Placemark>
        <Placemark id="14583">
            <name>47</name>
            <Point id="14582">
                <coordinates>80.12320821253888,12.924356985692402,0.0</coordinates>
            </Point>
        </Placemark>
        <Placemark id="14585">
            <name>48</name>
            <Point id="14584">
                <coordinates>80.12373628108013,12.923732464645168,0.0</coordinates>
            </Point>
        </Placemark>
        <Placemark id="14587">
            <name>49</name>
            <Point id="14586">
                <coordinates>80.12456403082248,12.923671527056419,0.0</coordinates>
            </Point>
        </Placemark>
        <Placemark id="14589">
            <name>50</name>
            <Point id="14588">
                <coordinates>80.12493603953249,12.92434326539606,0.0</coordinates>
            </Point>
        </Placemark>
        <Placemark id="14591">
            <name>51</name>
            <Point id="14590">
                <coordinates>80.12441270955149,12.924954739492248,0.0</coordinates>
            </Point>
        </Placemark>
        <Placemark id="14593">
            <name>52</name>
            <Point id="14592">
                <coordinates>80.12362817285138,12.92525729774111,0.0</coordinates>
            </Point>
        </Placemark>
        <Placemark id="14595">
            <name>53</name>
            <Point id="14594">
                <coordinates>80.12281225468327,12.925571958319926,0.0</coordinates>
            </Point>
        </Placemark>
        <Placemark id="14597">
            <name>54</name>
            <Point id="14596">
                <coordinates>80.12199633651515,12.925886618898742,0.0</coordinates>
            </Point>
        </Placemark>
        <Placemark id="14599">
            <name>55</name>
            <Point id="14598">
                <coordinates>80.12199437695071,12.925887374608942,0.0</coordinates>
            </Point>
        </Placemark>
        <Placemark id="14601">
            <name>56</name>
            <Point id="14600">
                <coordinates>80.10356406053302,12.925888025016205,0.0</coordinates>
            </Point>
        </Placemark>
        <Placemark id="14603">
            <name>57</name>
            <Point id="14602">
                <coordinates>80.10300152435795,12.925332698122679,0.0</coordinates>
            </Point>
        </Placemark>
        <Placemark id="14605">
            <name>58</name>
            <Point id="14604">
                <coordinates>80.1024124839986,12.92475685227521,0.0</coordinates>
            </Point>
        </Placemark>
        <Placemark id="14607">
            <name>59</name>
            <Point id="14606">
                <coordinates>80.10180817054564,12.924197528854718,0.0</coordinates>
            </Point>
        </Placemark>
        <Placemark id="14609">
            <name>60</name>
            <Point id="14608">
                <coordinates>80.10100638715768,12.924213502624541,0.0</coordinates>
            </Point>
        </Placemark>
        <Placemark id="14611">
            <name>61</name>
            <Point id="14610">
                <coordinates>80.1006845201627,12.924878259870445,0.0</coordinates>
            </Point>
        </Placemark>
        <Placemark id="14613">
            <name>62</name>
            <Point id="14612">
                <coordinates>80.10119518051917,12.925463797060129,0.0</coordinates>
            </Point>
        </Placemark>
        <Placemark id="14615">
            <name>63</name>
            <Point id="14614">
                <coordinates>80.1019842409039,12.925755649440358,0.0</coordinates>
            </Point>
        </Placemark>
        <Placemark id="14617">
            <name>64</name>
            <Point id="14616">
                <coordinates>80.10277330128864,12.92604750182059,0.0</coordinates>
            </Point>
        </Placemark>
        <Placemark id="14619">
            <name>65</name>
            <Point id="14618">
                <coordinates>80.10356236167335,12.926339354200818,0.0</coordinates>
            </Point>
        </Placemark>
        <Placemark id="14621">
            <name>66</name>
            <Point id="14620">
                <coordinates>80.10356406053302,12.926339982563672,0.0</coordinates>
            </Point>
        </Placemark>
        <Placemark id="14623">
            <name>67</name>
            <Point id="14622">
                <coordinates>80.12199441010493,12.926339332132905,0.0</coordinates>
            </Point>
        </Placemark>
        <Placemark id="14625">
            <name>68</name>
            <Point id="14624">
                <coordinates>80.1226770597743,12.925925636959626,0.0</coordinates>
            </Point>
        </Placemark>
        <Placemark id="14627">
            <name>69</name>
            <Point id="14626">
                <coordinates>80.12320828113323,12.925260902389928,0.0</coordinates>
            </Point>
        </Placemark>
        <Placemark id="14629">
            <name>70</name>
            <Point id="14628">
                <coordinates>80.1237363514767,12.924636382705,0.0</coordinates>
            </Point>
        </Placemark>
        <Placemark id="14631">
            <name>71</name>
            <Point id="14630">
                <coordinates>80.1245641013949,12.924575447251668,0.0</coordinates>
            </Point>
        </Placemark>
        <Placemark id="14633">
            <name>72</name>
            <Point id="14632">
                <coordinates>80.12493610816642,12.925247186551008,0.0</coordinates>
            </Point>
        </Placemark>
        <Placemark id="14635">
            <name>73</name>
            <Point id="14634">
                <coordinates>80.12441277644227,12.925858659346746,0.0</coordinates>
            </Point>
        </Placemark>
        <Placemark id="14637">
            <name>74</name>
            <Point id="14636">
                <coordinates>80.12362823913668,12.926161216192039,0.0</coordinates>
            </Point>
        </Placemark>
        <Placemark id="14639">
            <name>75</name>
            <Point id="14638">
                <coordinates>80.12281232033885,12.926475875311143,0.0</coordinates>
            </Point>
        </Placemark>
        <Placemark id="14641">
            <name>76</name>
            <Point id="14640">
                <coordinates>80.12199640154103,12.926790534430248,0.0</coordinates>
            </Point>
        </Placemark>
        <Placemark id="14643">
            <name>77</name>
            <Point id="14642">
                <coordinates>80.1219944432604,12.926791289641253,0.0</coordinates>
            </Point>
        </Placemark>
        <Placemark id="14645">
            <name>78</name>
            <Point id="14644">
                <coordinates>80.10356406053302,12.926791940095521,0.0</coordinates>
            </Point>
        </Placemark>
        <Placemark id="14647">
            <name>79</name>
            <Point id="14646">
                <coordinates>80.1030015233486,12.926236614125012,0.0</coordinates>
            </Point>
        </Placemark>
        <Placemark id="14649">
            <name>80</name>
            <Point id="14648">
                <coordinates>80.10241248184225,12.925660769326425,0.0</coordinates>
            </Point>
        </Placemark>
        <Placemark id="14651">
            <name>81</name>
            <Point id="14650">
                <coordinates>80.10180816727518,12.925101446982012,0.0</coordinates>
            </Point>
        </Placemark>
        <Placemark id="14653">
            <name>82</name>
            <Point id="14652">
                <coordinates>80.10100638391904,12.92511742217954,0.0</coordinates>
            </Point>
        </Placemark>
        <Placemark id="14655">
            <name>83</name>
            <Point id="14654">
                <coordinates>80.10068451824817,12.925782179998578,0.0</coordinates>
            </Point>
        </Placemark>
        <Placemark id="14657">
            <name>84</name>
            <Point id="14656">
                <coordinates>80.10119517976898,12.926367716283693,0.0</coordinates>
            </Point>
        </Placemark>
        <Placemark id="14659">
            <name>85</name>
            <Point id="14658">
                <coordinates>80.10198424068594,12.926659567377527,0.0</coordinates>
            </Point>
        </Placemark>
        <Placemark id="14661">
            <name>86</name>
            <Point id="14660">
                <coordinates>80.10277330160291,12.926951418471363,0.0</coordinates>
            </Point>
        </Placemark>
        <Placemark id="14663">
            <name>87</name>
            <Point id="14662">
                <coordinates>80.10356236251988,12.927243269565198,0.0</coordinates>
            </Point>
        </Placemark>
        <Placemark id="14665">
            <name>88</name>
            <Point id="14664">
                <coordinates>80.10356406053302,12.927243897611755,0.0</coordinates>
            </Point>
        </Placemark>
        <Placemark id="14667">
            <name>89</name>
            <Point id="14666">
                <coordinates>80.12199447641714,12.927243247133985,0.0</coordinates>
            </Point>
        </Placemark>
    </Document>
</kml>
