<?xml version="1.0" encoding="UTF-8"?>
<kml xmlns="http://www.opengis.net/kml/2.2" xmlns:gx="http://www.google.com/kml/ext/2.2">
    <Document id="13281">
        <Style id="13284">
            <LineStyle id="13285">
                <color>ffff0000</color>
                <colorMode>normal</colorMode>
                <width>2</width>
            </LineStyle>
        </Style>
        <Placemark id="13283">
            <styleUrl>#13284</styleUrl>
            <LineString id="13282">
                <altitudeMode>clampToGround</altitudeMode>
                <coordinates>80.03476654247599,12.940217796219766,0.0 80.05319791069499,12.940217145067304,0.0 80.05319791069499,12.940217145067304,0.0 80.05388056603128,12.939803453942728,0.0 80.05388056603128,12.939803453942728,0.0 80.05441181685819,12.939138740426284,0.0 80.05441181685819,12.939138740426284,0.0 80.05493991488687,12.938514241669695,0.0 80.05493991488687,12.938514241669695,0.0 80.05576766750569,12.938453339020715,0.0 80.05576766750569,12.938453339020715,0.0 80.0561396444979,12.939125093062351,0.0 80.0561396444979,12.939125093062351,0.0 80.05561628599578,12.939736545879972,0.0 80.05561628599578,12.939736545879972,0.0 80.05483173938902,12.940039081163468,0.0 80.05483173938902,12.940039081163468,0.0 80.05401581091797,12.940353717858304,0.0 80.05401581091797,12.940353717858304,0.0 80.05319988244693,12.940668354553141,0.0 80.05319988244693,12.940668354553141,0.0 80.05319794388912,12.940669102095903,0.0 80.05319794388912,12.940669102095903,0.0 80.03476654247599,12.940669753271871,0.0 80.03476654247599,12.940669753271871,0.0 80.03421454620319,12.940123460098144,0.0 80.03421454620319,12.940123460098144,0.0 80.03363548129458,12.93955810042381,0.0 80.03363548129458,12.93955810042381,0.0 80.03304662717525,12.939003794930487,0.0 80.03304662717525,12.939003794930487,0.0 80.03227304278133,12.93899923535031,0.0 80.03227304278133,12.93899923535031,0.0 80.03194806753535,12.93968734019813,0.0 80.03194806753535,12.93968734019813,0.0 80.03245160181446,12.940264086127375,0.0 80.03245160181446,12.940264086127375,0.0 80.03321613485153,12.94054732536138,0.0 80.03321613485153,12.94054732536138,0.0 80.0339806678886,12.940830564595386,0.0 80.0339806678886,12.940830564595386,0.0 80.03474520092567,12.94111380382939,0.0 80.03474520092567,12.94111380382939,0.0 80.03476654247599,12.941121710308343,0.0 80.03476654247599,12.941121710308343,0.0 80.05319797708451,12.941121059108871,0.0 80.05319797708451,12.941121059108871,0.0 80.05388063279013,12.940707368248166,0.0 80.05388063279013,12.940707368248166,0.0 80.05441188553749,12.940042656103845,0.0 80.05441188553749,12.940042656103845,0.0 80.05493998537042,12.939418158711238,0.0 80.05493998537042,12.939418158711238,0.0 80.0557677381652,12.939357258200188,0.0 80.0557677381652,12.939357258200188,0.0 80.05613971321661,12.940029013202569,0.0 80.05613971321661,12.940029013202569,0.0 80.05561635296937,12.940640464718138,0.0 80.05561635296937,12.940640464718138,0.0 80.05483180575644,12.940942998596396,0.0 80.05483180575644,12.940942998596396,0.0 80.05401587665499,12.941257633829785,0.0 80.05401587665499,12.941257633829785,0.0 80.05319994755355,12.941572269063174,0.0 80.05319994755355,12.941572269063174,0.0 80.05319801028116,12.941573016106204,0.0 80.05319801028116,12.941573016106204,0.0 80.03476654247599,12.94157366732918,0.0 80.03476654247599,12.94157366732918,0.0 80.03421454527658,12.941027375067234,0.0 80.03421454527658,12.941027375067234,0.0 80.0336354792649,12.940462016478355,0.0 80.0336354792649,12.940462016478355,0.0 80.03304662406406,12.939907712088836,0.0 80.03304662406406,12.939907712088836,0.0 80.03227303966123,12.939903153958738,0.0 80.03227303966123,12.939903153958738,0.0 80.03194806575785,12.940591259415719,0.0 80.03194806575785,12.940591259415719,0.0 80.03245160115817,12.941168004411676,0.0 80.03245160115817,12.941168004411676,0.0 80.03321613469684,12.941451242344883,0.0 80.03321613469684,12.941451242344883,0.0 80.03398066823553,12.941734480278088,0.0 80.03398066823553,12.941734480278088,0.0 80.03474520177421,12.942017718211295,0.0 80.03474520177421,12.942017718211295,0.0 80.03476654247599,12.942025624334386,0.0 80.03476654247599,12.942025624334386,0.0 80.05319804347907,12.942024973087905,0.0 80.05319804347907,12.942024973087905,0.0 80.05388069955403,12.94161128249109,0.0 80.05388069955403,12.94161128249109,0.0 80.05441195422199,12.940946571718996,0.0 80.05441195422199,12.940946571718996,0.0 80.05494005585932,12.940322075690473,0.0 80.05494005585932,12.940322075690473,0.0 80.05576780883005,12.940261177317508,0.0 80.05576780883005,12.940261177317508,0.0 80.05613978194053,12.940932933280695,0.0 80.05613978194053,12.940932933280695,0.0 80.05561641994801,12.941544383494117,0.0 80.05561641994801,12.941544383494117,0.0 80.05483187212889,12.941846915967036,0.0 80.05483187212889,12.941846915967036,0.0 80.054015942397,12.942161549738872,0.0 80.054015942397,12.942161549738872,0.0 80.0532000126651,12.942476183510706,0.0 80.0532000126651,12.942476183510706,0.0 80.05319807667824,12.942476930053976,0.0 80.05319807667824,12.942476930053976,0.0 80.03476654247599,12.94247758132396,0.0 80.03476654247599,12.94247758132396,0.0 80.03421454434992,12.941931289973866,0.0 80.03421454434992,12.941931289973866,0.0 80.03363547723508,12.941365932470523,0.0 80.03363547723508,12.941365932470523,0.0 80.03304662095263,12.940811629184894,0.0 80.03304662095263,12.940811629184894,0.0 80.03227303654091,12.940807072504985,0.0 80.03227303654091,12.940807072504985,0.0 80.0319480639802,12.941495178571172,0.0 80.0319480639802,12.941495178571172,0.0 80.03245160050183,12.942071922633769,0.0 80.03245160050183,12.942071922633769,0.0 80.03321613454216,12.942355159266077,0.0 80.03321613454216,12.942355159266077,0.0 80.03398066858249,12.942638395898385,0.0 80.03398066858249,12.942638395898385,0.0 80.03474520262282,12.942921632530693,0.0 80.03474520262282,12.942921632530693,0.0 80.03476654247599,12.942929538297902,0.0 80.03476654247599,12.942929538297902,0.0 80.05319810987866,12.94292888700441,0.0 80.05319810987866,12.94292888700441,0.0 80.05388076632299,12.942515196671504,0.0 80.05388076632299,12.942515196671504,0.0 80.05441202291168,12.94185048727174,0.0 80.05441202291168,12.94185048727174,0.0 80.05494012635353,12.9412259926074,0.0 80.05494012635353,12.9412259926074,0.0 80.05576787950022,12.941165096372671,0.0 80.05576787950022,12.941165096372671,0.0 80.05613985066961,12.941836853296731,0.0 80.05613985066961,12.941836853296731,0.0 80.0556164869317,12.942448302207906,0.0 80.0556164869317,12.942448302207906,0.0 80.05483193850634,12.942750833275383,0.0 80.05483193850634,12.942750833275383,0.0 80.05401600814398,12.943065465585558,0.0 80.05401600814398,12.943065465585558,0.0 80.0532000777816,12.943380097895734,0.0 80.0532000777816,12.943380097895734,0.0 80.05319814308035,12.94338084393921,0.0 80.05319814308035,12.94338084393921,0.0 80.03476654247599,12.943381495256205,0.0 80.03476654247599,12.943381495256205,0.0 80.0342145434232,12.942835204818026,0.0 80.0342145434232,12.942835204818026,0.0 80.0336354752051,12.9422698484003,0.0 80.0336354752051,12.9422698484003,0.0 80.033046617841,12.941715546218639,0.0 80.033046617841,12.941715546218639,0.0 80.03227303342038,12.941710990989018,0.0 80.03227303342038,12.941710990989018,0.0 80.03194806220245,12.94239909766445,0.0 80.03194806220245,12.94239909766445,0.0 80.03245159984546,12.94297584079362,0.0 80.03245159984546,12.94297584079362,0.0 80.03321613438747,12.943259076124939,0.0 80.03321613438747,12.943259076124939,0.0 80.03398066892949,12.943542311456257,0.0 80.03398066892949,12.943542311456257,0.0 80.03474520347149,12.943825546787576,0.0 80.03474520347149,12.943825546787576,0.0 80.03476654247599,12.943833452198877,0.0 80.03476654247599,12.943833452198877,0.0 80.0531981762833,12.943832800858374,0.0 80.0531981762833,12.943832800858374,0.0 80.05482730756293,12.942234886605021,0.0</coordinates>
            </LineString>
        </Placemark>
        <Placemark id="13287">
            <name>0</name>
            <Point id="13286">
                <coordinates>80.03476654247599,12.940217796219766,0.0</coordinates>
            </Point>
        </Placemark>
        <Placemark id="13289">
            <name>1</name>
            <Point id="13288">
                <coordinates>80.05319791069499,12.940217145067304,0.0</coordinates>
            </Point>
        </Placemark>
        <Placemark id="13291">
            <name>2</name>
            <Point id="13290">
                <coordinates>80.05388056603128,12.939803453942728,0.0</coordinates>
            </Point>
        </Placemark>
        <Placemark id="13293">
            <name>3</name>
            <Point id="13292">
                <coordinates>80.05441181685819,12.939138740426284,0.0</coordinates>
            </Point>
        </Placemark>
        <Placemark id="13295">
            <name>4</name>
            <Point id="13294">
                <coordinates>80.05493991488687,12.938514241669695,0.0</coordinates>
            </Point>
        </Placemark>
        <Placemark id="13297">
            <name>5</name>
            <Point id="13296">
                <coordinates>80.05576766750569,12.938453339020715,0.0</coordinates>
            </Point>
        </Placemark>
        <Placemark id="13299">
            <name>6</name>
            <Point id="13298">
                <coordinates>80.0561396444979,12.939125093062351,0.0</coordinates>
            </Point>
        </Placemark>
        <Placemark id="13301">
            <name>7</name>
            <Point id="13300">
                <coordinates>80.05561628599578,12.939736545879972,0.0</coordinates>
            </Point>
        </Placemark>
        <Placemark id="13303">
            <name>8</name>
            <Point id="13302">
                <coordinates>80.05483173938902,12.940039081163468,0.0</coordinates>
            </Point>
        </Placemark>
        <Placemark id="13305">
            <name>9</name>
            <Point id="13304">
                <coordinates>80.05401581091797,12.940353717858304,0.0</coordinates>
            </Point>
        </Placemark>
        <Placemark id="13307">
            <name>10</name>
            <Point id="13306">
                <coordinates>80.05319988244693,12.940668354553141,0.0</coordinates>
            </Point>
        </Placemark>
        <Placemark id="13309">
            <name>11</name>
            <Point id="13308">
                <coordinates>80.05319794388912,12.940669102095903,0.0</coordinates>
            </Point>
        </Placemark>
        <Placemark id="13311">
            <name>12</name>
            <Point id="13310">
                <coordinates>80.03476654247599,12.940669753271871,0.0</coordinates>
            </Point>
        </Placemark>
        <Placemark id="13313">
            <name>13</name>
            <Point id="13312">
                <coordinates>80.03421454620319,12.940123460098144,0.0</coordinates>
            </Point>
        </Placemark>
        <Placemark id="13315">
            <name>14</name>
            <Point id="13314">
                <coordinates>80.03363548129458,12.93955810042381,0.0</coordinates>
            </Point>
        </Placemark>
        <Placemark id="13317">
            <name>15</name>
            <Point id="13316">
                <coordinates>80.03304662717525,12.939003794930487,0.0</coordinates>
            </Point>
        </Placemark>
        <Placemark id="13319">
            <name>16</name>
            <Point id="13318">
                <coordinates>80.03227304278133,12.93899923535031,0.0</coordinates>
            </Point>
        </Placemark>
        <Placemark id="13321">
            <name>17</name>
            <Point id="13320">
                <coordinates>80.03194806753535,12.93968734019813,0.0</coordinates>
            </Point>
        </Placemark>
        <Placemark id="13323">
            <name>18</name>
            <Point id="13322">
                <coordinates>80.03245160181446,12.940264086127375,0.0</coordinates>
            </Point>
        </Placemark>
        <Placemark id="13325">
            <name>19</name>
            <Point id="13324">
                <coordinates>80.03321613485153,12.94054732536138,0.0</coordinates>
            </Point>
        </Placemark>
        <Placemark id="13327">
            <name>20</name>
            <Point id="13326">
                <coordinates>80.0339806678886,12.940830564595386,0.0</coordinates>
            </Point>
        </Placemark>
        <Placemark id="13329">
            <name>21</name>
            <Point id="13328">
                <coordinates>80.03474520092567,12.94111380382939,0.0</coordinates>
            </Point>
        </Placemark>
        <Placemark id="13331">
            <name>22</name>
            <Point id="13330">
                <coordinates>80.03476654247599,12.941121710308343,0.0</coordinates>
            </Point>
        </Placemark>
        <Placemark id="13333">
            <name>23</name>
            <Point id="13332">
                <coordinates>80.05319797708451,12.941121059108871,0.0</coordinates>
            </Point>
        </Placemark>
        <Placemark id="13335">
            <name>24</name>
            <Point id="13334">
                <coordinates>80.05388063279013,12.940707368248166,0.0</coordinates>
            </Point>
        </Placemark>
        <Placemark id="13337">
            <name>25</name>
            <Point id="13336">
                <coordinates>80.05441188553749,12.940042656103845,0.0</coordinates>
            </Point>
        </Placemark>
        <Placemark id="13339">
            <name>26</name>
            <Point id="13338">
                <coordinates>80.05493998537042,12.939418158711238,0.0</coordinates>
            </Point>
        </Placemark>
        <Placemark id="13341">
            <name>27</name>
            <Point id="13340">
                <coordinates>80.0557677381652,12.939357258200188,0.0</coordinates>
            </Point>
        </Placemark>
        <Placemark id="13343">
            <name>28</name>
            <Point id="13342">
                <coordinates>80.05613971321661,12.940029013202569,0.0</coordinates>
            </Point>
        </Placemark>
        <Placemark id="13345">
            <name>29</name>
            <Point id="13344">
                <coordinates>80.05561635296937,12.940640464718138,0.0</coordinates>
            </Point>
        </Placemark>
        <Placemark id="13347">
            <name>30</name>
            <Point id="13346">
                <coordinates>80.05483180575644,12.940942998596396,0.0</coordinates>
            </Point>
        </Placemark>
        <Placemark id="13349">
            <name>31</name>
            <Point id="13348">
                <coordinates>80.05401587665499,12.941257633829785,0.0</coordinates>
            </Point>
        </Placemark>
        <Placemark id="13351">
            <name>32</name>
            <Point id="13350">
                <coordinates>80.05319994755355,12.941572269063174,0.0</coordinates>
            </Point>
        </Placemark>
        <Placemark id="13353">
            <name>33</name>
            <Point id="13352">
                <coordinates>80.05319801028116,12.941573016106204,0.0</coordinates>
            </Point>
        </Placemark>
        <Placemark id="13355">
            <name>34</name>
            <Point id="13354">
                <coordinates>80.03476654247599,12.94157366732918,0.0</coordinates>
            </Point>
        </Placemark>
        <Placemark id="13357">
            <name>35</name>
            <Point id="13356">
                <coordinates>80.03421454527658,12.941027375067234,0.0</coordinates>
            </Point>
        </Placemark>
        <Placemark id="13359">
            <name>36</name>
            <Point id="13358">
                <coordinates>80.0336354792649,12.940462016478355,0.0</coordinates>
            </Point>
        </Placemark>
        <Placemark id="13361">
            <name>37</name>
            <Point id="13360">
                <coordinates>80.03304662406406,12.939907712088836,0.0</coordinates>
            </Point>
        </Placemark>
        <Placemark id="13363">
            <name>38</name>
            <Point id="13362">
                <coordinates>80.03227303966123,12.939903153958738,0.0</coordinates>
            </Point>
        </Placemark>
        <Placemark id="13365">
            <name>39</name>
            <Point id="13364">
                <coordinates>80.03194806575785,12.940591259415719,0.0</coordinates>
            </Point>
        </Placemark>
        <Placemark id="13367">
            <name>40</name>
            <Point id="13366">
                <coordinates>80.03245160115817,12.941168004411676,0.0</coordinates>
            </Point>
        </Placemark>
        <Placemark id="13369">
            <name>41</name>
            <Point id="13368">
                <coordinates>80.03321613469684,12.941451242344883,0.0</coordinates>
            </Point>
        </Placemark>
        <Placemark id="13371">
            <name>42</name>
            <Point id="13370">
                <coordinates>80.03398066823553,12.941734480278088,0.0</coordinates>
            </Point>
        </Placemark>
        <Placemark id="13373">
            <name>43</name>
            <Point id="13372">
                <coordinates>80.03474520177421,12.942017718211295,0.0</coordinates>
            </Point>
        </Placemark>
        <Placemark id="13375">
            <name>44</name>
            <Point id="13374">
                <coordinates>80.03476654247599,12.942025624334386,0.0</coordinates>
            </Point>
        </Placemark>
        <Placemark id="13377">
            <name>45</name>
            <Point id="13376">
                <coordinates>80.05319804347907,12.942024973087905,0.0</coordinates>
            </Point>
        </Placemark>
        <Placemark id="13379">
            <name>46</name>
            <Point id="13378">
                <coordinates>80.05388069955403,12.94161128249109,0.0</coordinates>
            </Point>
        </Placemark>
        <Placemark id="13381">
            <name>47</name>
            <Point id="13380">
                <coordinates>80.05441195422199,12.940946571718996,0.0</coordinates>
            </Point>
        </Placemark>
        <Placemark id="13383">
            <name>48</name>
            <Point id="13382">
                <coordinates>80.05494005585932,12.940322075690473,0.0</coordinates>
            </Point>
        </Placemark>
        <Placemark id="13385">
            <name>49</name>
            <Point id="13384">
                <coordinates>80.05576780883005,12.940261177317508,0.0</coordinates>
            </Point>
        </Placemark>
        <Placemark id="13387">
            <name>50</name>
            <Point id="13386">
                <coordinates>80.05613978194053,12.940932933280695,0.0</coordinates>
            </Point>
        </Placemark>
        <Placemark id="13389">
            <name>51</name>
            <Point id="13388">
                <coordinates>80.05561641994801,12.941544383494117,0.0</coordinates>
            </Point>
        </Placemark>
        <Placemark id="13391">
            <name>52</name>
            <Point id="13390">
                <coordinates>80.05483187212889,12.941846915967036,0.0</coordinates>
            </Point>
        </Placemark>
        <Placemark id="13393">
            <name>53</name>
            <Point id="13392">
                <coordinates>80.054015942397,12.942161549738872,0.0</coordinates>
            </Point>
        </Placemark>
        <Placemark id="13395">
            <name>54</name>
            <Point id="13394">
                <coordinates>80.0532000126651,12.942476183510706,0.0</coordinates>
            </Point>
        </Placemark>
        <Placemark id="13397">
            <name>55</name>
            <Point id="13396">
                <coordinates>80.05319807667824,12.942476930053976,0.0</coordinates>
            </Point>
        </Placemark>
        <Placemark id="13399">
            <name>56</name>
            <Point id="13398">
                <coordinates>80.03476654247599,12.94247758132396,0.0</coordinates>
            </Point>
        </Placemark>
        <Placemark id="13401">
            <name>57</name>
            <Point id="13400">
                <coordinates>80.03421454434992,12.941931289973866,0.0</coordinates>
            </Point>
        </Placemark>
        <Placemark id="13403">
            <name>58</name>
            <Point id="13402">
                <coordinates>80.03363547723508,12.941365932470523,0.0</coordinates>
            </Point>
        </Placemark>
        <Placemark id="13405">
            <name>59</name>
            <Point id="13404">
                <coordinates>80.03304662095263,12.940811629184894,0.0</coordinates>
            </Point>
        </Placemark>
        <Placemark id="13407">
            <name>60</name>
            <Point id="13406">
                <coordinates>80.03227303654091,12.940807072504985,0.0</coordinates>
            </Point>
        </Placemark>
        <Placemark id="13409">
            <name>61</name>
            <Point id="13408">
                <coordinates>80.0319480639802,12.941495178571172,0.0</coordinates>
            </Point>
        </Placemark>
        <Placemark id="13411">
            <name>62</name>
            <Point id="13410">
                <coordinates>80.03245160050183,12.942071922633769,0.0</coordinates>
            </Point>
        </Placemark>
        <Placemark id="13413">
            <name>63</name>
            <Point id="13412">
                <coordinates>80.03321613454216,12.942355159266077,0.0</coordinates>
            </Point>
        </Placemark>
        <Placemark id="13415">
            <name>64</name>
            <Point id="13414">
                <coordinates>80.03398066858249,12.942638395898385,0.0</coordinates>
            </Point>
        </Placemark>
        <Placemark id="13417">
            <name>65</name>
            <Point id="13416">
                <coordinates>80.03474520262282,12.942921632530693,0.0</coordinates>
            </Point>
        </Placemark>
        <Placemark id="13419">
            <name>66</name>
            <Point id="13418">
                <coordinates>80.03476654247599,12.942929538297902,0.0</coordinates>
            </Point>
        </Placemark>
        <Placemark id="13421">
            <name>67</name>
            <Point id="13420">
                <coordinates>80.05319810987866,12.94292888700441,0.0</coordinates>
            </Point>
        </Placemark>
        <Placemark id="13423">
            <name>68</name>
            <Point id="13422">
                <coordinates>80.05388076632299,12.942515196671504,0.0</coordinates>
            </Point>
        </Placemark>
        <Placemark id="13425">
            <name>69</name>
            <Point id="13424">
                <coordinates>80.05441202291168,12.94185048727174,0.0</coordinates>
            </Point>
        </Placemark>
        <Placemark id="13427">
            <name>70</name>
            <Point id="13426">
                <coordinates>80.05494012635353,12.9412259926074,0.0</coordinates>
            </Point>
        </Placemark>
        <Placemark id="13429">
            <name>71</name>
            <Point id="13428">
                <coordinates>80.05576787950022,12.941165096372671,0.0</coordinates>
            </Point>
        </Placemark>
        <Placemark id="13431">
            <name>72</name>
            <Point id="13430">
                <coordinates>80.05613985066961,12.941836853296731,0.0</coordinates>
            </Point>
        </Placemark>
        <Placemark id="13433">
            <name>73</name>
            <Point id="13432">
                <coordinates>80.0556164869317,12.942448302207906,0.0</coordinates>
            </Point>
        </Placemark>
        <Placemark id="13435">
            <name>74</name>
            <Point id="13434">
                <coordinates>80.05483193850634,12.942750833275383,0.0</coordinates>
            </Point>
        </Placemark>
        <Placemark id="13437">
            <name>75</name>
            <Point id="13436">
                <coordinates>80.05401600814398,12.943065465585558,0.0</coordinates>
            </Point>
        </Placemark>
        <Placemark id="13439">
            <name>76</name>
            <Point id="13438">
                <coordinates>80.0532000777816,12.943380097895734,0.0</coordinates>
            </Point>
        </Placemark>
        <Placemark id="13441">
            <name>77</name>
            <Point id="13440">
                <coordinates>80.05319814308035,12.94338084393921,0.0</coordinates>
            </Point>
        </Placemark>
        <Placemark id="13443">
            <name>78</name>
            <Point id="13442">
                <coordinates>80.03476654247599,12.943381495256205,0.0</coordinates>
            </Point>
        </Placemark>
        <Placemark id="13445">
            <name>79</name>
            <Point id="13444">
                <coordinates>80.0342145434232,12.942835204818026,0.0</coordinates>
            </Point>
        </Placemark>
        <Placemark id="13447">
            <name>80</name>
            <Point id="13446">
                <coordinates>80.0336354752051,12.9422698484003,0.0</coordinates>
            </Point>
        </Placemark>
        <Placemark id="13449">
            <name>81</name>
            <Point id="13448">
                <coordinates>80.033046617841,12.941715546218639,0.0</coordinates>
            </Point>
        </Placemark>
        <Placemark id="13451">
            <name>82</name>
            <Point id="13450">
                <coordinates>80.03227303342038,12.941710990989018,0.0</coordinates>
            </Point>
        </Placemark>
        <Placemark id="13453">
            <name>83</name>
            <Point id="13452">
                <coordinates>80.03194806220245,12.94239909766445,0.0</coordinates>
            </Point>
        </Placemark>
        <Placemark id="13455">
            <name>84</name>
            <Point id="13454">
                <coordinates>80.03245159984546,12.94297584079362,0.0</coordinates>
            </Point>
        </Placemark>
        <Placemark id="13457">
            <name>85</name>
            <Point id="13456">
                <coordinates>80.03321613438747,12.943259076124939,0.0</coordinates>
            </Point>
        </Placemark>
        <Placemark id="13459">
            <name>86</name>
            <Point id="13458">
                <coordinates>80.03398066892949,12.943542311456257,0.0</coordinates>
            </Point>
        </Placemark>
        <Placemark id="13461">
            <name>87</name>
            <Point id="13460">
                <coordinates>80.03474520347149,12.943825546787576,0.0</coordinates>
            </Point>
        </Placemark>
        <Placemark id="13463">
            <name>88</name>
            <Point id="13462">
                <coordinates>80.03476654247599,12.943833452198877,0.0</coordinates>
            </Point>
        </Placemark>
        <Placemark id="13465">
            <name>89</name>
            <Point id="13464">
                <coordinates>80.0531981762833,12.943832800858374,0.0</coordinates>
            </Point>
        </Placemark>
    </Document>
</kml>
