<?xml version="1.0" encoding="UTF-8"?>
<kml xmlns="http://www.opengis.net/kml/2.2" xmlns:gx="http://www.google.com/kml/ext/2.2">
    <Document id="14723">
        <Style id="14726">
            <LineStyle id="14727">
                <color>ffff0000</color>
                <colorMode>normal</colorMode>
                <width>2</width>
            </LineStyle>
        </Style>
        <Placemark id="14725">
            <styleUrl>#14726</styleUrl>
            <LineString id="14724">
                <altitudeMode>clampToGround</altitudeMode>
                <coordinates>80.10356406053302,12.927243897611762,0.0 80.12199447641714,12.927243247133992,0.0 80.12199447641714,12.927243247133992,0.0 80.12267712645544,12.926829552224278,0.0 80.12267712645544,12.926829552224278,0.0 80.12320834973276,12.926164819025114,0.0 80.12320834973276,12.926164819025114,0.0 80.12373642187856,12.92554030070259,0.0 80.12373642187856,12.92554030070259,0.0 80.12456417197262,12.92547936738482,0.0 80.12456417197262,12.92547936738482,0.0 80.12493617680552,12.926151107643923,0.0 80.12493617680552,12.926151107643923,0.0 80.1244128433381,12.926762579139115,0.0 80.1244128433381,12.926762579139115,0.0 80.12362830542698,12.927065134580744,0.0 80.12362830542698,12.927065134580744,0.0 80.12281238599941,12.927379792240037,0.0 80.12281238599941,12.927379792240037,0.0 80.12199646657184,12.927694449899333,0.0 80.12199646657184,12.927694449899333,0.0 80.12199450957513,12.927695204611112,0.0 80.12199450957513,12.927695204611112,0.0 80.10356406053302,12.92769585511238,0.0 80.10356406053302,12.92769585511238,0.0 80.10300152233916,12.927140530064959,0.0 80.10300152233916,12.927140530064959,0.0 80.10241247968573,12.926564686315336,0.0 80.10241247968573,12.926564686315336,0.0 80.10180816400448,12.926005365047082,0.0 80.10180816400448,12.926005365047082,0.0 80.10100638068018,12.92602134167242,0.0 80.10100638068018,12.92602134167242,0.0 80.1006845163335,12.926686100064634,0.0 80.1006845163335,12.926686100064634,0.0 80.10119517901873,12.927271635445113,0.0 80.10119517901873,12.927271635445113,0.0 80.10198424046797,12.927563485252454,0.0 80.10198424046797,12.927563485252454,0.0 80.10277330191721,12.927855335059796,0.0 80.10277330191721,12.927855335059796,0.0 80.10356236336645,12.92814718486714,0.0 80.10356236336645,12.92814718486714,0.0 80.10356406053302,12.92814781259738,0.0 80.10356406053302,12.92814781259738,0.0 80.12199454273438,12.928147162072607,0.0 80.12199454273438,12.928147162072607,0.0 80.12267719314163,12.927733467426478,0.0 80.12267719314163,12.927733467426478,0.0 80.1232084183375,12.927068735597953,0.0 80.1232084183375,12.927068735597953,0.0 80.12373649228576,12.926444218637938,0.0 80.12373649228576,12.926444218637938,0.0 80.12456424255568,12.92638328745589,0.0 80.12456424255568,12.92638328745589,0.0 80.12493624544982,12.927055028674818,0.0 80.12493624544982,12.927055028674818,0.0 80.124412910239,12.927666498869366,0.0 80.124412910239,12.927666498869366,0.0 80.1236283717223,12.927969052907223,0.0 80.1236283717223,12.927969052907223,0.0 80.12281245166494,12.928283709106594,0.0 80.12281245166494,12.928283709106594,0.0 80.12199653160758,12.928598365305966,0.0 80.12199653160758,12.928598365305966,0.0 80.12199457589489,12.928599119518486,0.0 80.12199457589489,12.928599119518486,0.0 80.10356406053302,12.928599770066763,0.0 80.10356406053302,12.928599770066763,0.0 80.10300152132965,12.928044445942495,0.0 80.10300152132965,12.928044445942495,0.0 80.10241247752904,12.92746860324191,0.0 80.10241247752904,12.92746860324191,0.0 80.10180816073355,12.926909283049897,0.0 80.10180816073355,12.926909283049897,0.0 80.10100637744108,12.926925261103149,0.0 80.10100637744108,12.926925261103149,0.0 80.1006845144187,12.927590020068576,0.0 80.1006845144187,12.927590020068576,0.0 80.10119517826845,12.92817555454435,0.0 80.10119517826845,12.92817555454435,0.0 80.10198424025,12.928467403065106,0.0 80.10198424025,12.928467403065106,0.0 80.10277330223154,12.928759251585863,0.0 80.10277330223154,12.928759251585863,0.0 80.10356236421309,12.92905110010662,0.0 80.10356236421309,12.92905110010662,0.0 80.10356406053302,12.929051727520525,0.0 80.10356406053302,12.929051727520525,0.0 80.12199460905666,12.929051076948744,0.0 80.12199460905666,12.929051076948744,0.0 80.12267725983288,12.928637382566219,0.0 80.12267725983288,12.928637382566219,0.0 80.1232084869474,12.927972652108439,0.0 80.1232084869474,12.927972652108439,0.0 80.12373656269827,12.927348136511036,0.0 80.12373656269827,12.927348136511036,0.0 80.12456431314406,12.927287207464866,0.0 80.12456431314406,12.927287207464866,0.0 80.12493631409929,12.927958949643687,0.0 80.12493631409929,12.927958949643687,0.0 80.12441297714496,12.928570418537488,0.0 80.12441297714496,12.928570418537488,0.0 80.12362843802265,12.928872971171474,0.0 80.12362843802265,12.928872971171474,0.0 80.12281251733545,12.92918762591082,0.0 80.12281251733545,12.92918762591082,0.0 80.12199659664826,12.929502280650167,0.0 80.12199659664826,12.929502280650167,0.0 80.12199464221969,12.92950303436339,0.0 80.12199464221969,12.92950303436339,0.0 80.10356406053302,12.929503684958672,0.0 80.10356406053302,12.929503684958672,0.0 80.10300152032008,12.928948361757627,0.0 80.10300152032008,12.928948361757627,0.0 80.10241247537223,12.928372520106159,0.0 80.10241247537223,12.928372520106159,0.0 80.10180815746241,12.927813200990462,0.0 80.10180815746241,12.927813200990462,0.0 80.10100637420176,12.927829180471727,0.0 80.10100637420176,12.927829180471727,0.0 80.10068451250379,12.928493940010407,0.0 80.10068451250379,12.928493940010407,0.0 80.10119517751812,12.92907947358141,0.0 80.10119517751812,12.92907947358141,0.0 80.10198424003201,12.92937132081549,0.0 80.10198424003201,12.92937132081549,0.0 80.1027733025459,12.929663168049569,0.0 80.1027733025459,12.929663168049569,0.0 80.1035623650598,12.92995501528365,0.0 80.1035623650598,12.92995501528365,0.0 80.10356406053302,12.9299556423812,0.0 80.10356406053302,12.9299556423812,0.0 80.12199467538397,12.929954991762413,0.0 80.12199467538397,12.929954991762413,0.0 80.1226773265292,12.929541297643514,0.0 80.1226773265292,12.929541297643514,0.0 80.12320855556253,12.92887656855658,0.0 80.12320855556253,12.92887656855658,0.0 80.12373663311611,12.928252054321895,0.0 80.12373663311611,12.928252054321895,0.0 80.12456438373778,12.928191127411758,0.0 80.12456438373778,12.928191127411758,0.0 80.12493638275396,12.928862870550534,0.0 80.12493638275396,12.928862870550534,0.0 80.12441304405597,12.929474338143491,0.0 80.12441304405597,12.929474338143491,0.0 80.12362850432802,12.929776889373498,0.0 80.12362850432802,12.929776889373498,0.0 80.12281258301094,12.930091542652708,0.0 80.12281258301094,12.930091542652708,0.0 80.12199666169387,12.930406195931916,0.0 80.12199666169387,12.930406195931916,0.0 80.12199470854951,12.930406949145818,0.0 80.12199470854951,12.930406949145818,0.0 80.10356406053302,12.930407599788106,0.0 80.10356406053302,12.930407599788106,0.0 80.10193501636991,12.928809683899035,0.0</coordinates>
            </LineString>
        </Placemark>
        <Placemark id="14729">
            <name>0</name>
            <Point id="14728">
                <coordinates>80.10356406053302,12.927243897611762,0.0</coordinates>
            </Point>
        </Placemark>
        <Placemark id="14731">
            <name>1</name>
            <Point id="14730">
                <coordinates>80.12199447641714,12.927243247133992,0.0</coordinates>
            </Point>
        </Placemark>
        <Placemark id="14733">
            <name>2</name>
            <Point id="14732">
                <coordinates>80.12267712645544,12.926829552224278,0.0</coordinates>
            </Point>
        </Placemark>
        <Placemark id="14735">
            <name>3</name>
            <Point id="14734">
                <coordinates>80.12320834973276,12.926164819025114,0.0</coordinates>
            </Point>
        </Placemark>
        <Placemark id="14737">
            <name>4</name>
            <Point id="14736">
                <coordinates>80.12373642187856,12.92554030070259,0.0</coordinates>
            </Point>
        </Placemark>
        <Placemark id="14739">
            <name>5</name>
            <Point id="14738">
                <coordinates>80.12456417197262,12.92547936738482,0.0</coordinates>
            </Point>
        </Placemark>
        <Placemark id="14741">
            <name>6</name>
            <Point id="14740">
                <coordinates>80.12493617680552,12.926151107643923,0.0</coordinates>
            </Point>
        </Placemark>
        <Placemark id="14743">
            <name>7</name>
            <Point id="14742">
                <coordinates>80.1244128433381,12.926762579139115,0.0</coordinates>
            </Point>
        </Placemark>
        <Placemark id="14745">
            <name>8</name>
            <Point id="14744">
                <coordinates>80.12362830542698,12.927065134580744,0.0</coordinates>
            </Point>
        </Placemark>
        <Placemark id="14747">
            <name>9</name>
            <Point id="14746">
                <coordinates>80.12281238599941,12.927379792240037,0.0</coordinates>
            </Point>
        </Placemark>
        <Placemark id="14749">
            <name>10</name>
            <Point id="14748">
                <coordinates>80.12199646657184,12.927694449899333,0.0</coordinates>
            </Point>
        </Placemark>
        <Placemark id="14751">
            <name>11</name>
            <Point id="14750">
                <coordinates>80.12199450957513,12.927695204611112,0.0</coordinates>
            </Point>
        </Placemark>
        <Placemark id="14753">
            <name>12</name>
            <Point id="14752">
                <coordinates>80.10356406053302,12.92769585511238,0.0</coordinates>
            </Point>
        </Placemark>
        <Placemark id="14755">
            <name>13</name>
            <Point id="14754">
                <coordinates>80.10300152233916,12.927140530064959,0.0</coordinates>
            </Point>
        </Placemark>
        <Placemark id="14757">
            <name>14</name>
            <Point id="14756">
                <coordinates>80.10241247968573,12.926564686315336,0.0</coordinates>
            </Point>
        </Placemark>
        <Placemark id="14759">
            <name>15</name>
            <Point id="14758">
                <coordinates>80.10180816400448,12.926005365047082,0.0</coordinates>
            </Point>
        </Placemark>
        <Placemark id="14761">
            <name>16</name>
            <Point id="14760">
                <coordinates>80.10100638068018,12.92602134167242,0.0</coordinates>
            </Point>
        </Placemark>
        <Placemark id="14763">
            <name>17</name>
            <Point id="14762">
                <coordinates>80.1006845163335,12.926686100064634,0.0</coordinates>
            </Point>
        </Placemark>
        <Placemark id="14765">
            <name>18</name>
            <Point id="14764">
                <coordinates>80.10119517901873,12.927271635445113,0.0</coordinates>
            </Point>
        </Placemark>
        <Placemark id="14767">
            <name>19</name>
            <Point id="14766">
                <coordinates>80.10198424046797,12.927563485252454,0.0</coordinates>
            </Point>
        </Placemark>
        <Placemark id="14769">
            <name>20</name>
            <Point id="14768">
                <coordinates>80.10277330191721,12.927855335059796,0.0</coordinates>
            </Point>
        </Placemark>
        <Placemark id="14771">
            <name>21</name>
            <Point id="14770">
                <coordinates>80.10356236336645,12.92814718486714,0.0</coordinates>
            </Point>
        </Placemark>
        <Placemark id="14773">
            <name>22</name>
            <Point id="14772">
                <coordinates>80.10356406053302,12.92814781259738,0.0</coordinates>
            </Point>
        </Placemark>
        <Placemark id="14775">
            <name>23</name>
            <Point id="14774">
                <coordinates>80.12199454273438,12.928147162072607,0.0</coordinates>
            </Point>
        </Placemark>
        <Placemark id="14777">
            <name>24</name>
            <Point id="14776">
                <coordinates>80.12267719314163,12.927733467426478,0.0</coordinates>
            </Point>
        </Placemark>
        <Placemark id="14779">
            <name>25</name>
            <Point id="14778">
                <coordinates>80.1232084183375,12.927068735597953,0.0</coordinates>
            </Point>
        </Placemark>
        <Placemark id="14781">
            <name>26</name>
            <Point id="14780">
                <coordinates>80.12373649228576,12.926444218637938,0.0</coordinates>
            </Point>
        </Placemark>
        <Placemark id="14783">
            <name>27</name>
            <Point id="14782">
                <coordinates>80.12456424255568,12.92638328745589,0.0</coordinates>
            </Point>
        </Placemark>
        <Placemark id="14785">
            <name>28</name>
            <Point id="14784">
                <coordinates>80.12493624544982,12.927055028674818,0.0</coordinates>
            </Point>
        </Placemark>
        <Placemark id="14787">
            <name>29</name>
            <Point id="14786">
                <coordinates>80.124412910239,12.927666498869366,0.0</coordinates>
            </Point>
        </Placemark>
        <Placemark id="14789">
            <name>30</name>
            <Point id="14788">
                <coordinates>80.1236283717223,12.927969052907223,0.0</coordinates>
            </Point>
        </Placemark>
        <Placemark id="14791">
            <name>31</name>
            <Point id="14790">
                <coordinates>80.12281245166494,12.928283709106594,0.0</coordinates>
            </Point>
        </Placemark>
        <Placemark id="14793">
            <name>32</name>
            <Point id="14792">
                <coordinates>80.12199653160758,12.928598365305966,0.0</coordinates>
            </Point>
        </Placemark>
        <Placemark id="14795">
            <name>33</name>
            <Point id="14794">
                <coordinates>80.12199457589489,12.928599119518486,0.0</coordinates>
            </Point>
        </Placemark>
        <Placemark id="14797">
            <name>34</name>
            <Point id="14796">
                <coordinates>80.10356406053302,12.928599770066763,0.0</coordinates>
            </Point>
        </Placemark>
        <Placemark id="14799">
            <name>35</name>
            <Point id="14798">
                <coordinates>80.10300152132965,12.928044445942495,0.0</coordinates>
            </Point>
        </Placemark>
        <Placemark id="14801">
            <name>36</name>
            <Point id="14800">
                <coordinates>80.10241247752904,12.92746860324191,0.0</coordinates>
            </Point>
        </Placemark>
        <Placemark id="14803">
            <name>37</name>
            <Point id="14802">
                <coordinates>80.10180816073355,12.926909283049897,0.0</coordinates>
            </Point>
        </Placemark>
        <Placemark id="14805">
            <name>38</name>
            <Point id="14804">
                <coordinates>80.10100637744108,12.926925261103149,0.0</coordinates>
            </Point>
        </Placemark>
        <Placemark id="14807">
            <name>39</name>
            <Point id="14806">
                <coordinates>80.1006845144187,12.927590020068576,0.0</coordinates>
            </Point>
        </Placemark>
        <Placemark id="14809">
            <name>40</name>
            <Point id="14808">
                <coordinates>80.10119517826845,12.92817555454435,0.0</coordinates>
            </Point>
        </Placemark>
        <Placemark id="14811">
            <name>41</name>
            <Point id="14810">
                <coordinates>80.10198424025,12.928467403065106,0.0</coordinates>
            </Point>
        </Placemark>
        <Placemark id="14813">
            <name>42</name>
            <Point id="14812">
                <coordinates>80.10277330223154,12.928759251585863,0.0</coordinates>
            </Point>
        </Placemark>
        <Placemark id="14815">
            <name>43</name>
            <Point id="14814">
                <coordinates>80.10356236421309,12.92905110010662,0.0</coordinates>
            </Point>
        </Placemark>
        <Placemark id="14817">
            <name>44</name>
            <Point id="14816">
                <coordinates>80.10356406053302,12.929051727520525,0.0</coordinates>
            </Point>
        </Placemark>
        <Placemark id="14819">
            <name>45</name>
            <Point id="14818">
                <coordinates>80.12199460905666,12.929051076948744,0.0</coordinates>
            </Point>
        </Placemark>
        <Placemark id="14821">
            <name>46</name>
            <Point id="14820">
                <coordinates>80.12267725983288,12.928637382566219,0.0</coordinates>
            </Point>
        </Placemark>
        <Placemark id="14823">
            <name>47</name>
            <Point id="14822">
                <coordinates>80.1232084869474,12.927972652108439,0.0</coordinates>
            </Point>
        </Placemark>
        <Placemark id="14825">
            <name>48</name>
            <Point id="14824">
                <coordinates>80.12373656269827,12.927348136511036,0.0</coordinates>
            </Point>
        </Placemark>
        <Placemark id="14827">
            <name>49</name>
            <Point id="14826">
                <coordinates>80.12456431314406,12.927287207464866,0.0</coordinates>
            </Point>
        </Placemark>
        <Placemark id="14829">
            <name>50</name>
            <Point id="14828">
                <coordinates>80.12493631409929,12.927958949643687,0.0</coordinates>
            </Point>
        </Placemark>
        <Placemark id="14831">
            <name>51</name>
            <Point id="14830">
                <coordinates>80.12441297714496,12.928570418537488,0.0</coordinates>
            </Point>
        </Placemark>
        <Placemark id="14833">
            <name>52</name>
            <Point id="14832">
                <coordinates>80.12362843802265,12.928872971171474,0.0</coordinates>
            </Point>
        </Placemark>
        <Placemark id="14835">
            <name>53</name>
            <Point id="14834">
                <coordinates>80.12281251733545,12.92918762591082,0.0</coordinates>
            </Point>
        </Placemark>
        <Placemark id="14837">
            <name>54</name>
            <Point id="14836">
                <coordinates>80.12199659664826,12.929502280650167,0.0</coordinates>
            </Point>
        </Placemark>
        <Placemark id="14839">
            <name>55</name>
            <Point id="14838">
                <coordinates>80.12199464221969,12.92950303436339,0.0</coordinates>
            </Point>
        </Placemark>
        <Placemark id="14841">
            <name>56</name>
            <Point id="14840">
                <coordinates>80.10356406053302,12.929503684958672,0.0</coordinates>
            </Point>
        </Placemark>
        <Placemark id="14843">
            <name>57</name>
            <Point id="14842">
                <coordinates>80.10300152032008,12.928948361757627,0.0</coordinates>
            </Point>
        </Placemark>
        <Placemark id="14845">
            <name>58</name>
            <Point id="14844">
                <coordinates>80.10241247537223,12.928372520106159,0.0</coordinates>
            </Point>
        </Placemark>
        <Placemark id="14847">
            <name>59</name>
            <Point id="14846">
                <coordinates>80.10180815746241,12.927813200990462,0.0</coordinates>
            </Point>
        </Placemark>
        <Placemark id="14849">
            <name>60</name>
            <Point id="14848">
                <coordinates>80.10100637420176,12.927829180471727,0.0</coordinates>
            </Point>
        </Placemark>
        <Placemark id="14851">
            <name>61</name>
            <Point id="14850">
                <coordinates>80.10068451250379,12.928493940010407,0.0</coordinates>
            </Point>
        </Placemark>
        <Placemark id="14853">
            <name>62</name>
            <Point id="14852">
                <coordinates>80.10119517751812,12.92907947358141,0.0</coordinates>
            </Point>
        </Placemark>
        <Placemark id="14855">
            <name>63</name>
            <Point id="14854">
                <coordinates>80.10198424003201,12.92937132081549,0.0</coordinates>
            </Point>
        </Placemark>
        <Placemark id="14857">
            <name>64</name>
            <Point id="14856">
                <coordinates>80.1027733025459,12.929663168049569,0.0</coordinates>
            </Point>
        </Placemark>
        <Placemark id="14859">
            <name>65</name>
            <Point id="14858">
                <coordinates>80.1035623650598,12.92995501528365,0.0</coordinates>
            </Point>
        </Placemark>
        <Placemark id="14861">
            <name>66</name>
            <Point id="14860">
                <coordinates>80.10356406053302,12.9299556423812,0.0</coordinates>
            </Point>
        </Placemark>
        <Placemark id="14863">
            <name>67</name>
            <Point id="14862">
                <coordinates>80.12199467538397,12.929954991762413,0.0</coordinates>
            </Point>
        </Placemark>
        <Placemark id="14865">
            <name>68</name>
            <Point id="14864">
                <coordinates>80.1226773265292,12.929541297643514,0.0</coordinates>
            </Point>
        </Placemark>
        <Placemark id="14867">
            <name>69</name>
            <Point id="14866">
                <coordinates>80.12320855556253,12.92887656855658,0.0</coordinates>
            </Point>
        </Placemark>
        <Placemark id="14869">
            <name>70</name>
            <Point id="14868">
                <coordinates>80.12373663311611,12.928252054321895,0.0</coordinates>
            </Point>
        </Placemark>
        <Placemark id="14871">
            <name>71</name>
            <Point id="14870">
                <coordinates>80.12456438373778,12.928191127411758,0.0</coordinates>
            </Point>
        </Placemark>
        <Placemark id="14873">
            <name>72</name>
            <Point id="14872">
                <coordinates>80.12493638275396,12.928862870550534,0.0</coordinates>
            </Point>
        </Placemark>
        <Placemark id="14875">
            <name>73</name>
            <Point id="14874">
                <coordinates>80.12441304405597,12.929474338143491,0.0</coordinates>
            </Point>
        </Placemark>
        <Placemark id="14877">
            <name>74</name>
            <Point id="14876">
                <coordinates>80.12362850432802,12.929776889373498,0.0</coordinates>
            </Point>
        </Placemark>
        <Placemark id="14879">
            <name>75</name>
            <Point id="14878">
                <coordinates>80.12281258301094,12.930091542652708,0.0</coordinates>
            </Point>
        </Placemark>
        <Placemark id="14881">
            <name>76</name>
            <Point id="14880">
                <coordinates>80.12199666169387,12.930406195931916,0.0</coordinates>
            </Point>
        </Placemark>
        <Placemark id="14883">
            <name>77</name>
            <Point id="14882">
                <coordinates>80.12199470854951,12.930406949145818,0.0</coordinates>
            </Point>
        </Placemark>
        <Placemark id="14885">
            <name>78</name>
            <Point id="14884">
                <coordinates>80.10356406053302,12.930407599788106,0.0</coordinates>
            </Point>
        </Placemark>
    </Document>
</kml>
