<?xml version="1.0" encoding="UTF-8"?>
<kml xmlns="http://www.opengis.net/kml/2.2" xmlns:gx="http://www.google.com/kml/ext/2.2">
    <Document id="883">
        <Style id="886">
            <LineStyle id="887">
                <color>ff000000</color>
                <colorMode>normal</colorMode>
                <width>2</width>
            </LineStyle>
        </Style>
        <Placemark id="885">
            <styleUrl>#886</styleUrl>
            <LineString id="884">
                <altitudeMode>clampToGround</altitudeMode>
                <coordinates>80.13599669245588,13.022753126548498,0.0 80.14982478068907,13.022752757860008,0.0 80.15145442607061,13.021154853254252,0.0 80.14982488096751,13.024560574468817,0.0 80.13599669245588,13.024560943210224,0.0 80.13436703525558,13.022963038826155,0.0 80.13599669245588,13.026368759620334,0.0 80.14982498126108,13.026368390826008,0.0 80.15145465027709,13.024770486663558,0.0 80.14982508156977,13.028176206931546,0.0 80.13599669245588,13.028176575778794,0.0 80.13436701161753,13.026578671838083,0.0</coordinates>
            </LineString>
        </Placemark>
        <Placemark id="889">
            <name>1</name>
            <Point id="888">
                <coordinates>80.13599669245588,13.022753126548498,0.0</coordinates>
            </Point>
        </Placemark>
        <Placemark id="891">
            <name>2</name>
            <Point id="890">
                <coordinates>80.14982478068907,13.022752757860008,0.0</coordinates>
            </Point>
        </Placemark>
        <Placemark id="893">
            <name>3</name>
            <Point id="892">
                <coordinates>80.15145442607061,13.021154853254252,0.0</coordinates>
            </Point>
        </Placemark>
        <Placemark id="895">
            <name>4</name>
            <Point id="894">
                <coordinates>80.14982488096751,13.024560574468817,0.0</coordinates>
            </Point>
        </Placemark>
        <Placemark id="897">
            <name>5</name>
            <Point id="896">
                <coordinates>80.13599669245588,13.024560943210224,0.0</coordinates>
            </Point>
        </Placemark>
        <Placemark id="899">
            <name>6</name>
            <Point id="898">
                <coordinates>80.13436703525558,13.022963038826155,0.0</coordinates>
            </Point>
        </Placemark>
        <Placemark id="901">
            <name>7</name>
            <Point id="900">
                <coordinates>80.13599669245588,13.026368759620334,0.0</coordinates>
            </Point>
        </Placemark>
        <Placemark id="903">
            <name>8</name>
            <Point id="902">
                <coordinates>80.14982498126108,13.026368390826008,0.0</coordinates>
            </Point>
        </Placemark>
        <Placemark id="905">
            <name>9</name>
            <Point id="904">
                <coordinates>80.15145465027709,13.024770486663558,0.0</coordinates>
            </Point>
        </Placemark>
        <Placemark id="907">
            <name>10</name>
            <Point id="906">
                <coordinates>80.14982508156977,13.028176206931546,0.0</coordinates>
            </Point>
        </Placemark>
        <Placemark id="909">
            <name>11</name>
            <Point id="908">
                <coordinates>80.13599669245588,13.028176575778794,0.0</coordinates>
            </Point>
        </Placemark>
        <Placemark id="911">
            <name>12</name>
            <Point id="910">
                <coordinates>80.13436701161753,13.026578671838083,0.0</coordinates>
            </Point>
        </Placemark>
    </Document>
</kml>
