<?xml version="1.0" encoding="UTF-8"?>
<kml xmlns="http://www.opengis.net/kml/2.2" xmlns:gx="http://www.google.com/kml/ext/2.2">
    <Document id="549">
        <Style id="552">
            <LineStyle id="553">
                <color>ff000000</color>
                <colorMode>normal</colorMode>
                <width>2</width>
            </LineStyle>
        </Style>
        <Placemark id="551">
            <styleUrl>#552</styleUrl>
            <LineString id="550">
                <altitudeMode>clampToGround</altitudeMode>
                <coordinates>80.24875960646614,13.37780116946327,0.0 80.2672237048992,13.377800495514668,0.0 80.26885570529392,13.376202634987138,0.0 80.26722377373723,13.378704378811413,0.0 80.24875960646614,13.378705052807188,0.0 80.24712759998319,13.377107192393362,0.0 80.24875960646614,13.379608936086617,0.0 80.26722384258035,13.379608262043673,0.0 80.26885585514289,13.378010401743394,0.0 80.26722391142854,13.380512145211444,0.0 80.24875960646614,13.380512819301556,0.0 80.24712758781448,13.378914959114997,0.0 80.24875960646614,13.381416702451999,0.0 80.26722398028183,13.381416028314714,0.0 80.26885600501399,13.379818168241709,0.0 80.26722404914018,13.382319911353484,0.0 80.24875960646614,13.382320585537938,0.0 80.24712757564396,13.38072272557867,0.0 80.24875960646614,13.383224468559376,0.0 80.26722411800361,13.383223794327748,0.0 80.26885615490718,13.381625934482052,0.0 80.26722418687213,13.384127677237508,0.0 80.24875960646614,13.384128351516308,0.0 80.24712756347164,13.382530491784355,0.0 80.24875960646614,13.385032234408726,0.0 80.26722425574573,13.385031560082755,0.0 80.26885630482252,13.383433700464392,0.0 80.26722432462441,13.38593544286348,0.0 80.24875960646614,13.385936117236625,0.0 80.24712755129752,13.38433825773202,0.0</coordinates>
            </LineString>
        </Placemark>
        <Placemark id="555">
            <name>1</name>
            <Point id="554">
                <coordinates>80.24875960646614,13.37780116946327,0.0</coordinates>
            </Point>
        </Placemark>
        <Placemark id="557">
            <name>2</name>
            <Point id="556">
                <coordinates>80.2672237048992,13.377800495514668,0.0</coordinates>
            </Point>
        </Placemark>
        <Placemark id="559">
            <name>3</name>
            <Point id="558">
                <coordinates>80.26885570529392,13.376202634987138,0.0</coordinates>
            </Point>
        </Placemark>
        <Placemark id="561">
            <name>4</name>
            <Point id="560">
                <coordinates>80.26722377373723,13.378704378811413,0.0</coordinates>
            </Point>
        </Placemark>
        <Placemark id="563">
            <name>5</name>
            <Point id="562">
                <coordinates>80.24875960646614,13.378705052807188,0.0</coordinates>
            </Point>
        </Placemark>
        <Placemark id="565">
            <name>6</name>
            <Point id="564">
                <coordinates>80.24712759998319,13.377107192393362,0.0</coordinates>
            </Point>
        </Placemark>
        <Placemark id="567">
            <name>7</name>
            <Point id="566">
                <coordinates>80.24875960646614,13.379608936086617,0.0</coordinates>
            </Point>
        </Placemark>
        <Placemark id="569">
            <name>8</name>
            <Point id="568">
                <coordinates>80.26722384258035,13.379608262043673,0.0</coordinates>
            </Point>
        </Placemark>
        <Placemark id="571">
            <name>9</name>
            <Point id="570">
                <coordinates>80.26885585514289,13.378010401743394,0.0</coordinates>
            </Point>
        </Placemark>
        <Placemark id="573">
            <name>10</name>
            <Point id="572">
                <coordinates>80.26722391142854,13.380512145211444,0.0</coordinates>
            </Point>
        </Placemark>
        <Placemark id="575">
            <name>11</name>
            <Point id="574">
                <coordinates>80.24875960646614,13.380512819301556,0.0</coordinates>
            </Point>
        </Placemark>
        <Placemark id="577">
            <name>12</name>
            <Point id="576">
                <coordinates>80.24712758781448,13.378914959114997,0.0</coordinates>
            </Point>
        </Placemark>
        <Placemark id="579">
            <name>13</name>
            <Point id="578">
                <coordinates>80.24875960646614,13.381416702451999,0.0</coordinates>
            </Point>
        </Placemark>
        <Placemark id="581">
            <name>14</name>
            <Point id="580">
                <coordinates>80.26722398028183,13.381416028314714,0.0</coordinates>
            </Point>
        </Placemark>
        <Placemark id="583">
            <name>15</name>
            <Point id="582">
                <coordinates>80.26885600501399,13.379818168241709,0.0</coordinates>
            </Point>
        </Placemark>
        <Placemark id="585">
            <name>16</name>
            <Point id="584">
                <coordinates>80.26722404914018,13.382319911353484,0.0</coordinates>
            </Point>
        </Placemark>
        <Placemark id="587">
            <name>17</name>
            <Point id="586">
                <coordinates>80.24875960646614,13.382320585537938,0.0</coordinates>
            </Point>
        </Placemark>
        <Placemark id="589">
            <name>18</name>
            <Point id="588">
                <coordinates>80.24712757564396,13.38072272557867,0.0</coordinates>
            </Point>
        </Placemark>
        <Placemark id="591">
            <name>19</name>
            <Point id="590">
                <coordinates>80.24875960646614,13.383224468559376,0.0</coordinates>
            </Point>
        </Placemark>
        <Placemark id="593">
            <name>20</name>
            <Point id="592">
                <coordinates>80.26722411800361,13.383223794327748,0.0</coordinates>
            </Point>
        </Placemark>
        <Placemark id="595">
            <name>21</name>
            <Point id="594">
                <coordinates>80.26885615490718,13.381625934482052,0.0</coordinates>
            </Point>
        </Placemark>
        <Placemark id="597">
            <name>22</name>
            <Point id="596">
                <coordinates>80.26722418687213,13.384127677237508,0.0</coordinates>
            </Point>
        </Placemark>
        <Placemark id="599">
            <name>23</name>
            <Point id="598">
                <coordinates>80.24875960646614,13.384128351516308,0.0</coordinates>
            </Point>
        </Placemark>
        <Placemark id="601">
            <name>24</name>
            <Point id="600">
                <coordinates>80.24712756347164,13.382530491784355,0.0</coordinates>
            </Point>
        </Placemark>
        <Placemark id="603">
            <name>25</name>
            <Point id="602">
                <coordinates>80.24875960646614,13.385032234408726,0.0</coordinates>
            </Point>
        </Placemark>
        <Placemark id="605">
            <name>26</name>
            <Point id="604">
                <coordinates>80.26722425574573,13.385031560082755,0.0</coordinates>
            </Point>
        </Placemark>
        <Placemark id="607">
            <name>27</name>
            <Point id="606">
                <coordinates>80.26885630482252,13.383433700464392,0.0</coordinates>
            </Point>
        </Placemark>
        <Placemark id="609">
            <name>28</name>
            <Point id="608">
                <coordinates>80.26722432462441,13.38593544286348,0.0</coordinates>
            </Point>
        </Placemark>
        <Placemark id="611">
            <name>29</name>
            <Point id="610">
                <coordinates>80.24875960646614,13.385936117236625,0.0</coordinates>
            </Point>
        </Placemark>
        <Placemark id="613">
            <name>30</name>
            <Point id="612">
                <coordinates>80.24712755129752,13.38433825773202,0.0</coordinates>
            </Point>
        </Placemark>
    </Document>
</kml>
