<?xml version="1.0" encoding="UTF-8"?>
<kml xmlns="http://www.opengis.net/kml/2.2" xmlns:gx="http://www.google.com/kml/ext/2.2">
    <Document id="989">
        <Style id="992">
            <LineStyle id="993">
                <color>ff000000</color>
                <colorMode>normal</colorMode>
                <width>2</width>
            </LineStyle>
        </Style>
        <Placemark id="991">
            <styleUrl>#992</styleUrl>
            <LineString id="990">
                <altitudeMode>clampToGround</altitudeMode>
                <coordinates>80.13599669245588,13.029532437732472,0.0 80.14982515681123,13.029532068845533,0.0 80.15145484651327,13.02793416507107,0.0 80.14982525714642,13.031339884510606,0.0 80.13599669245588,13.03134025345047,0.0 80.13436699092838,13.029742349897798,0.0 80.13599669245588,13.033148068916727,0.0 80.14982535749674,13.03314769992394,0.0 80.15145507084664,13.031549796593,0.0 80.14982545786219,13.034955515085505,0.0 80.13599669245588,13.034955884131215,0.0 80.13436696727695,13.033357981022114,0.0</coordinates>
            </LineString>
        </Placemark>
        <Placemark id="995">
            <name>1</name>
            <Point id="994">
                <coordinates>80.13599669245588,13.029532437732472,0.0</coordinates>
            </Point>
        </Placemark>
        <Placemark id="997">
            <name>2</name>
            <Point id="996">
                <coordinates>80.14982515681123,13.029532068845533,0.0</coordinates>
            </Point>
        </Placemark>
        <Placemark id="999">
            <name>3</name>
            <Point id="998">
                <coordinates>80.15145484651327,13.02793416507107,0.0</coordinates>
            </Point>
        </Placemark>
        <Placemark id="1001">
            <name>4</name>
            <Point id="1000">
                <coordinates>80.14982525714642,13.031339884510606,0.0</coordinates>
            </Point>
        </Placemark>
        <Placemark id="1003">
            <name>5</name>
            <Point id="1002">
                <coordinates>80.13599669245588,13.03134025345047,0.0</coordinates>
            </Point>
        </Placemark>
        <Placemark id="1005">
            <name>6</name>
            <Point id="1004">
                <coordinates>80.13436699092838,13.029742349897798,0.0</coordinates>
            </Point>
        </Placemark>
        <Placemark id="1007">
            <name>7</name>
            <Point id="1006">
                <coordinates>80.13599669245588,13.033148068916727,0.0</coordinates>
            </Point>
        </Placemark>
        <Placemark id="1009">
            <name>8</name>
            <Point id="1008">
                <coordinates>80.14982535749674,13.03314769992394,0.0</coordinates>
            </Point>
        </Placemark>
        <Placemark id="1011">
            <name>9</name>
            <Point id="1010">
                <coordinates>80.15145507084664,13.031549796593,0.0</coordinates>
            </Point>
        </Placemark>
        <Placemark id="1013">
            <name>10</name>
            <Point id="1012">
                <coordinates>80.14982545786219,13.034955515085505,0.0</coordinates>
            </Point>
        </Placemark>
        <Placemark id="1015">
            <name>11</name>
            <Point id="1014">
                <coordinates>80.13599669245588,13.034955884131215,0.0</coordinates>
            </Point>
        </Placemark>
        <Placemark id="1017">
            <name>12</name>
            <Point id="1016">
                <coordinates>80.13436696727695,13.033357981022114,0.0</coordinates>
            </Point>
        </Placemark>
    </Document>
</kml>
