<?xml version="1.0" encoding="UTF-8"?>
<kml xmlns="http://www.opengis.net/kml/2.2" xmlns:gx="http://www.google.com/kml/ext/2.2">
    <Document id="665">
        <Style id="668">
            <LineStyle id="669">
                <color>ff000000</color>
                <colorMode>normal</colorMode>
                <width>2</width>
            </LineStyle>
        </Style>
        <Placemark id="667">
            <styleUrl>#668</styleUrl>
            <LineString id="666">
                <altitudeMode>clampToGround</altitudeMode>
                <coordinates>80.10404697542093,13.01488199226435,0.0 80.1178746272239,13.014881623806257,0.0 80.1195042211785,13.013283718235837,0.0 80.11787472743644,13.016689441510218,0.0 80.10404697542093,13.016689810021223,0.0 80.10241736965533,13.015091904672362,0.0 80.10404697542093,13.01849762752662,0.0 80.11787482766412,13.018497258962698,0.0 80.11950444523768,13.016899353835331,0.0 80.11787492790693,13.020305076163677,0.0 80.10404697542093,13.020305444780513,0.0 80.10241734603281,13.018707539874763,0.0 80.10404697542093,13.022113261782863,0.0 80.11787502816487,13.022112893113102,0.0 80.11950466936452,13.020514988428907,0.0 80.11787512843794,13.023920709810962,0.0 80.10404697542093,13.023921078533638,0.0 80.10241732240316,13.022323174071119,0.0 80.10404697542093,13.025728895032811,0.0 80.11787522872615,13.025728526257216,0.0 80.11950489355901,13.024130622016306,0.0 80.1178753290295,13.027536342451825,0.0 80.10404697542093,13.027536711280344,0.0 80.10241729876637,13.025938807261165,0.0</coordinates>
            </LineString>
        </Placemark>
        <Placemark id="671">
            <name>1</name>
            <Point id="670">
                <coordinates>80.10404697542093,13.01488199226435,0.0</coordinates>
            </Point>
        </Placemark>
        <Placemark id="673">
            <name>2</name>
            <Point id="672">
                <coordinates>80.1178746272239,13.014881623806257,0.0</coordinates>
            </Point>
        </Placemark>
        <Placemark id="675">
            <name>3</name>
            <Point id="674">
                <coordinates>80.1195042211785,13.013283718235837,0.0</coordinates>
            </Point>
        </Placemark>
        <Placemark id="677">
            <name>4</name>
            <Point id="676">
                <coordinates>80.11787472743644,13.016689441510218,0.0</coordinates>
            </Point>
        </Placemark>
        <Placemark id="679">
            <name>5</name>
            <Point id="678">
                <coordinates>80.10404697542093,13.016689810021223,0.0</coordinates>
            </Point>
        </Placemark>
        <Placemark id="681">
            <name>6</name>
            <Point id="680">
                <coordinates>80.10241736965533,13.015091904672362,0.0</coordinates>
            </Point>
        </Placemark>
        <Placemark id="683">
            <name>7</name>
            <Point id="682">
                <coordinates>80.10404697542093,13.01849762752662,0.0</coordinates>
            </Point>
        </Placemark>
        <Placemark id="685">
            <name>8</name>
            <Point id="684">
                <coordinates>80.11787482766412,13.018497258962698,0.0</coordinates>
            </Point>
        </Placemark>
        <Placemark id="687">
            <name>9</name>
            <Point id="686">
                <coordinates>80.11950444523768,13.016899353835331,0.0</coordinates>
            </Point>
        </Placemark>
        <Placemark id="689">
            <name>10</name>
            <Point id="688">
                <coordinates>80.11787492790693,13.020305076163677,0.0</coordinates>
            </Point>
        </Placemark>
        <Placemark id="691">
            <name>11</name>
            <Point id="690">
                <coordinates>80.10404697542093,13.020305444780513,0.0</coordinates>
            </Point>
        </Placemark>
        <Placemark id="693">
            <name>12</name>
            <Point id="692">
                <coordinates>80.10241734603281,13.018707539874763,0.0</coordinates>
            </Point>
        </Placemark>
        <Placemark id="695">
            <name>13</name>
            <Point id="694">
                <coordinates>80.10404697542093,13.022113261782863,0.0</coordinates>
            </Point>
        </Placemark>
        <Placemark id="697">
            <name>14</name>
            <Point id="696">
                <coordinates>80.11787502816487,13.022112893113102,0.0</coordinates>
            </Point>
        </Placemark>
        <Placemark id="699">
            <name>15</name>
            <Point id="698">
                <coordinates>80.11950466936452,13.020514988428907,0.0</coordinates>
            </Point>
        </Placemark>
        <Placemark id="701">
            <name>16</name>
            <Point id="700">
                <coordinates>80.11787512843794,13.023920709810962,0.0</coordinates>
            </Point>
        </Placemark>
        <Placemark id="703">
            <name>17</name>
            <Point id="702">
                <coordinates>80.10404697542093,13.023921078533638,0.0</coordinates>
            </Point>
        </Placemark>
        <Placemark id="705">
            <name>18</name>
            <Point id="704">
                <coordinates>80.10241732240316,13.022323174071119,0.0</coordinates>
            </Point>
        </Placemark>
        <Placemark id="707">
            <name>19</name>
            <Point id="706">
                <coordinates>80.10404697542093,13.025728895032811,0.0</coordinates>
            </Point>
        </Placemark>
        <Placemark id="709">
            <name>20</name>
            <Point id="708">
                <coordinates>80.11787522872615,13.025728526257216,0.0</coordinates>
            </Point>
        </Placemark>
        <Placemark id="711">
            <name>21</name>
            <Point id="710">
                <coordinates>80.11950489355901,13.024130622016306,0.0</coordinates>
            </Point>
        </Placemark>
        <Placemark id="713">
            <name>22</name>
            <Point id="712">
                <coordinates>80.1178753290295,13.027536342451825,0.0</coordinates>
            </Point>
        </Placemark>
        <Placemark id="715">
            <name>23</name>
            <Point id="714">
                <coordinates>80.10404697542093,13.027536711280344,0.0</coordinates>
            </Point>
        </Placemark>
        <Placemark id="717">
            <name>24</name>
            <Point id="716">
                <coordinates>80.10241729876637,13.025938807261165,0.0</coordinates>
            </Point>
        </Placemark>
    </Document>
</kml>
