<?xml version="1.0" encoding="UTF-8"?>
<kml xmlns="http://www.opengis.net/kml/2.2" xmlns:gx="http://www.google.com/kml/ext/2.2">
    <Document id="1679">
        <Style id="1682">
            <LineStyle id="1683">
                <color>ff000000</color>
                <colorMode>normal</colorMode>
                <width>2</width>
            </LineStyle>
        </Style>
        <Placemark id="1681">
            <styleUrl>#1682</styleUrl>
            <LineString id="1680">
                <altitudeMode>clampToGround</altitudeMode>
                <coordinates>80.23606777481635,13.394723586875338,0.0 80.2453004688571,13.394723418167395,0.0 80.24693258322799,13.393125559768315,0.0 80.24530050332368,13.395627300291514,0.0 80.23606777481635,13.39562746901125,0.0 80.23443565435223,13.394029610725946,0.0 80.23606777481635,13.396531351082597,0.0 80.24530053779279,13.396531182351064,0.0 80.24693266434831,13.394933324179503,0.0</coordinates>
            </LineString>
        </Placemark>
        <Placemark id="1685">
            <name>1</name>
            <Point id="1684">
                <coordinates>80.23606777481635,13.394723586875338,0.0</coordinates>
            </Point>
        </Placemark>
        <Placemark id="1687">
            <name>2</name>
            <Point id="1686">
                <coordinates>80.2453004688571,13.394723418167395,0.0</coordinates>
            </Point>
        </Placemark>
        <Placemark id="1689">
            <name>3</name>
            <Point id="1688">
                <coordinates>80.24693258322799,13.393125559768315,0.0</coordinates>
            </Point>
        </Placemark>
        <Placemark id="1691">
            <name>4</name>
            <Point id="1690">
                <coordinates>80.24530050332368,13.395627300291514,0.0</coordinates>
            </Point>
        </Placemark>
        <Placemark id="1693">
            <name>5</name>
            <Point id="1692">
                <coordinates>80.23606777481635,13.39562746901125,0.0</coordinates>
            </Point>
        </Placemark>
        <Placemark id="1695">
            <name>6</name>
            <Point id="1694">
                <coordinates>80.23443565435223,13.394029610725946,0.0</coordinates>
            </Point>
        </Placemark>
        <Placemark id="1697">
            <name>7</name>
            <Point id="1696">
                <coordinates>80.23606777481635,13.396531351082597,0.0</coordinates>
            </Point>
        </Placemark>
        <Placemark id="1699">
            <name>8</name>
            <Point id="1698">
                <coordinates>80.24530053779279,13.396531182351064,0.0</coordinates>
            </Point>
        </Placemark>
        <Placemark id="1701">
            <name>9</name>
            <Point id="1700">
                <coordinates>80.24693266434831,13.394933324179503,0.0</coordinates>
            </Point>
        </Placemark>
    </Document>
</kml>
