<?xml version="1.0" encoding="UTF-8"?>
<kml xmlns="http://www.opengis.net/kml/2.2" xmlns:gx="http://www.google.com/kml/ext/2.2">
    <Document id="275">
        <Style id="278">
            <LineStyle id="279">
                <color>ff000000</color>
                <colorMode>normal</colorMode>
                <width>2</width>
            </LineStyle>
        </Style>
        <Placemark id="277">
            <styleUrl>#278</styleUrl>
            <LineString id="276">
                <altitudeMode>clampToGround</altitudeMode>
                <coordinates>80.23152871745864,13.391341000000002,0.0 80.24076128253812,13.391340831336196,0.0 80.24239337411463,13.389742972511478,0.0 80.24076129976633,13.391792772527115,0.0 80.23152871745864,13.391792941196817,0.0 80.22989662283585,13.390195082428983,0.0 80.23152871745864,13.392244882377495,0.0 80.24076131699519,13.392244713701892,0.0 80.24239341466212,13.390646854990898,0.0 80.24076133422467,13.392696654860536,0.0 80.23152871745864,13.392696823542034,0.0 80.22989661674521,13.391098964887929,0.0 80.23152871745864,13.393148764690434,0.0 80.2407613514548,13.393148596003037,0.0 80.24239345521258,13.391550737405783,0.0 80.24076136868555,13.393600537129409,0.0 80.23152871745864,13.393600705822697,0.0 80.22989661065412,13.392002847282335,0.0 80.23152871745864,13.394052646938825,0.0 80.24076138591694,13.394052478239635,0.0 80.24239349576604,13.392454619756116,0.0 80.24076140314898,13.394504419333726,0.0 80.23152871745864,13.394504588038812,0.0 80.22989660456258,13.392906729612196,0.0 80.23152871745864,13.39495652912266,0.0 80.24076142038163,13.394956360411678,0.0 80.24239353632248,13.393358502041915,0.0 80.24076143761494,13.395408301473488,0.0 80.23152871745864,13.395408470190366,0.0 80.2298965984706,13.393810611877504,0.0</coordinates>
            </LineString>
        </Placemark>
        <Placemark id="281">
            <name>1</name>
            <Point id="280">
                <coordinates>80.23152871745864,13.391341000000002,0.0</coordinates>
            </Point>
        </Placemark>
        <Placemark id="283">
            <name>2</name>
            <Point id="282">
                <coordinates>80.24076128253812,13.391340831336196,0.0</coordinates>
            </Point>
        </Placemark>
        <Placemark id="285">
            <name>3</name>
            <Point id="284">
                <coordinates>80.24239337411463,13.389742972511478,0.0</coordinates>
            </Point>
        </Placemark>
        <Placemark id="287">
            <name>4</name>
            <Point id="286">
                <coordinates>80.24076129976633,13.391792772527115,0.0</coordinates>
            </Point>
        </Placemark>
        <Placemark id="289">
            <name>5</name>
            <Point id="288">
                <coordinates>80.23152871745864,13.391792941196817,0.0</coordinates>
            </Point>
        </Placemark>
        <Placemark id="291">
            <name>6</name>
            <Point id="290">
                <coordinates>80.22989662283585,13.390195082428983,0.0</coordinates>
            </Point>
        </Placemark>
        <Placemark id="293">
            <name>7</name>
            <Point id="292">
                <coordinates>80.23152871745864,13.392244882377495,0.0</coordinates>
            </Point>
        </Placemark>
        <Placemark id="295">
            <name>8</name>
            <Point id="294">
                <coordinates>80.24076131699519,13.392244713701892,0.0</coordinates>
            </Point>
        </Placemark>
        <Placemark id="297">
            <name>9</name>
            <Point id="296">
                <coordinates>80.24239341466212,13.390646854990898,0.0</coordinates>
            </Point>
        </Placemark>
        <Placemark id="299">
            <name>10</name>
            <Point id="298">
                <coordinates>80.24076133422467,13.392696654860536,0.0</coordinates>
            </Point>
        </Placemark>
        <Placemark id="301">
            <name>11</name>
            <Point id="300">
                <coordinates>80.23152871745864,13.392696823542034,0.0</coordinates>
            </Point>
        </Placemark>
        <Placemark id="303">
            <name>12</name>
            <Point id="302">
                <coordinates>80.22989661674521,13.391098964887929,0.0</coordinates>
            </Point>
        </Placemark>
        <Placemark id="305">
            <name>13</name>
            <Point id="304">
                <coordinates>80.23152871745864,13.393148764690434,0.0</coordinates>
            </Point>
        </Placemark>
        <Placemark id="307">
            <name>14</name>
            <Point id="306">
                <coordinates>80.2407613514548,13.393148596003037,0.0</coordinates>
            </Point>
        </Placemark>
        <Placemark id="309">
            <name>15</name>
            <Point id="308">
                <coordinates>80.24239345521258,13.391550737405783,0.0</coordinates>
            </Point>
        </Placemark>
        <Placemark id="311">
            <name>16</name>
            <Point id="310">
                <coordinates>80.24076136868555,13.393600537129409,0.0</coordinates>
            </Point>
        </Placemark>
        <Placemark id="313">
            <name>17</name>
            <Point id="312">
                <coordinates>80.23152871745864,13.393600705822697,0.0</coordinates>
            </Point>
        </Placemark>
        <Placemark id="315">
            <name>18</name>
            <Point id="314">
                <coordinates>80.22989661065412,13.392002847282335,0.0</coordinates>
            </Point>
        </Placemark>
        <Placemark id="317">
            <name>19</name>
            <Point id="316">
                <coordinates>80.23152871745864,13.394052646938825,0.0</coordinates>
            </Point>
        </Placemark>
        <Placemark id="319">
            <name>20</name>
            <Point id="318">
                <coordinates>80.24076138591694,13.394052478239635,0.0</coordinates>
            </Point>
        </Placemark>
        <Placemark id="321">
            <name>21</name>
            <Point id="320">
                <coordinates>80.24239349576604,13.392454619756116,0.0</coordinates>
            </Point>
        </Placemark>
        <Placemark id="323">
            <name>22</name>
            <Point id="322">
                <coordinates>80.24076140314898,13.394504419333726,0.0</coordinates>
            </Point>
        </Placemark>
        <Placemark id="325">
            <name>23</name>
            <Point id="324">
                <coordinates>80.23152871745864,13.394504588038812,0.0</coordinates>
            </Point>
        </Placemark>
        <Placemark id="327">
            <name>24</name>
            <Point id="326">
                <coordinates>80.22989660456258,13.392906729612196,0.0</coordinates>
            </Point>
        </Placemark>
        <Placemark id="329">
            <name>25</name>
            <Point id="328">
                <coordinates>80.23152871745864,13.39495652912266,0.0</coordinates>
            </Point>
        </Placemark>
        <Placemark id="331">
            <name>26</name>
            <Point id="330">
                <coordinates>80.24076142038163,13.394956360411678,0.0</coordinates>
            </Point>
        </Placemark>
        <Placemark id="333">
            <name>27</name>
            <Point id="332">
                <coordinates>80.24239353632248,13.393358502041915,0.0</coordinates>
            </Point>
        </Placemark>
        <Placemark id="335">
            <name>28</name>
            <Point id="334">
                <coordinates>80.24076143761494,13.395408301473488,0.0</coordinates>
            </Point>
        </Placemark>
        <Placemark id="337">
            <name>29</name>
            <Point id="336">
                <coordinates>80.23152871745864,13.395408470190366,0.0</coordinates>
            </Point>
        </Placemark>
        <Placemark id="339">
            <name>30</name>
            <Point id="338">
                <coordinates>80.2298965984706,13.393810611877504,0.0</coordinates>
            </Point>
        </Placemark>
    </Document>
</kml>
